"id","ident","type","name","latitude_deg","longitude_deg","elevation_ft","continent","iso_country","iso_region","municipality","scheduled_service","gps_code","iata_code","local_code","home_link","wikipedia_link","keywords"
3,"AGGH","medium_airport","Honiara International Airport",-9.428,160.055,28,"OC","SB","SB-CT","Honiara","yes","AGGH","HIR","","","http://en.wikipedia.org/wiki/Honiara_International_Airport","Henderson Field"
4,"AGGM","medium_airport","Munda Airport",-8.32797,157.263,10,"OC","SB","SB-WE","","yes","AGGM","MUA","","","http://en.wikipedia.org/wiki/Munda_Airport",""
8,"ANYN","medium_airport","Nauru International Airport",-0.547458,166.919,22,"OC","NR","NR-14","Yaren District","yes","ANYN","INU","","","http://en.wikipedia.org/wiki/Nauru_International_Airport","ANAU"
53,"AYBK","medium_airport","Buka Airport",-5.42232,154.673,11,"OC","PG","PG-NSB","Buka Island","yes","AYBK","BUA","","","http://en.wikipedia.org/wiki/Buka_Airport",""
54,"AYCH","medium_airport","Chimbu Airport",-6.02429,144.971,4974,"OC","PG","PG-CPK","Kundiawa","yes","AYCH","CMU","","","http://en.wikipedia.org/wiki/Chimbu_Airport",""
55,"AYDU","medium_airport","Daru Airport",-9.08676,143.208,20,"OC","PG","PG-WPD","Daru","yes","AYDU","DAU","","","http://en.wikipedia.org/wiki/Daru_Airport",""
56,"AYGA","medium_airport","Goroka Airport",-6.08169,145.392,5282,"OC","PG","PG-EHG","Goronka","yes","AYGA","GKA","","","http://en.wikipedia.org/wiki/Goroka_Airport",""
57,"AYGN","medium_airport","Gurney Airport",-10.3115,150.334,88,"OC","PG","PG-MBA","Gurney","yes","AYGN","GUR","","","http://en.wikipedia.org/wiki/Gurney_Airport",""
58,"AYGR","medium_airport","Girua Airport",-8.80454,148.309,311,"OC","PG","PG-NPP","Popondetta","yes","AYGR","PNP","","","http://en.wikipedia.org/wiki/Girua_Airport",""
59,"AYHK","medium_airport","Kimbe Airport",-5.46217,150.405,66,"OC","PG","PG-WBK","Hoskins","yes","AYHK","HKN","","","http://en.wikipedia.org/wiki/Hoskins_Airport",""
60,"AYKM","medium_airport","Kerema Airport",-7.96361,145.771,10,"OC","PG","PG-GPK","Kerema","yes","AYKM","KMA","","","http://en.wikipedia.org/wiki/Kerema_Airport",""
61,"AYKV","medium_airport","Kavieng Airport",-2.5794,150.808,7,"OC","PG","PG-NIK","Kavieng","yes","AYKV","KVG","","","http://en.wikipedia.org/wiki/Kavieng_Airport",""
62,"AYMD","medium_airport","Madang Airport",-5.20708,145.789,20,"OC","PG","PG-MPM","Madang","yes","AYMD","MAG","","","http://en.wikipedia.org/wiki/Madang_Airport",""
63,"AYMH","medium_airport","Mount Hagen Kagamuga Airport",-5.82679,144.296,5388,"OC","PG","PG-WHM","Mount Hagen","yes","AYMH","HGU","","","http://en.wikipedia.org/wiki/Mount_Hagen_Airport",""
64,"AYMN","medium_airport","Mendi Airport",-6.14774,143.657,5680,"OC","PG","PG-SHM","Mendi","yes","AYMN","MDU","","","http://en.wikipedia.org/wiki/Mendi_Airport",""
65,"AYMO","medium_airport","Momote Airport",-2.06189,147.424,12,"OC","PG","PG-MRL","Manus Island","yes","AYMO","MAS","","","http://en.wikipedia.org/wiki/Momote_Airport",""
66,"AYNZ","medium_airport","Nadzab Airport",-6.5698,146.726,239,"OC","PG","PG-MPL","Lae","yes","AYNZ","LAE","","","http://en.wikipedia.org/wiki/Lae_Nadzab_Airport","MFO"
67,"AYPY","large_airport","Port Moresby Jacksons International Airport",-9.44338,147.22,146,"OC","PG","PG-NCD","Port Moresby","yes","AYPY","POM","","","http://en.wikipedia.org/wiki/Jacksons_International_Airport",""
68,"AYTK","medium_airport","Tokua Airport",-4.34046,152.38,32,"OC","PG","PG-EBR","Tokua","yes","AYTK","RAB","","","http://en.wikipedia.org/wiki/Rabaul_Airport",""
69,"AYVN","medium_airport","Vanimo Airport",-2.6926,141.303,10,"OC","PG","PG-SAN","Vanimo","yes","AYVN","VAI","","","http://en.wikipedia.org/wiki/Vanimo_Airport",""
70,"AYWD","medium_airport","Wapenamanda Airport",-5.6433,143.895,5889,"OC","PG","PG-EPW","","yes","AYWD","WBM","","","http://en.wikipedia.org/wiki/Wapenamanda_Airport",""
71,"AYWK","medium_airport","Wewak International Airport",-3.58383,143.669,19,"OC","PG","PG-ESW","Wewak","yes","AYWK","WWK","","","http://en.wikipedia.org/wiki/Wewak_International_Airport",""
113,"BGBW","medium_airport","Narsarsuaq Airport",61.1605,-45.426,112,"NA","GL","GL-U-A","Narsarsuaq","yes","BGBW","UAK","","","http://en.wikipedia.org/wiki/Narsarsuaq_Airport",""
114,"BGGH","medium_airport","Godthaab / Nuuk Airport",64.1909,-51.6781,283,"NA","GL","GL-U-A","Nuuk","yes","BGGH","GOH","","","http://en.wikipedia.org/wiki/Nuuk_Airport","Nuussuaq"
115,"BGSF","medium_airport","Kangerlussuaq Airport",67.0122,-50.7116,165,"NA","GL","GL-U-A","Kangerlussuaq","yes","BGSF","SFJ","","","http://en.wikipedia.org/wiki/Kangerlussuaq_Airport","Sondre Stromfjord"
117,"BIAR","medium_airport","Akureyri Airport",65.66,-18.0727,6,"EU","IS","IS-6","Akureyri","yes","BIAR","AEY","","","http://en.wikipedia.org/wiki/Akureyri_Airport",""
119,"BIEG","medium_airport","Egilsstaðir Airport",65.2833,-14.4014,76,"EU","IS","IS-7","Egilsstaðir","yes","BIEG","EGS","","","http://en.wikipedia.org/wiki/Egilssta%C3%B0ir_Airport",""
120,"BIHN","medium_airport","Hornafjörður Airport",64.2956,-15.2272,24,"EU","IS","IS-8","Höfn","yes","BIHN","HFN","","","https://en.wikipedia.org/wiki/Hornafj%C3%B6r%C3%B0ur_Airport",""
121,"BIHU","medium_airport","Húsavík Airport",65.9523,-17.426,48,"EU","IS","IS-6","Húsavík","yes","BIHU","HZK","","","https://en.wikipedia.org/wiki/H%C3%BAsav%C3%ADk_Airport",""
122,"BIIS","medium_airport","Ísafjörður Airport",66.0581,-23.1353,8,"EU","IS","IS-4","Ísafjörður","yes","BIIS","IFJ","","","http://en.wikipedia.org/wiki/%C3%8Dsafj%C3%B6r%C3%B0ur_Airport",""
123,"BIKF","large_airport","Keflavik International Airport",63.985,-22.6056,171,"EU","IS","IS-2","Reykjavík","yes","BIKF","KEF","","","http://en.wikipedia.org/wiki/Keflav%C3%ADk_International_Airport","Keflavik Naval Air Station,REK"
125,"BIRK","medium_airport","Reykjavik Airport",64.13,-21.9406,48,"EU","IS","IS-1","Reykjavik","yes","BIRK","RKV","","","http://en.wikipedia.org/wiki/Reykjav%C3%ADk_Airport","REK"
126,"BISI","medium_airport","Siglufjörður Airport",66.1333,-18.9167,10,"EU","IS","IS-6","Siglufjörður","no","BISI","SIJ","","","https://en.wikipedia.org/wiki/Siglufj%C3%B6r%C3%B0ur_Airport",""
128,"BIVM","medium_airport","Vestmannaeyjar Airport",63.4243,-20.2789,326,"EU","IS","IS-8","Vestmannaeyjar","no","BIVM","VEY","","","http://en.wikipedia.org/wiki/Vestmannaeyjar_Airport",""
517,"SSZW","medium_airport","Ponta Grossa Airport - Comandante Antonio Amilton Beraldo",-25.1847,-50.1441,2588,"SA","BR","BR-PR","Ponta Grossa","yes","SSZW","PGZ","SSZW","","https://pt.wikipedia.org/wiki/Aeroporto_de_Ponta_Grossa","Sant'ana Airport"
538,"SWGN","medium_airport","Araguaína Airport",-7.22787,-48.2405,771,"SA","BR","BR-TO","Araguaína","yes","SWGN","AUX","SWGN","","https://en.wikipedia.org/wiki/Aragua%C3%ADna_Airport",""
1652,"CYAC","medium_airport","Cat Lake Airport",51.7272,-91.8244,1344,"NA","CA","CA-ON","Cat Lake","yes","CYAC","YAC","","","http://en.wikipedia.org/wiki/Cat_Lake_Airport",""
1655,"CYAH","medium_airport","La Grande-4 Airport",53.7547,-73.6753,1005,"NA","CA","CA-QC","La Grande-4","no","CYAH","YAH","","","http://en.wikipedia.org/wiki/La_Grande-4_Airport","YAH"
1656,"CYAL","medium_airport","Alert Bay Airport",50.5822,-126.916,240,"NA","CA","CA-BC","Alert Bay","no","CYAL","YAL","","","http://en.wikipedia.org/wiki/Alert_Bay_Airport",""
1657,"CYAM","medium_airport","Sault Ste Marie Airport",46.485,-84.5094,630,"NA","CA","CA-ON","Sault Ste Marie","yes","CYAM","YAM","","http://www.saultairport.com/","http://en.wikipedia.org/wiki/Sault_Ste._Marie_Airport",""
1658,"CYAQ","medium_airport","Kasabonika Airport",53.5247,-88.6428,672,"NA","CA","CA-ON","Kasabonika","yes","CYAQ","XKS","","","http://en.wikipedia.org/wiki/Kasabonika_Airport","YAQ"
1659,"CYAS","medium_airport","Kangirsuk Airport",60.0272,-69.9992,403,"NA","CA","CA-QC","Kangirsuk","yes","CYAS","YKG","","","http://en.wikipedia.org/wiki/Kangirsuk_Airport","YAS"
1660,"CYAT","medium_airport","Attawapiskat Airport",52.9275,-82.4319,31,"NA","CA","CA-ON","Attawapiskat","yes","CYAT","YAT","","","http://en.wikipedia.org/wiki/Attawapiskat_Airport",""
1665,"CYAY","medium_airport","St. Anthony Airport",51.3919,-56.0831,108,"NA","CA","CA-NL","St. Anthony","yes","CYAY","YAY","","","http://en.wikipedia.org/wiki/St._Anthony_Airport",""
1666,"CYAZ","medium_airport","Tofino / Long Beach Airport",49.0798,-125.776,80,"NA","CA","CA-BC","Tofino","yes","CYAZ","YAZ","","http://www.acrd.bc.ca/long-beach-airport","http://en.wikipedia.org/wiki/Tofino_Airport",""
1668,"CYBB","medium_airport","Kugaaruk Airport",68.5344,-89.8081,56,"NA","CA","CA-NU","Kugaaruk","yes","CYBB","YBB","","","http://en.wikipedia.org/wiki/Kugaaruk_Airport","YBB, Pelly Bay Townsite Airport"
1669,"CYBC","medium_airport","Baie Comeau Airport",49.1325,-68.2044,71,"NA","CA","CA-QC","Baie-Comeau","yes","CYBC","YBC","","","http://en.wikipedia.org/wiki/Baie-Comeau_Airport",""
1670,"CYBD","medium_airport","Bella Coola Airport",52.3875,-126.596,117,"NA","CA","CA-BC","Bella Coola","yes","CYBD","QBC","","","http://en.wikipedia.org/wiki/Bella_Coola_Airport","YBD"
1671,"CYBE","medium_airport","Uranium City Airport",59.5614,-108.481,1044,"NA","CA","CA-SK","Uranium City","yes","CYBE","YBE","","","http://en.wikipedia.org/wiki/Uranium_City_Airport",""
1672,"CYBF","medium_airport","Bonnyville Airport",54.3042,-110.744,1836,"NA","CA","CA-AB","Bonnyville","yes","CYBF","YBY","","http://town.bonnyville.ab.ca/livingin/airport/index.html","http://en.wikipedia.org/wiki/Bonnyville_Airport","YBF"
1673,"CYBG","medium_airport","CFB Bagotville",48.3306,-70.9964,522,"NA","CA","CA-QC","Bagotville","yes","CYBG","YBG","","","http://en.wikipedia.org/wiki/CFB_Bagotville","Bagotville Airport"
1674,"CYBK","medium_airport","Baker Lake Airport",64.2989,-96.0778,59,"NA","CA","CA-NU","Baker Lake","yes","CYBK","YBK","","","http://en.wikipedia.org/wiki/Baker_Lake_Airport",""
1675,"CYBL","medium_airport","Campbell River Airport",49.9508,-125.271,346,"NA","CA","CA-BC","Campbell River","yes","CYBL","YBL","","","http://en.wikipedia.org/wiki/Campbell_River_Airport",""
1677,"CYBQ","medium_airport","Tadoule Lake Airport",58.7061,-98.5122,923,"NA","CA","CA-MB","Tadoule Lake","yes","CYBQ","XTL","","","http://en.wikipedia.org/wiki/Tadoule_Lake_Airport","YBQ"
1678,"CYBR","medium_airport","Brandon Municipal Airport",49.91,-99.9519,1343,"NA","CA","CA-MB","Brandon","yes","CYBR","YBR","","","http://en.wikipedia.org/wiki/Brandon_Airport",""
1679,"CYBT","medium_airport","Brochet Airport",57.8894,-101.679,1136,"NA","CA","CA-MB","Brochet","yes","CYBT","YBT","","","http://en.wikipedia.org/wiki/Brochet_Airport",""
1681,"CYBV","medium_airport","Berens River Airport",52.3589,-97.0183,728,"NA","CA","CA-MB","Berens River","yes","CYBV","YBV","","","http://en.wikipedia.org/wiki/Berens_River_Airport",""
1683,"CYBX","medium_airport","Lourdes de Blanc Sablon Airport",51.4436,-57.1853,121,"NA","CA","CA-QC","Lourdes-De-Blanc-Sablon","yes","CYBX","YBX","","","http://en.wikipedia.org/wiki/Lourdes-de-Blanc-Sablon_Airport",""
1684,"CYCA","medium_airport","Cartwright Airport",53.6828,-57.0419,40,"NA","CA","CA-NL","Cartwright","yes","CYCA","YRF","","","http://en.wikipedia.org/wiki/Cartwright_Airport","YCA"
1685,"CYCB","medium_airport","Cambridge Bay Airport",69.1081,-105.138,90,"NA","CA","CA-NU","Cambridge Bay","yes","CYCB","YCB","","","http://en.wikipedia.org/wiki/Cambridge_Bay_Airport",""
1686,"CYCC","medium_airport","Cornwall Regional Airport",45.0928,-74.5633,175,"NA","CA","CA-ON","Cornwall","no","CYCC","YCC","","","http://en.wikipedia.org/wiki/Cornwall_Regional_Airport",""
1687,"CYCD","medium_airport","Nanaimo Airport",49.055,-123.87,92,"NA","CA","CA-BC","Nanaimo","yes","CYCD","YCD","","","http://en.wikipedia.org/wiki/Nanaimo_Airport",""
1688,"CYCE","medium_airport","Centralia / James T. Field Memorial Aerodrome",43.2856,-81.5083,824,"NA","CA","CA-ON","Centralia","no","CYCE","YCE","CYCE","","http://en.wikipedia.org/wiki/Centralia/Huron_Airpark","RCAF Station Centralia, Huron Airpark"
1689,"CYCG","medium_airport","Castlegar/West Kootenay Regional Airport",49.2964,-117.632,1624,"NA","CA","CA-BC","Castlegar","yes","CYCG","YCG","","","http://en.wikipedia.org/wiki/Castlegar_Airport",""
1690,"CYCH","medium_airport","Miramichi Airport",47.0078,-65.4492,108,"NA","CA","CA-NB","Miramichi","yes","CYCH","YCH","","","http://en.wikipedia.org/wiki/Miramichi_Airport","CFB Chatham, RCAF Station Chatham"
1691,"CYCL","medium_airport","Charlo Airport",47.9908,-66.3303,132,"NA","CA","CA-NB","Charlo","yes","CYCL","YCL","","","http://en.wikipedia.org/wiki/Charlo_Airport",""
1692,"CYCN","medium_airport","Cochrane Airport",49.1056,-81.0136,861,"NA","CA","CA-ON","Cochrane","no","CYCN","YCN","","","http://en.wikipedia.org/wiki/Cochrane_Airport",""
1693,"CYCO","medium_airport","Kugluktuk Airport",67.8167,-115.144,74,"NA","CA","CA-NU","Kugluktuk","yes","CYCO","YCO","","","http://en.wikipedia.org/wiki/Kugluktuk_Airport","Copper Mine Airport"
1695,"CYCQ","medium_airport","Chetwynd Airport",55.6872,-121.627,2000,"NA","CA","CA-BC","Chetwynd","no","CYCQ","YCQ","","","http://en.wikipedia.org/wiki/Chetwynd_Airport",""
1696,"CYCR","medium_airport","Cross Lake (Charlie Sinclair Memorial) Airport",54.6106,-97.7608,709,"NA","CA","CA-MB","Cross Lake","no","CYCR","YCR","","","http://en.wikipedia.org/wiki/Cross_Lake_(Charlie_Sinclair_Memorial)_Airport",""
1697,"CYCS","medium_airport","Chesterfield Inlet Airport",63.3469,-90.7311,32,"NA","CA","CA-NU","Chesterfield Inlet","yes","CYCS","YCS","","","http://en.wikipedia.org/wiki/Chesterfield_Inlet_Airport",""
1701,"CYCY","medium_airport","Clyde River Airport",70.4861,-68.5167,87,"NA","CA","CA-NU","Clyde River","yes","CYCY","YCY","","","http://en.wikipedia.org/wiki/Clyde_River_Airport",""
1703,"CYDA","medium_airport","Dawson City Airport",64.0431,-139.128,1215,"NA","CA","CA-YT","Dawson City","yes","CYDA","YDA","","","http://en.wikipedia.org/wiki/Dawson_City_Airport",""
1704,"CYDB","medium_airport","Burwash Airport",61.3711,-139.041,2647,"NA","CA","CA-YT","Burwash","no","CYDB","YDB","","","http://en.wikipedia.org/wiki/Burwash_Airport",""
1706,"CYDF","medium_airport","Deer Lake Airport",49.2108,-57.3914,72,"NA","CA","CA-NL","Deer Lake","yes","CYDF","YDF","","","http://en.wikipedia.org/wiki/Deer_Lake_Airport_(Newfoundland)",""
1709,"CYDM","medium_airport","Ross River Airport",61.9706,-132.423,2314,"NA","CA","CA-YT","Ross River","no","CYDM","XRR","YDM","","http://en.wikipedia.org/wiki/Ross_River_Airport",""
1710,"CYDN","medium_airport","Dauphin Barker Airport",51.1008,-100.052,999,"NA","CA","CA-MB","Dauphin","yes","CYDN","YDN","","","http://en.wikipedia.org/wiki/Dauphin_(Lt._Col_W.G._(Billy)_Barker_VC_Airport)",""
1711,"CYDO","medium_airport","Dolbeau St Felicien Airport",48.7785,-72.375,372,"NA","CA","CA-QC","Dolbeau-St-Félicien","no","CYDO","YDO","","","http://en.wikipedia.org/wiki/Dolbeau-St-F%C3%A9licien_Airport","Dolbeau St Methode"
1712,"CYDP","medium_airport","Nain Airport",56.5492,-61.6803,22,"NA","CA","CA-NL","Nain","yes","CYDP","YDP","","","http://en.wikipedia.org/wiki/Nain_Airport",""
1713,"CYDQ","medium_airport","Dawson Creek Airport",55.7423,-120.183,2148,"NA","CA","CA-BC","Dawson Creek","yes","CYDQ","YDQ","","","http://en.wikipedia.org/wiki/Dawson_Creek_Airport",""
1717,"CYEG","large_airport","Edmonton International Airport",53.3097,-113.58,2373,"NA","CA","CA-AB","Edmonton","yes","CYEG","YEG","CYEG","http://www.edmontonairports.com/","http://en.wikipedia.org/wiki/Edmonton_International_Airport","YEA"
1718,"CYEK","medium_airport","Arviat Airport",61.0942,-94.0708,32,"NA","CA","CA-NU","Arviat","yes","CYEK","YEK","","","http://en.wikipedia.org/wiki/Arviat_Airport",""
1719,"CYEL","medium_airport","Elliot Lake Municipal Airport",46.3514,-82.5614,1087,"NA","CA","CA-ON","Elliot Lake","no","CYEL","YEL","","http://cyelont.tripod.com/cyel/","http://en.wikipedia.org/wiki/Elliot_Lake_Municipal_Airport",""
1720,"CYEM","medium_airport","Manitoulin East Municipal Airport",45.8428,-81.8581,869,"NA","CA","CA-ON","Manitowaning","no","CYEM","YEM","","","http://en.wikipedia.org/wiki/Manitowaning/Manitoulin_East_Municipal_Airport",""
1721,"CYEN","medium_airport","Estevan Airport",49.2103,-102.966,1905,"NA","CA","CA-SK","Estevan","no","CYEN","YEN","","","http://en.wikipedia.org/wiki/Estevan_Regional_Aerodrome","YEN"
1724,"CYET","medium_airport","Edson Airport",53.5789,-116.465,3043,"NA","CA","CA-AB","Edson","no","CYET","YET","","","http://en.wikipedia.org/wiki/Edson_Airport",""
1726,"CYEV","medium_airport","Inuvik Mike Zubko Airport",68.3042,-133.483,224,"NA","CA","CA-NT","Inuvik","yes","CYEV","YEV","","","http://en.wikipedia.org/wiki/Inuvik_(Mike_Zubko)_Airport",""
1727,"CYEY","medium_airport","Amos/Magny Airport",48.5639,-78.2497,1068,"NA","CA","CA-QC","Amos","no","CYEY","YEY","","","http://en.wikipedia.org/wiki/Amos/Magny_Airport",""
1729,"CYFB","medium_airport","Iqaluit Airport",63.7564,-68.5558,110,"NA","CA","CA-NU","Iqaluit","yes","CYFB","YFB","","","http://en.wikipedia.org/wiki/Iqaluit_Airport","Frobisher Bay Air Base"
1730,"CYFC","medium_airport","Fredericton Airport",45.8689,-66.5372,68,"NA","CA","CA-NB","Fredericton","yes","CYFC","YFC","","","http://en.wikipedia.org/wiki/Greater_Fredericton_Airport",""
1732,"CYFE","medium_airport","Forestville Airport",48.7461,-69.0972,293,"NA","CA","CA-QC","Forestville","no","CYFE","YFE","","","http://en.wikipedia.org/wiki/Forestville_Airport",""
1734,"CYFJ","medium_airport","La Macaza / Mont-Tremblant International Inc Airport",46.4094,-74.78,827,"NA","CA","CA-QC","Rivière Rouge","no","CYFJ","YTM","","http://www.mtia.ca/","http://en.wikipedia.org/wiki/Rivi%C3%A8re_Rouge/Mont-Tremblant_International_Inc_Airport","YFJ, CYTM"
1735,"CYFO","medium_airport","Flin Flon Airport",54.6781,-101.682,997,"NA","CA","CA-MB","Flin Flon","yes","CYFO","YFO","","","http://en.wikipedia.org/wiki/Flin_Flon_Airport",""
1738,"CYFT","medium_airport","Makkovik Airport",55.0769,-59.1864,234,"NA","CA","CA-NL","Makkovik","yes","CYFT","YMN","","","http://en.wikipedia.org/wiki/Makkovik_Airport","YFT"
1739,"CYGB","medium_airport","Texada Gillies Bay Airport",49.6942,-124.518,326,"NA","CA","CA-BC","Texada","yes","CYGB","YGB","","","http://en.wikipedia.org/wiki/Texada/Gillies_Bay_Airport",""
1743,"CYGK","medium_airport","Kingston Norman Rogers Airport",44.2253,-76.5969,305,"NA","CA","CA-ON","Kingston","yes","CYGK","YGK","","http://www.cityofkingston.ca/residents/transportation/airport/index.asp","http://en.wikipedia.org/wiki/Kingston/Norman_Rogers_Airport",""
1744,"CYGL","medium_airport","La Grande Rivière Airport",53.6253,-77.7042,639,"NA","CA","CA-QC","La Grande Rivière","yes","CYGL","YGL","","","http://en.wikipedia.org/wiki/La_Grande_Rivi%C3%A8re_Airport",""
1745,"CYGM","medium_airport","Gimli Industrial Park Airport",50.6281,-97.0433,753,"NA","CA","CA-MB","Gimli","no","CYGM","YGM","","","http://en.wikipedia.org/wiki/Gimli_Industrial_Park_Airport",""
1746,"CYGO","medium_airport","Gods Lake Narrows Airport",54.5589,-94.4914,617,"NA","CA","CA-MB","Gods Lake Narrows","yes","CYGO","YGO","","","http://en.wikipedia.org/wiki/Gods_Lake_Narrows_Airport",""
1747,"CYGP","medium_airport","Gaspé (Michel-Pouliot) Airport",48.7753,-64.4786,112,"NA","CA","CA-QC","Gaspé","yes","CYGP","YGP","","","http://en.wikipedia.org/wiki/Gasp%C3%A9_Airport",""
1748,"CYGQ","medium_airport","Geraldton Greenstone Regional Airport",49.7783,-86.9394,1144,"NA","CA","CA-ON","Geraldton","no","CYGQ","YGQ","","","http://en.wikipedia.org/wiki/Geraldton_(Greenstone_Regional)_Airport",""
1749,"CYGR","medium_airport","Îles-de-la-Madeleine Airport",47.4247,-61.7781,35,"NA","CA","CA-QC","Îles-de-la-Madeleine","yes","CYGR","YGR","","","http://en.wikipedia.org/wiki/%C3%8Eles-de-la-Madeleine_Airport",""
1750,"CYGT","medium_airport","Igloolik Airport",69.3647,-81.8161,174,"NA","CA","CA-NU","Igloolik","yes","CYGT","YGT","","","http://en.wikipedia.org/wiki/Igloolik_Airport",""
1751,"CYGV","medium_airport","Havre St Pierre Airport",50.2819,-63.6114,124,"NA","CA","CA-QC","Havre St-Pierre","no","CYGV","YGV","","","http://en.wikipedia.org/wiki/Havre_St-Pierre_Airport",""
1752,"CYGW","medium_airport","Kuujjuarapik Airport",55.2819,-77.7653,34,"NA","CA","CA-QC","Kuujjuarapik","yes","CYGW","YGW","","","http://en.wikipedia.org/wiki/Kuujjuarapik_Airport",""
1753,"CYGX","medium_airport","Gillam Airport",56.3575,-94.7106,476,"NA","CA","CA-MB","Gillam","yes","CYGX","YGX","","","http://en.wikipedia.org/wiki/Gillam_Airport",""
1754,"CYGZ","medium_airport","Grise Fiord Airport",76.4261,-82.9092,146,"NA","CA","CA-NU","Grise Fiord","yes","CYGZ","YGZ","","","http://en.wikipedia.org/wiki/Grise_Fiord_Airport",""
1755,"CYHA","medium_airport","Quaqtaq Airport",61.0464,-69.6178,103,"NA","CA","CA-QC","Quaqtaq","yes","CYHA","YQC","","","http://en.wikipedia.org/wiki/Quaqtaq_Airport","YHA"
1757,"CYHD","medium_airport","Dryden Regional Airport",49.8317,-92.7442,1354,"NA","CA","CA-ON","Dryden","yes","CYHD","YHD","","","http://en.wikipedia.org/wiki/Dryden_Regional_Airport",""
1758,"CYHE","medium_airport","Hope Airport",49.3683,-121.498,128,"NA","CA","CA-BC","Hope","no","CYHE","YHE","","","http://en.wikipedia.org/wiki/Hope_Aerodrome","YHE"
1759,"CYHF","medium_airport","Hearst René Fontaine Municipal Airport",49.7142,-83.6861,827,"NA","CA","CA-ON","Hearst","no","CYHF","YHF","","","http://en.wikipedia.org/wiki/Hearst_(Ren%C3%A9_Fontaine)_Municipal_Airport",""
1760,"CYHH","medium_airport","Nemiscau Airport",51.6911,-76.1356,802,"NA","CA","CA-QC","Nemiscau","yes","CYHH","YNS","","","http://en.wikipedia.org/wiki/Nemiscau_Airport","YHH"
1761,"CYHI","medium_airport","Ulukhaktok Holman Airport",70.7628,-117.806,117,"NA","CA","CA-NT","Ulukhaktok","yes","CYHI","YHI","","","http://en.wikipedia.org/wiki/Ulukhaktok/Holman_Airport",""
1762,"CYHK","medium_airport","Gjoa Haven Airport",68.6356,-95.8497,152,"NA","CA","CA-NU","Gjoa Haven","yes","CYHK","YHK","","","http://en.wikipedia.org/wiki/Gjoa_Haven_Airport",""
1763,"CYHM","medium_airport","John C. Munro Hamilton International Airport",43.1736,-79.935,780,"NA","CA","CA-ON","Hamilton","yes","CYHM","YHM","","http://www.flyhi.ca/","http://en.wikipedia.org/wiki/Hamilton/John_C._Munro_International_Airport","Mount Hope Airport"
1764,"CYHN","medium_airport","Hornepayne Municipal Airport",49.1931,-84.7589,1099,"NA","CA","CA-ON","Hornepayne","no","CYHN","YHN","","","http://en.wikipedia.org/wiki/Hornepayne_Municipal_Airport",""
1765,"CYHO","medium_airport","Hopedale Airport",55.4483,-60.2286,39,"NA","CA","CA-NL","Hopedale","yes","CYHO","YHO","","","http://en.wikipedia.org/wiki/Hopedale_Airport",""
1766,"CYHR","medium_airport","Chevery Airport",50.4689,-59.6367,39,"NA","CA","CA-QC","Chevery","yes","CYHR","YHR","","","http://en.wikipedia.org/wiki/Chevery_Airport",""
1767,"CYHT","medium_airport","Haines Junction Airport",60.7892,-137.546,2150,"NA","CA","CA-YT","Haines Junction","no","CYHT","YHT","","","http://en.wikipedia.org/wiki/Haines_Junction_Airport",""
1768,"CYHU","medium_airport","Montréal / Saint-Hubert Airport",45.5175,-73.4169,90,"NA","CA","CA-QC","Montréal","yes","CYHU","YHU","","http://www.dashl.ca/","http://en.wikipedia.org/wiki/Montr%C3%A9al/St-Hubert_Airport",""
1769,"CYHY","medium_airport","Hay River / Merlyn Carter Airport",60.8397,-115.783,541,"NA","CA","CA-NT","Hay River","yes","CYHY","YHY","","","http://en.wikipedia.org/wiki/Hay_River_Airport",""
1770,"CYHZ","large_airport","Halifax / Stanfield International Airport",44.8808,-63.5086,477,"NA","CA","CA-NS","Halifax","yes","CYHZ","YHZ","","http://www.hiaa.ca/","http://en.wikipedia.org/wiki/Halifax_International_Airport","Robert L. Stanfield International Airport"
1771,"CYIB","medium_airport","Atikokan Municipal Airport",48.7739,-91.6386,1408,"NA","CA","CA-ON","Atikokan","no","CYIB","YIB","","http://www.atikokaninfo.com/community/transportation/airport/","http://en.wikipedia.org/wiki/Atikokan_Municipal_Airport",""
1772,"CYID","medium_airport","Digby / Annapolis Regional Airport",44.5458,-65.7854,499,"NA","CA","CA-NS","Digby","no","CYID","YDG","","","http://en.wikipedia.org/wiki/Digby_Airport","YID"
1773,"CYIF","medium_airport","St Augustin Airport",51.2117,-58.6583,20,"NA","CA","CA-QC","St-Augustin","no","CYIF","YIF","","","http://en.wikipedia.org/wiki/St-Augustin_Airport","Pakuashipi Airport"
1774,"CYIK","medium_airport","Ivujivik Airport",62.4173,-77.9253,126,"NA","CA","CA-QC","Ivujivik","yes","CYIK","YIK","","","http://en.wikipedia.org/wiki/Ivujivik_Airport",""
1775,"CYIO","medium_airport","Pond Inlet Airport",72.6833,-77.9667,181,"NA","CA","CA-NU","Pond Inlet","yes","CYIO","YIO","","","http://en.wikipedia.org/wiki/Pond_Inlet_Airport",""
1776,"CYIV","medium_airport","Island Lake Airport",53.8572,-94.6536,770,"NA","CA","CA-MB","Island Lake","yes","CYIV","YIV","","","http://en.wikipedia.org/wiki/Island_Lake_Airport",""
1780,"CYJN","medium_airport","St Jean Airport",45.2944,-73.2811,136,"NA","CA","CA-QC","St Jean","no","CYJN","YJN","","","http://en.wikipedia.org/wiki/St-Jean_Airport",""
1783,"CYJT","medium_airport","Stephenville Airport",48.5442,-58.55,84,"NA","CA","CA-NL","Stephenville","yes","CYJT","YJT","","","http://en.wikipedia.org/wiki/Stephenville_Airport",""
1784,"CYKA","medium_airport","Kamloops Airport",50.7022,-120.444,1133,"NA","CA","CA-BC","Kamloops","yes","CYKA","YKA","","","http://en.wikipedia.org/wiki/Kamloops_Airport",""
1786,"CYKD","medium_airport","Aklavik/Freddie Carmichael Airport",68.2233,-135.006,23,"NA","CA","CA-NT","Aklavik","yes","CYKD","LAK","","","http://en.wikipedia.org/wiki/Aklavik_Airport","YKD"
1787,"CYKF","medium_airport","Waterloo Airport",43.4608,-80.3786,1055,"NA","CA","CA-ON","Kitchener","yes","CYKF","YKF","","http://www.waterlooairport.ca/","http://en.wikipedia.org/wiki/Region_of_Waterloo_International_Airport","Kitchener, Cambridge, YFK"
1788,"CYKG","medium_airport","Kangiqsujuaq (Wakeham Bay) Airport",61.5886,-71.9294,501,"NA","CA","CA-QC","Kangiqsujuaq","yes","CYKG","YWB","","","http://en.wikipedia.org/wiki/Kangiqsujuaq_(Wakeham_Bay)_Airport","YKG"
1789,"CYKJ","medium_airport","Key Lake Airport",57.2561,-105.618,1679,"NA","CA","CA-SK","Key Lake","no","CYKJ","YKJ","","","http://en.wikipedia.org/wiki/Key_Lake_Airport",""
1790,"CYKL","medium_airport","Schefferville Airport",54.8053,-66.8053,1709,"NA","CA","CA-QC","Schefferville","yes","CYKL","YKL","","","http://en.wikipedia.org/wiki/Schefferville_Airport",""
1791,"CYKO","medium_airport","Akulivik Airport",60.8186,-78.1486,75,"NA","CA","CA-QC","Akulivik","yes","CYKO","AKV","","","http://en.wikipedia.org/wiki/Akulivik_Airport","YKO"
1792,"CYKQ","medium_airport","Waskaganish Airport",51.4733,-78.7583,80,"NA","CA","CA-QC","Waskaganish","yes","CYKQ","YKQ","","","http://en.wikipedia.org/wiki/Waskaganish_Airport",""
1793,"CYKX","medium_airport","Kirkland Lake Airport",48.2103,-79.9814,1157,"NA","CA","CA-ON","Kirkland Lake","no","CYKX","YKX","","","http://en.wikipedia.org/wiki/Kirkland_Lake_Airport",""
1794,"CYKY","medium_airport","Kindersley Airport",51.5175,-109.181,2277,"NA","CA","CA-SK","Kindersley","no","CYKY","YKY","YKY","","http://en.wikipedia.org/wiki/Kindersley_Airport","YKY"
1795,"CYKZ","medium_airport","Buttonville Municipal Airport",43.8622,-79.37,650,"NA","CA","CA-ON","Toronto","no","CYKZ","YKZ","","http://www.torontoairways.com/","http://en.wikipedia.org/wiki/Toronto/Buttonville_Municipal_Airport","YTO"
1796,"CYLA","medium_airport","Aupaluk Airport",59.2967,-69.5997,119,"NA","CA","CA-QC","Aupaluk","yes","CYLA","YPJ","","","http://en.wikipedia.org/wiki/Aupaluk_Airport","YLA"
1798,"CYLC","medium_airport","Kimmirut Airport",62.85,-69.8833,175,"NA","CA","CA-NU","Kimmirut","yes","CYLC","YLC","","","http://en.wikipedia.org/wiki/Kimmirut_Airport",""
1799,"CYLD","medium_airport","Chapleau Airport",47.82,-83.3467,1470,"NA","CA","CA-ON","Chapleau","no","CYLD","YLD","","","http://en.wikipedia.org/wiki/Chapleau_Airport",""
1800,"CYLH","medium_airport","Lansdowne House Airport",52.1956,-87.9342,834,"NA","CA","CA-ON","Lansdowne House","yes","CYLH","YLH","","","http://en.wikipedia.org/wiki/Lansdowne_House_Airport",""
1801,"CYLJ","medium_airport","Meadow Lake Airport",54.1253,-108.523,1576,"NA","CA","CA-SK","Meadow Lake","no","CYLJ","YLJ","","","http://en.wikipedia.org/wiki/Meadow_Lake_Airport",""
1802,"CYLK","medium_airport","Lutselk'e Airport",62.4183,-110.682,596,"NA","CA","CA-NT","Lutselk'e","yes","CYLK","YSG","","","http://en.wikipedia.org/wiki/Lutselk'e_Airport","YLK, EL3, Snowdrift Airport"
1803,"CYLL","medium_airport","Lloydminster Airport",53.3092,-110.073,2193,"NA","CA","CA-AB","Lloydminster","yes","CYLL","YLL","","","http://en.wikipedia.org/wiki/Lloydminster_Airport",""
1805,"CYLR","medium_airport","Leaf Rapids Airport",56.5133,-99.9853,959,"NA","CA","CA-MB","Leaf Rapids","no","CYLR","YLR","","","http://en.wikipedia.org/wiki/Leaf_Rapids_Airport",""
1806,"CYLT","medium_airport","Alert Airport",82.5178,-62.2806,100,"NA","CA","CA-NU","Alert","no","CYLT","YLT","","","http://en.wikipedia.org/wiki/Alert_Airport","YLT"
1807,"CYLU","medium_airport","Kangiqsualujjuaq (Georges River) Airport",58.7114,-65.9928,215,"NA","CA","CA-QC","Kangiqsualujjuaq","yes","CYLU","XGR","","","http://en.wikipedia.org/wiki/Kangiqsualujjuaq_(Georges_River)_Airport","YLU"
1808,"CYLW","medium_airport","Kelowna International Airport",49.9561,-119.378,1421,"NA","CA","CA-BC","Kelowna","yes","CYLW","YLW","","http://www.kelowna.ca/CM/Page68.aspx","http://en.wikipedia.org/wiki/Kelowna_International_Airport","Kelowna, Okanagan"
1809,"CYMA","medium_airport","Mayo Airport",63.6164,-135.868,1653,"NA","CA","CA-YT","Mayo","no","CYMA","YMA","","","http://en.wikipedia.org/wiki/Mayo_Airport",""
1810,"CYME","medium_airport","Matane Airport",48.8569,-67.4533,102,"NA","CA","CA-QC","Matane","no","CYME","YME","","","http://en.wikipedia.org/wiki/Matane_Airport",""
1811,"CYMG","medium_airport","Manitouwadge Airport",49.0839,-85.8606,1198,"NA","CA","CA-ON","Manitouwadge","no","CYMG","YMG","","","http://en.wikipedia.org/wiki/Manitouwadge_Airport",""
1812,"CYMH","medium_airport","Mary's Harbour Airport",52.3028,-55.8472,38,"NA","CA","CA-NL","Mary's Harbour","yes","CYMH","YMH","","","http://en.wikipedia.org/wiki/Mary's_Harbour_Airport",""
1813,"CYMJ","medium_airport","Moose Jaw Air Vice Marshal C. M. McEwen Airport",50.3303,-105.559,1892,"NA","CA","CA-SK","Moose Jaw","no","CYMJ","YMJ","","","http://en.wikipedia.org/wiki/Moose_Jaw/Air_Vice_Marshal_C.M._McEwen_Airport","CFB Moose Jaw"
1814,"CYML","medium_airport","Charlevoix Airport",47.5975,-70.2239,977,"NA","CA","CA-QC","Charlevoix","no","CYML","YML","","","http://en.wikipedia.org/wiki/Charlevoix_Airport",""
1816,"CYMO","medium_airport","Moosonee Airport",51.2911,-80.6078,30,"NA","CA","CA-ON","Moosonee","yes","CYMO","YMO","","","http://en.wikipedia.org/wiki/Moosonee_Airport",""
1817,"CYMT","medium_airport","Chapais Airport",49.7719,-74.5281,1270,"NA","CA","CA-QC","Chibougamau","yes","CYMT","YMT","","","http://en.wikipedia.org/wiki/Chibougamau/Chapais_Airport",""
1818,"CYMU","medium_airport","Umiujaq Airport",56.5361,-76.5183,250,"NA","CA","CA-QC","Umiujaq","yes","CYMU","YUD","","","http://en.wikipedia.org/wiki/Umiujaq_Airport","YMU"
1820,"CYMX","medium_airport","Montreal International (Mirabel) Airport",45.6795,-74.0387,270,"NA","CA","CA-QC","Montréal","no","CYMX","YMX","","","http://en.wikipedia.org/wiki/Montr%C3%A9al-Mirabel_International_Airport","YMQ"
1822,"CYNA","medium_airport","Natashquan Airport",50.19,-61.7892,39,"NA","CA","CA-QC","Natashquan","yes","CYNA","YNA","","","http://en.wikipedia.org/wiki/Natashquan_Airport",""
1823,"CYNC","medium_airport","Wemindji Airport",53.0106,-78.8311,66,"NA","CA","CA-QC","Wemindji","yes","CYNC","YNC","","","http://en.wikipedia.org/wiki/Wemindji_Airport",""
1824,"CYND","medium_airport","Ottawa / Gatineau Airport",45.5217,-75.5636,211,"NA","CA","CA-QC","Gatineau","no","CYND","YND","CYND","http://www.ego-airport.ca/english/propos_ego/","http://en.wikipedia.org/wiki/Ottawa-Gatineau_Airport","YND"
1825,"CYNE","medium_airport","Norway House Airport",53.9583,-97.8442,734,"NA","CA","CA-MB","Norway House","yes","CYNE","YNE","","","http://en.wikipedia.org/wiki/Norway_House_Airport",""
1828,"CYNL","medium_airport","Points North Landing Airport",58.2767,-104.082,1605,"NA","CA","CA-SK","Points North Landing","yes","CYNL","YNL","","","http://en.wikipedia.org/wiki/Points_North_Landing_Airport",""
1829,"CYNM","medium_airport","Matagami Airport",49.7617,-77.8028,918,"NA","CA","CA-QC","Matagami","no","CYNM","YNM","","","http://en.wikipedia.org/wiki/Matagami_Airport",""
1832,"CYOA","medium_airport","Ekati Airport",64.6989,-110.615,1536,"NA","CA","CA-NT","Ekati","no","CYOA","YOA","","","http://en.wikipedia.org/wiki/Ekati_Airport","YOA"
1833,"CYOC","medium_airport","Old Crow Airport",67.5706,-139.839,824,"NA","CA","CA-YT","Old Crow","yes","CYOC","YOC","","","http://en.wikipedia.org/wiki/Old_Crow_Airport",""
1834,"CYOD","medium_airport","CFB Cold Lake",54.405,-110.279,1775,"NA","CA","CA-AB","Cold Lake","no","CYOD","YOD","","","http://en.wikipedia.org/wiki/CFB_Cold_Lake",""
1835,"CYOH","medium_airport","Oxford House Airport",54.9333,-95.2789,663,"NA","CA","CA-MB","Oxford House","yes","CYOH","YOH","","","http://en.wikipedia.org/wiki/Oxford_House_Airport",""
1836,"CYOJ","medium_airport","High Level Airport",58.6214,-117.165,1110,"NA","CA","CA-AB","High Level","yes","CYOJ","YOJ","","","http://en.wikipedia.org/wiki/High_Level_Airport",""
1837,"CYOO","medium_airport","Toronto/Oshawa Executive Airport",43.9228,-78.895,460,"NA","CA","CA-ON","Oshawa","no","CYOO","YOO","CYOO","http://www.oshawa-airport.com/","http://en.wikipedia.org/wiki/Oshawa_Airport",""
1838,"CYOP","medium_airport","Rainbow Lake Airport",58.4914,-119.408,1759,"NA","CA","CA-AB","Rainbow Lake","yes","CYOP","YOP","","","http://en.wikipedia.org/wiki/Rainbow_Lake_Airport",""
1839,"CYOS","medium_airport","Owen Sound / Billy Bishop Regional Airport",44.5903,-80.8375,1007,"NA","CA","CA-ON","Owen Sound","no","CYOS","YOS","","","http://en.wikipedia.org/wiki/Owen_Sound/Billy_Bishop_Regional_Airport","YOS"
1840,"CYOW","large_airport","Ottawa Macdonald-Cartier International Airport",45.3225,-75.6692,374,"NA","CA","CA-ON","Ottawa","yes","CYOW","YOW","YOW","http://www.ottawa-airport.ca/","http://en.wikipedia.org/wiki/Ottawa_Macdonald-Cartier_International_Airport","Uplands, UUP, CUUP"
1842,"CYPA","medium_airport","Prince Albert Glass Field",53.2142,-105.673,1405,"NA","CA","CA-SK","Prince Albert","yes","CYPA","YPA","","","http://en.wikipedia.org/wiki/Prince_Albert_(Glass_Field)_Airport",""
1843,"CYPC","medium_airport","Paulatuk (Nora Aliqatchialuk Ruben) Airport",69.3608,-124.075,15,"NA","CA","CA-NT","Paulatuk","yes","CYPC","YPC","","","http://en.wikipedia.org/wiki/Paulatuk_Airport",""
1844,"CYPD","medium_airport","Port Hawkesbury Airport",45.6567,-61.3681,377,"NA","CA","CA-NS","Port Hawkesbury","no","CYPD","YPS","","http://www.porthawkesburyairport.com/","http://en.wikipedia.org/wiki/Port_Hawkesbury_Airport","YPD"
1845,"CYPE","medium_airport","Peace River Airport",56.2269,-117.447,1873,"NA","CA","CA-AB","Peace River","yes","CYPE","YPE","","","http://en.wikipedia.org/wiki/Peace_River_Airport",""
1846,"CYPG","medium_airport","Southport Airport",49.9031,-98.2738,885,"NA","CA","CA-MB","Portage la Prairie","no","CYPG","YPG","","http://southport.ca/","http://en.wikipedia.org/wiki/Portage_La_Prairie/Southport_Airport",""
1847,"CYPH","medium_airport","Inukjuak Airport",58.4719,-78.0769,83,"NA","CA","CA-QC","Inukjuak","yes","CYPH","YPH","","","http://en.wikipedia.org/wiki/Inukjuak_Airport",""
1849,"CYPL","medium_airport","Pickle Lake Airport",51.4464,-90.2142,1267,"NA","CA","CA-ON","Pickle Lake","yes","CYPL","YPL","","","http://en.wikipedia.org/wiki/Pickle_Lake_Airport",""
1850,"CYPM","medium_airport","Pikangikum Airport",51.8197,-93.9733,1114,"NA","CA","CA-ON","Pikangikum","yes","CYPM","YPM","","","http://en.wikipedia.org/wiki/Pikangikum_Airport",""
1851,"CYPN","medium_airport","Port Menier Airport",49.8364,-64.2886,167,"NA","CA","CA-QC","Port-Menier","no","CYPN","YPN","","","http://en.wikipedia.org/wiki/Port-Menier_Airport",""
1852,"CYPO","medium_airport","Peawanuck Airport",54.9881,-85.4433,173,"NA","CA","CA-ON","Peawanuck","yes","CYPO","YPO","","","http://en.wikipedia.org/wiki/Peawanuck_Airport",""
1854,"CYPQ","medium_airport","Peterborough Airport",44.23,-78.3633,628,"NA","CA","CA-ON","Peterborough","no","CYPQ","YPQ","","","http://en.wikipedia.org/wiki/Peterborough_Airport",""
1855,"CYPR","medium_airport","Prince Rupert Airport",54.2861,-130.445,116,"NA","CA","CA-BC","Prince Rupert","yes","CYPR","YPR","","http://www.ypr.ca/","http://en.wikipedia.org/wiki/Prince_Rupert_Airport",""
1859,"CYPW","medium_airport","Powell River Airport",49.8342,-124.5,425,"NA","CA","CA-BC","Powell River","yes","CYPW","YPW","","","http://en.wikipedia.org/wiki/Powell_River_Airport",""
1860,"CYPX","medium_airport","Puvirnituq Airport",60.0506,-77.2869,74,"NA","CA","CA-QC","Puvirnituq","no","CYPX","YPX","","","http://en.wikipedia.org/wiki/Puvirnituq_Airport",""
1863,"CYQA","medium_airport","Muskoka Airport",44.9747,-79.3033,925,"NA","CA","CA-ON","Muskoka","no","CYQA","YQA","","","http://en.wikipedia.org/wiki/Muskoka_Airport",""
1864,"CYQB","medium_airport","Quebec Jean Lesage International Airport",46.7911,-71.3933,244,"NA","CA","CA-QC","Quebec","yes","CYQB","YQB","YQB","http://www.aeroportdequebec.com/","http://en.wikipedia.org/wiki/Qu%C3%A9bec/Jean_Lesage_International_Airport","Quebec City"
1865,"CYQD","medium_airport","The Pas Airport",53.9714,-101.091,887,"NA","CA","CA-MB","The Pas","yes","CYQD","YQD","","","http://en.wikipedia.org/wiki/The_Pas_Airport",""
1866,"CYQF","medium_airport","Red Deer Regional Airport",52.1822,-113.894,2968,"NA","CA","CA-AB","Red Deer","no","CYQF","YQF","","","http://en.wikipedia.org/wiki/Red_Deer_Regional_Airport",""
1867,"CYQG","medium_airport","Windsor Airport",42.2756,-82.9556,622,"NA","CA","CA-ON","Windsor","yes","CYQG","YQG","","","http://en.wikipedia.org/wiki/Windsor_Airport",""
1868,"CYQH","medium_airport","Watson Lake Airport",60.1164,-128.822,2255,"NA","CA","CA-YT","Watson Lake","no","CYQH","YQH","","","http://en.wikipedia.org/wiki/Watson_Lake_Airport",""
1869,"CYQI","medium_airport","Yarmouth Airport",43.8269,-66.0881,141,"NA","CA","CA-NS","Yarmouth","no","CYQI","YQI","","","http://en.wikipedia.org/wiki/Yarmouth_Airport",""
1870,"CYQK","medium_airport","Kenora Airport",49.7883,-94.3631,1332,"NA","CA","CA-ON","Kenora","yes","CYQK","YQK","","","http://en.wikipedia.org/wiki/Kenora_Airport",""
1871,"CYQL","medium_airport","Lethbridge County Airport",49.6303,-112.8,3048,"NA","CA","CA-AB","Lethbridge","yes","CYQL","YQL","","","http://en.wikipedia.org/wiki/Lethbridge_County_Airport","Kenyon Field"
1872,"CYQM","medium_airport","Greater Moncton International Airport",46.1122,-64.6786,232,"NA","CA","CA-NB","Moncton","yes","CYQM","YQM","","","http://en.wikipedia.org/wiki/Greater_Moncton_International_Airport",""
1873,"CYQN","medium_airport","Nakina Airport",50.1828,-86.6964,1057,"NA","CA","CA-ON","Nakina","yes","CYQN","YQN","","","http://en.wikipedia.org/wiki/Nakina_Airport",""
1874,"CYQQ","medium_airport","Comox Airport",49.7108,-124.887,84,"NA","CA","CA-BC","Comox","yes","CYQQ","YQQ","","","http://en.wikipedia.org/wiki/CFB_Comox","CFB Comox"
1875,"CYQR","medium_airport","Regina International Airport",50.4319,-104.666,1894,"NA","CA","CA-SK","Regina","yes","CYQR","YQR","","","http://en.wikipedia.org/wiki/Regina_International_Airport","YQR, Roland J. Groome International"
1876,"CYQS","medium_airport","St Thomas Municipal Airport",42.77,-81.1108,778,"NA","CA","CA-ON","St Thomas","no","CYQS","YQS","","","http://en.wikipedia.org/wiki/St._Thomas_Airport",""
1877,"CYQT","medium_airport","Thunder Bay Airport",48.3719,-89.3239,653,"NA","CA","CA-ON","Thunder Bay","yes","CYQT","YQT","","","http://en.wikipedia.org/wiki/Thunder_Bay_International_Airport",""
1878,"CYQU","medium_airport","Grande Prairie Airport",55.1797,-118.885,2195,"NA","CA","CA-AB","Grande Prairie","yes","CYQU","YQU","","http://www.grandeprairieairport.com/","http://en.wikipedia.org/wiki/Grande_Prairie_Airport",""
1879,"CYQV","medium_airport","Yorkton Municipal Airport",51.2647,-102.462,1635,"NA","CA","CA-SK","Yorkton","no","CYQV","YQV","","","http://en.wikipedia.org/wiki/Yorkton_Municipal_Airport",""
1880,"CYQW","medium_airport","North Battleford Airport",52.7692,-108.244,1799,"NA","CA","CA-SK","North Battleford","no","CYQW","YQW","","","http://en.wikipedia.org/wiki/North_Battleford_(Cameron_McIntosh)_Airport",""
1881,"CYQX","medium_airport","Gander International Airport",48.9369,-54.5681,496,"NA","CA","CA-NL","Gander","yes","CYQX","YQX","","","http://en.wikipedia.org/wiki/Gander_International_Airport","CFB Gander"
1882,"CYQY","medium_airport","Sydney / J.A. Douglas McCurdy Airport",46.1614,-60.0478,203,"NA","CA","CA-NS","Sydney","yes","CYQY","YQY","","","http://en.wikipedia.org/wiki/Sydney_Airport_(Nova_Scotia)",""
1883,"CYQZ","medium_airport","Quesnel Airport",53.0261,-122.51,1789,"NA","CA","CA-BC","Quesnel","yes","CYQZ","YQZ","","","http://en.wikipedia.org/wiki/Quesnel_Airport",""
1884,"CYRA","medium_airport","Rae Lakes Airport",64.1161,-117.31,723,"NA","CA","CA-NT","Gamètì","yes","CYRA","YRA","","","http://en.wikipedia.org/wiki/Gam%C3%A8t%C3%AC/Rae_Lakes_Airport",""
1885,"CYRB","medium_airport","Resolute Bay Airport",74.7169,-94.9694,215,"NA","CA","CA-NU","Resolute Bay","yes","CYRB","YRB","","","http://en.wikipedia.org/wiki/Resolute_Bay_Airport",""
1887,"CYRI","medium_airport","Rivière-du-Loup Airport",47.7644,-69.5847,427,"NA","CA","CA-QC","Rivière-du-Loup","no","CYRI","YRI","","http://www.ville.riviere-du-loup.qc.ca/anglais/aeroport.php","http://en.wikipedia.org/wiki/Rivi%C3%A8re-du-Loup_Airport",""
1888,"CYRJ","medium_airport","Roberval Airport",48.52,-72.2656,586,"NA","CA","CA-QC","Roberval","yes","CYRJ","YRJ","","","http://en.wikipedia.org/wiki/Roberval_Airport",""
1889,"CYRL","medium_airport","Red Lake Airport",51.0669,-93.7931,1265,"NA","CA","CA-ON","Red Lake","yes","CYRL","YRL","","","http://en.wikipedia.org/wiki/Red_Lake_Airport",""
1891,"CYRO","medium_airport","Ottawa / Rockcliffe Airport",45.4603,-75.6461,188,"NA","CA","CA-ON","Ottawa","no","CYRO","YRO","CYRO","http://www.rfc.ca/","http://en.wikipedia.org/wiki/Ottawa/Rockcliffe_Airport","YRO"
1893,"CYRQ","medium_airport","Trois-Rivières Airport",46.3528,-72.6794,199,"NA","CA","CA-QC","Trois-Rivières","no","CYRQ","YRQ","","","http://en.wikipedia.org/wiki/Trois-Rivi%C3%A8res_Airport",""
1894,"CYRS","medium_airport","Red Sucker Lake Airport",54.1672,-93.5572,729,"NA","CA","CA-MB","Red Sucker Lake","no","CYRS","YRS","","","http://en.wikipedia.org/wiki/Red_Sucker_Lake_Airport",""
1895,"CYRT","medium_airport","Rankin Inlet Airport",62.8114,-92.1158,94,"NA","CA","CA-NU","Rankin Inlet","yes","CYRT","YRT","","","http://en.wikipedia.org/wiki/Rankin_Inlet_Airport",""
1896,"CYRV","medium_airport","Revelstoke Airport",50.9667,-118.183,1459,"NA","CA","CA-BC","Revelstoke","no","CYRV","YRV","","","http://en.wikipedia.org/wiki/Revelstoke_Airport","YRV"
1897,"CYSB","medium_airport","Sudbury Airport",46.625,-80.7989,1141,"NA","CA","CA-ON","Sudbury","yes","CYSB","YSB","","","http://en.wikipedia.org/wiki/Sudbury_Airport",""
1898,"CYSC","medium_airport","Sherbrooke Airport",45.4386,-71.6914,792,"NA","CA","CA-QC","Sherbrooke","no","CYSC","YSC","","","http://en.wikipedia.org/wiki/Sherbrooke_Airport",""
1901,"CYSF","medium_airport","Stony Rapids Airport",59.2503,-105.841,805,"NA","CA","CA-SK","Stony Rapids","yes","CYSF","YSF","","","http://en.wikipedia.org/wiki/Stony_Rapids_Airport",""
1903,"CYSH","medium_airport","Smiths Falls-Montague (Russ Beach) Airport",44.9458,-75.9406,416,"NA","CA","CA-ON","Smiths Falls","no","CYSH","YSH","","http://www.smithsfallsflyingclub.com/","http://en.wikipedia.org/wiki/Smiths_Falls-Montague_Airport","Smith Falls"
1904,"CYSJ","medium_airport","Saint John Airport",45.3161,-65.8903,357,"NA","CA","CA-NB","Saint John","yes","CYSJ","YSJ","","","http://en.wikipedia.org/wiki/Saint_John_Airport",""
1905,"CYSK","medium_airport","Sanikiluaq Airport",56.5378,-79.2467,104,"NA","CA","CA-NU","Sanikiluaq","yes","CYSK","YSK","","","http://en.wikipedia.org/wiki/Sanikiluaq_Airport",""
1906,"CYSL","medium_airport","St Leonard Airport",47.1575,-67.8347,793,"NA","CA","CA-NB","St Leonard","no","CYSL","YSL","","","http://en.wikipedia.org/wiki/St._Leonard_Airport",""
1908,"CYSN","medium_airport","Niagara District Airport",43.1917,-79.1717,321,"NA","CA","CA-ON","St Catharines","no","CYSN","YCM","","","http://en.wikipedia.org/wiki/St._Catharines/Niagara_District_Airport","YSN"
1909,"CYSP","medium_airport","Marathon Airport",48.7553,-86.3444,1035,"NA","CA","CA-ON","Marathon","no","CYSP","YSP","","","http://en.wikipedia.org/wiki/Marathon_Airport_(Canada)",""
1912,"CYST","medium_airport","St. Theresa Point Airport",53.8456,-94.8519,773,"NA","CA","CA-MB","St. Theresa Point","yes","CYST","YST","","","http://en.wikipedia.org/wiki/St._Theresa_Point_Airport",""
1913,"CYSU","medium_airport","Summerside Airport",46.4406,-63.8336,56,"NA","CA","CA-PE","Summerside","no","CYSU","YSU","","","http://en.wikipedia.org/wiki/Summerside_Airport","PEI"
1915,"CYSY","medium_airport","Sachs Harbour (David Nasogaluak Jr. Saaryuaq) Airport",71.9939,-125.243,282,"NA","CA","CA-NT","Sachs Harbour","yes","CYSY","YSY","","","http://en.wikipedia.org/wiki/Sachs_Harbour_Airport",""
1917,"CYTA","medium_airport","Pembroke Airport",45.8644,-77.2517,529,"NA","CA","CA-ON","Pembroke","no","CYTA","YTA","","http://www.flycyta.ca/","http://en.wikipedia.org/wiki/Pembroke_Airport",""
1918,"CYTE","medium_airport","Cape Dorset Airport",64.23,-76.5267,164,"NA","CA","CA-NU","Cape Dorset","yes","CYTE","YTE","","","http://en.wikipedia.org/wiki/Cape_Dorset_Airport",""
1919,"CYTF","medium_airport","Alma Airport",48.5089,-71.6419,445,"NA","CA","CA-QC","Alma","yes","CYTF","YTF","","","http://en.wikipedia.org/wiki/Alma_Airport",""
1920,"CYTH","medium_airport","Thompson Airport",55.8011,-97.8642,729,"NA","CA","CA-MB","Thompson","yes","CYTH","YTH","","","http://en.wikipedia.org/wiki/Thompson_Airport",""
1921,"CYTL","medium_airport","Big Trout Lake Airport",53.8178,-89.8969,729,"NA","CA","CA-ON","Big Trout Lake","yes","CYTL","YTL","","","http://en.wikipedia.org/wiki/Big_Trout_Lake_Airport",""
1923,"CYTQ","medium_airport","Tasiujaq Airport",58.6678,-69.9558,122,"NA","CA","CA-QC","Tasiujaq","no","CYTQ","YTQ","","","http://en.wikipedia.org/wiki/Tasiujaq_Airport",""
1924,"CYTR","medium_airport","CFB Trenton",44.1189,-77.5281,283,"NA","CA","CA-ON","Trenton","no","CYTR","YTR","","","http://en.wikipedia.org/wiki/CFB_Trenton",""
1925,"CYTS","medium_airport","Timmins/Victor M. Power",48.5697,-81.3767,967,"NA","CA","CA-ON","Timmins","yes","CYTS","YTS","","http://portal.timmins.ca/portal/en/timmins/residents/airport","http://en.wikipedia.org/wiki/Timmins_Airport","Timmins Victor M. Power Airport"
1926,"CYTZ","medium_airport","Billy Bishop Toronto City Centre Airport",43.6275,-79.3962,252,"NA","CA","CA-ON","Toronto","yes","CYTZ","YTZ","","http://www.torontoport.com/airport.aspx","http://en.wikipedia.org/wiki/Toronto_City_Centre_Airport","YTO, Toronto Island Airport"
1927,"CYUB","medium_airport","Tuktoyaktuk Airport",69.4333,-133.026,15,"NA","CA","CA-NT","Tuktoyaktuk","yes","CYUB","YUB","","","http://en.wikipedia.org/wiki/Tuktoyaktuk_Airport",""
1928,"CYUL","large_airport","Montreal / Pierre Elliott Trudeau International Airport",45.4706,-73.7408,118,"NA","CA","CA-QC","Montréal","yes","CYUL","YUL","YUL","http://www.admtl.com/passager/Home.aspx","http://en.wikipedia.org/wiki/Montr%C3%A9al-Pierre_Elliott_Trudeau_International_Airport","YMQ, Dorval Airport"
1929,"CYUT","medium_airport","Repulse Bay Airport",66.5214,-86.2247,80,"NA","CA","CA-NU","Repulse Bay","yes","CYUT","YUT","","","http://en.wikipedia.org/wiki/Repulse_Bay_Airport",""
1930,"CYUX","medium_airport","Hall Beach Airport",68.7761,-81.2425,30,"NA","CA","CA-NU","Hall Beach","yes","CYUX","YUX","","","http://en.wikipedia.org/wiki/Hall_Beach_Airport",""
1931,"CYUY","medium_airport","Rouyn Noranda Airport",48.2061,-78.8356,988,"NA","CA","CA-QC","Rouyn-Noranda","yes","CYUY","YUY","","","http://en.wikipedia.org/wiki/Rouyn-Noranda_Airport",""
1932,"CYVB","medium_airport","Bonaventure Airport",48.0711,-65.4603,123,"NA","CA","CA-QC","Bonaventure","no","CYVB","YVB","","","http://en.wikipedia.org/wiki/Bonaventure_Airport",""
1933,"CYVC","medium_airport","La Ronge Airport",55.1514,-105.262,1242,"NA","CA","CA-SK","La Ronge","yes","CYVC","YVC","","","http://en.wikipedia.org/wiki/La_Ronge_(Barber_Field)_Airport",""
1936,"CYVK","medium_airport","Vernon Airport",50.2481,-119.331,1140,"NA","CA","CA-BC","Vernon","no","CYVK","YVE","","","http://en.wikipedia.org/wiki/Vernon_Regional_Airport","YVK"
1937,"CYVM","medium_airport","Qikiqtarjuaq Airport",67.5458,-64.0314,21,"NA","CA","CA-NU","Qikiqtarjuaq","yes","CYVM","YVM","","","http://en.wikipedia.org/wiki/Qikiqtarjuaq_Airport",""
1938,"CYVO","medium_airport","Val-d'Or Airport",48.0533,-77.7828,1107,"NA","CA","CA-QC","Val-d'Or","yes","CYVO","YVO","","http://www.arvo.qc.ca/","http://en.wikipedia.org/wiki/Val-d'Or_Airport",""
1939,"CYVP","medium_airport","Kuujjuaq Airport",58.0961,-68.4269,129,"NA","CA","CA-QC","Kuujjuaq","yes","CYVP","YVP","","","http://en.wikipedia.org/wiki/Kuujjuaq_Airport",""
1940,"CYVQ","medium_airport","Norman Wells Airport",65.2816,-126.798,238,"NA","CA","CA-NT","Norman Wells","yes","CYVQ","YVQ","","","http://en.wikipedia.org/wiki/Norman_Wells_Airport",""
1941,"CYVR","large_airport","Vancouver International Airport",49.1939,-123.184,14,"NA","CA","CA-BC","Vancouver","yes","CYVR","YVR","","http://www.yvr.ca/","http://en.wikipedia.org/wiki/Vancouver_International_Airport",""
1943,"CYVV","medium_airport","Wiarton Airport",44.7458,-81.1072,729,"NA","CA","CA-ON","Wiarton","no","CYVV","YVV","","http://wiartonairport.ca/","http://en.wikipedia.org/wiki/Wiarton_Airport",""
1944,"CYVZ","medium_airport","Deer Lake Airport",52.6558,-94.0614,1092,"NA","CA","CA-ON","Deer Lake","yes","CYVZ","YVZ","","","http://en.wikipedia.org/wiki/Deer_Lake_Airport_(Ontario)",""
1945,"CYWA","medium_airport","Petawawa Airport",45.9522,-77.3192,427,"NA","CA","CA-ON","Petawawa","no","CYWA","YWA","","","http://en.wikipedia.org/wiki/Petawawa_Airport",""
1946,"CYWG","large_airport","Winnipeg / James Armstrong Richardson International Airport",49.91,-97.2399,783,"NA","CA","CA-MB","Winnipeg","yes","CYWG","YWG","YWG","http://www.waa.ca/","http://en.wikipedia.org/wiki/Winnipeg_James_Armstrong_Richardson_International_Airport","CFB Winnipeg"
1948,"CYWJ","medium_airport","Déline Airport",65.2111,-123.436,703,"NA","CA","CA-NT","Déline","yes","CYWJ","YWJ","","","http://en.wikipedia.org/wiki/Deline_Airport",""
1949,"CYWK","medium_airport","Wabush Airport",52.9219,-66.8644,1808,"NA","CA","CA-NL","Wabush","yes","CYWK","YWK","","","http://en.wikipedia.org/wiki/Wabush_Airport",""
1950,"CYWL","medium_airport","Williams Lake Airport",52.1831,-122.054,3085,"NA","CA","CA-BC","Williams Lake","yes","CYWL","YWL","","","http://en.wikipedia.org/wiki/Williams_Lake_Airport",""
1952,"CYWP","medium_airport","Webequie Airport",52.9594,-87.3749,685,"NA","CA","CA-ON","Webequie","yes","CYWP","YWP","","","http://en.wikipedia.org/wiki/Webequie_Airport",""
1954,"CYWY","medium_airport","Wrigley Airport",63.2094,-123.437,489,"NA","CA","CA-NT","Wrigley","no","CYWY","YWY","","","http://en.wikipedia.org/wiki/Wrigley_Airport",""
1955,"CYXC","medium_airport","Cranbrook/Canadian Rockies International Airport",49.6108,-115.782,3082,"NA","CA","CA-BC","Cranbrook","yes","CYXC","YXC","","","http://en.wikipedia.org/wiki/Cranbrook/Canadian_Rockies_International_Airport",""
1957,"CYXE","medium_airport","Saskatoon John G. Diefenbaker International Airport",52.1708,-106.7,1653,"NA","CA","CA-SK","Saskatoon","yes","CYXE","YXE","","","http://en.wikipedia.org/wiki/Saskatoon/John_G._Diefenbaker_International_Airport",""
1958,"CYXH","medium_airport","Medicine Hat Airport",50.0189,-110.721,2352,"NA","CA","CA-AB","Medicine Hat","yes","CYXH","YXH","","","http://en.wikipedia.org/wiki/Medicine_Hat_Airport",""
1960,"CYXK","medium_airport","Rimouski Airport",48.4781,-68.4969,82,"NA","CA","CA-QC","Rimouski","no","CYXK","YXK","","","http://en.wikipedia.org/wiki/Rimouski_Airport",""
1961,"CYXL","medium_airport","Sioux Lookout Airport",50.1139,-91.9053,1258,"NA","CA","CA-ON","Sioux Lookout","yes","CYXL","YXL","","","http://en.wikipedia.org/wiki/Sioux_Lookout_Airport",""
1962,"CYXN","medium_airport","Whale Cove Airport",62.24,-92.5981,40,"NA","CA","CA-NU","Whale Cove","yes","CYXN","YXN","","","http://en.wikipedia.org/wiki/Whale_Cove_Airport",""
1963,"CYXP","medium_airport","Pangnirtung Airport",66.145,-65.7136,75,"NA","CA","CA-NU","Pangnirtung","yes","CYXP","YXP","","","http://en.wikipedia.org/wiki/Pangnirtung_Airport",""
1964,"CYXQ","medium_airport","Beaver Creek Airport",62.4103,-140.867,2131,"NA","CA","CA-YT","Beaver Creek","no","CYXQ","YXQ","","","http://en.wikipedia.org/wiki/Beaver_Creek_Airport",""
1965,"CYXR","medium_airport","Earlton (Timiskaming Regional) Airport",47.6974,-79.8473,800,"NA","CA","CA-ON","Earlton","no","CYXR","YXR","","","http://en.wikipedia.org/wiki/Earlton_(Timiskaming_Regional)_Airport","yxr"
1966,"CYXS","medium_airport","Prince George Airport",53.8894,-122.679,2267,"NA","CA","CA-BC","Prince George","yes","CYXS","YXS","","","http://en.wikipedia.org/wiki/Prince_George_Airport",""
1967,"CYXT","medium_airport","Northwest Regional Airport Terrace-Kitimat",54.4685,-128.576,713,"NA","CA","CA-BC","Terrace","yes","CYXT","YXT","","","http://en.wikipedia.org/wiki/Terrace_Airport",""
1968,"CYXU","medium_airport","London Airport",43.0356,-81.1539,912,"NA","CA","CA-ON","London","yes","CYXU","YXU","","http://www.londonairport.on.ca/","http://en.wikipedia.org/wiki/London_International_Airport",""
1969,"CYXX","medium_airport","Abbotsford Airport",49.0253,-122.361,195,"NA","CA","CA-BC","Abbotsford","yes","CYXX","YXX","","http://www.abbotsfordairport.ca/","http://en.wikipedia.org/wiki/Abbotsford_International_Airport",""
1970,"CYXY","medium_airport","Whitehorse / Erik Nielsen International Airport",60.7096,-135.067,2317,"NA","CA","CA-YT","Whitehorse","yes","CYXY","YXY","","","http://en.wikipedia.org/wiki/Whitehorse_International_Airport",""
1971,"CYXZ","medium_airport","Wawa Airport",47.9667,-84.7867,942,"NA","CA","CA-ON","Wawa","no","CYXZ","YXZ","","","http://en.wikipedia.org/wiki/Wawa_Airport",""
1972,"CYYB","medium_airport","North Bay Airport",46.3636,-79.4228,1215,"NA","CA","CA-ON","North Bay","yes","CYYB","YYB","","http://www.northbayairport.com/jackgarland.asp","http://en.wikipedia.org/wiki/North_Bay/Jack_Garland_Airport","Jack Garland Airport, CFB North Bay"
1973,"CYYC","large_airport","Calgary International Airport",51.1139,-114.02,3557,"NA","CA","CA-AB","Calgary","yes","CYYC","YYC","","http://www.calgaryairport.com/","http://en.wikipedia.org/wiki/Calgary_International_Airport","McCall Field"
1974,"CYYD","medium_airport","Smithers Airport",54.8247,-127.183,1712,"NA","CA","CA-BC","Smithers","yes","CYYD","YYD","","","http://en.wikipedia.org/wiki/Smithers_Airport",""
1976,"CYYF","medium_airport","Penticton Airport",49.4631,-119.602,1129,"NA","CA","CA-BC","Penticton","yes","CYYF","YYF","","","http://en.wikipedia.org/wiki/Penticton_Regional_Airport",""
1977,"CYYG","medium_airport","Charlottetown Airport",46.29,-63.1211,160,"NA","CA","CA-PE","Charlottetown","yes","CYYG","YYG","","","http://en.wikipedia.org/wiki/Charlottetown_Airport","PEI"
1978,"CYYH","medium_airport","Taloyoak Airport",69.5467,-93.5767,92,"NA","CA","CA-NU","Taloyoak","yes","CYYH","YYH","","","http://en.wikipedia.org/wiki/Taloyoak_Airport",""
1979,"CYYJ","large_airport","Victoria International Airport",48.6469,-123.426,63,"NA","CA","CA-BC","Victoria","yes","CYYJ","YYJ","","http://www.victoriaairport.com/","http://en.wikipedia.org/wiki/Victoria_International_Airport",""
1980,"CYYL","medium_airport","Lynn Lake Airport",56.8639,-101.076,1170,"NA","CA","CA-MB","Lynn Lake","yes","CYYL","YYL","","","http://en.wikipedia.org/wiki/Lynn_Lake_Airport",""
1982,"CYYN","medium_airport","Swift Current Airport",50.2919,-107.691,2680,"NA","CA","CA-SK","Swift Current","no","CYYN","YYN","","http://www.swiftcurrentairport.com/","http://en.wikipedia.org/wiki/Swift_Current_Airport","YYN"
1984,"CYYQ","medium_airport","Churchill Airport",58.7392,-94.065,94,"NA","CA","CA-MB","Churchill","yes","CYYQ","YYQ","","","http://en.wikipedia.org/wiki/Churchill_Airport",""
1985,"CYYR","medium_airport","Goose Bay Airport",53.3192,-60.4258,160,"NA","CA","CA-NL","Goose Bay","yes","CYYR","YYR","","","http://en.wikipedia.org/wiki/CFB_Goose_Bay","CFB Goose Bay"
1986,"CYYT","large_airport","St. John's International Airport",47.6186,-52.7519,461,"NA","CA","CA-NL","St. John's","yes","CYYT","YYT","","http://www.stjohnsairport.com/","http://en.wikipedia.org/wiki/St._John's_International_Airport",""
1987,"CYYU","medium_airport","Kapuskasing Airport",49.4139,-82.4675,743,"NA","CA","CA-ON","Kapuskasing","yes","CYYU","YYU","","","http://en.wikipedia.org/wiki/Kapuskasing_Airport",""
1988,"CYYW","medium_airport","Armstrong Airport",50.2903,-88.9097,1058,"NA","CA","CA-ON","Armstrong","no","CYYW","YYW","","","http://en.wikipedia.org/wiki/Armstrong_Airport",""
1989,"CYYY","medium_airport","Mont Joli Airport",48.6086,-68.2081,172,"NA","CA","CA-QC","Mont-Joli","yes","CYYY","YYY","","","http://en.wikipedia.org/wiki/Mont-Joli_Airport",""
1990,"CYYZ","large_airport","Lester B. Pearson International Airport",43.6772,-79.6306,569,"NA","CA","CA-ON","Toronto","yes","CYYZ","YYZ","YYZ","http://www.gtaa.com/","http://en.wikipedia.org/wiki/Toronto_Pearson_International_Airport","YTO, Toronto International Airport, Malton"
1991,"CYZD","medium_airport","Downsview Airport",43.7425,-79.4656,652,"NA","CA","CA-ON","Toronto","no","CYZD","YZD","","","http://en.wikipedia.org/wiki/Toronto/Downsview_Airport",""
1992,"CYZE","medium_airport","Gore Bay Manitoulin Airport",45.8853,-82.5678,635,"NA","CA","CA-ON","Gore Bay","no","CYZE","YZE","","","http://en.wikipedia.org/wiki/Gore_Bay-Manitoulin_Airport",""
1993,"CYZF","medium_airport","Yellowknife Airport",62.4628,-114.44,675,"NA","CA","CA-NT","Yellowknife","yes","CYZF","YZF","","","http://en.wikipedia.org/wiki/Yellowknife_Airport",""
1994,"CYZG","medium_airport","Salluit Airport",62.1794,-75.6672,743,"NA","CA","CA-QC","Salluit","yes","CYZG","YZG","","","http://en.wikipedia.org/wiki/Salluit_Airport",""
1995,"CYZH","medium_airport","Slave Lake Airport",55.2931,-114.777,1912,"NA","CA","CA-AB","Slave Lake","no","CYZH","YZH","","http://slavelakeairport.com","http://en.wikipedia.org/wiki/Slave_Lake_Airport","YZH"
1996,"CYZP","medium_airport","Sandspit Airport",53.2543,-131.814,21,"NA","CA","CA-BC","Sandspit","yes","CYZP","YZP","","","http://en.wikipedia.org/wiki/Sandspit_Airport","Queen Charlotte Islands, Haida Gwaii"
1997,"CYZR","medium_airport","Chris Hadfield Airport",42.9994,-82.3089,594,"NA","CA","CA-ON","Sarnia","yes","CYZR","YZR","","","http://en.wikipedia.org/wiki/Sarnia_(Chris_Hadfield)_Airport",""
1998,"CYZS","medium_airport","Coral Harbour Airport",64.1933,-83.3594,210,"NA","CA","CA-NU","Coral Harbour","yes","CYZS","YZS","","","http://en.wikipedia.org/wiki/Coral_Harbour_Airport",""
1999,"CYZT","medium_airport","Port Hardy Airport",50.6806,-127.367,71,"NA","CA","CA-BC","Port Hardy","yes","CYZT","YZT","","","http://en.wikipedia.org/wiki/Port_Hardy_Airport",""
2000,"CYZU","medium_airport","Whitecourt Airport",54.1439,-115.787,2567,"NA","CA","CA-AB","Whitecourt","no","CYZU","YZU","","","http://en.wikipedia.org/wiki/Whitecourt_Airport",""
2001,"CYZV","medium_airport","Sept-Îles Airport",50.2233,-66.2656,180,"NA","CA","CA-QC","Sept-Îles","yes","CYZV","YZV","","","http://en.wikipedia.org/wiki/Sept-%C3%8Eles_Airport",""
2002,"CYZW","medium_airport","Teslin Airport",60.1728,-132.743,2313,"NA","CA","CA-YT","Teslin","no","CYZW","YZW","","","http://en.wikipedia.org/wiki/Teslin_Airport",""
2003,"CYZX","medium_airport","CFB Greenwood",44.9844,-64.9169,92,"NA","CA","CA-NS","Greenwood","no","CYZX","YZX","","","http://en.wikipedia.org/wiki/CFB_Greenwood","Greenwood Airport"
2005,"CZAC","medium_airport","York Landing Airport",56.0894,-96.0892,621,"NA","CA","CA-MB","York Landing","yes","CZAC","ZAC","","","http://en.wikipedia.org/wiki/York_Landing_Airport",""
2006,"CZAM","medium_airport","Shuswap Regional Airport",50.6828,-119.229,1751,"NA","CA","CA-BC","Salmon Arm","no","CZAM","YSN","","http://www.salmonarm.ca/index.aspx?nid=228","http://en.wikipedia.org/wiki/Salmon_Arm_Airport","AM4, Shuswap Regional Airport, Salmon Arm Airport"
2008,"CZBB","medium_airport","Boundary Bay Airport",49.0742,-123.012,6,"NA","CA","CA-BC","Vancouver","no","CZBB","YDT","","","http://en.wikipedia.org/wiki/Boundary_Bay_Airport","ZBB"
2009,"CZBD","medium_airport","Ilford Airport",56.0614,-95.6139,642,"NA","CA","CA-MB","Ilford","yes","CZBD","ILF","","","http://en.wikipedia.org/wiki/Ilford_Airport","ZBD"
2010,"CZBF","medium_airport","Bathurst Airport",47.6297,-65.7389,193,"NA","CA","CA-NB","Bathurst","yes","CZBF","ZBF","","","http://en.wikipedia.org/wiki/Bathurst_Airport_(New_Brunswick)","ZBF"
2011,"CZBM","medium_airport","Bromont (Roland Desourdy) Airport",45.2908,-72.7414,375,"NA","CA","CA-QC","Bromont","no","CZBM","ZBM","","","http://en.wikipedia.org/wiki/Bromont_Airport",""
2012,"CZEE","medium_airport","Kelsey Airport",56.0375,-96.5097,600,"NA","CA","CA-MB","Kelsey","no","CZEE","KES","ZEE","","http://en.wikipedia.org/wiki/Kelsey_Airport",""
2013,"CZEM","medium_airport","Eastmain River Airport",52.2264,-78.5225,24,"NA","CA","CA-QC","Eastmain River","yes","CZEM","ZEM","","","http://en.wikipedia.org/wiki/Eastmain_River_Airport",""
2014,"CZFA","medium_airport","Faro Airport",62.2075,-133.376,2351,"NA","CA","CA-YT","Faro","no","CZFA","ZFA","","","http://en.wikipedia.org/wiki/Faro_Airport_(Yukon)",""
2015,"CZFD","medium_airport","Fond-Du-Lac Airport",59.3344,-107.182,814,"NA","CA","CA-SK","Fond-Du-Lac","yes","CZFD","ZFD","","","http://en.wikipedia.org/wiki/Fond-du-Lac_Airport",""
2016,"CZFG","medium_airport","Pukatawagan Airport",55.7492,-101.266,958,"NA","CA","CA-MB","Pukatawagan","no","CZFG","XPK","ZFG","","http://en.wikipedia.org/wiki/Pukatawagan_Airport",""
2018,"CZFN","medium_airport","Tulita Airport",64.9097,-125.573,332,"NA","CA","CA-NT","Tulita","yes","CZFN","ZFN","","","http://en.wikipedia.org/wiki/Tulita_Airport","Fort Norman"
2019,"CZGF","medium_airport","Grand Forks Airport",49.0156,-118.431,1720,"NA","CA","CA-BC","Grand Forks","no","CZGF","ZGF","","","http://en.wikipedia.org/wiki/Grand_Forks_Airport",""
2020,"CZGI","medium_airport","Gods River Airport",54.8397,-94.0786,627,"NA","CA","CA-MB","Gods River","yes","CZGI","ZGI","","","http://en.wikipedia.org/wiki/Gods_River_Airport",""
2021,"CZGR","medium_airport","Little Grand Rapids Airport",52.0456,-95.4658,1005,"NA","CA","CA-MB","Little Grand Rapids","no","CZGR","ZGR","","","http://en.wikipedia.org/wiki/Little_Grand_Rapids_Airport",""
2023,"CZJG","medium_airport","Jenpeg Airport",54.5189,-98.0461,729,"NA","CA","CA-MB","Jenpeg","no","CZJG","ZJG","","","http://en.wikipedia.org/wiki/Jenpeg_Airport",""
2024,"CZJN","medium_airport","Swan River Airport",52.1206,-101.236,1100,"NA","CA","CA-MB","Swan River","yes","CZJN","ZJN","","","http://en.wikipedia.org/wiki/Swan_River_Airport",""
2025,"CZKE","medium_airport","Kashechewan Airport",52.2825,-81.6778,35,"NA","CA","CA-ON","Kashechewan","yes","CZKE","ZKE","","","http://en.wikipedia.org/wiki/Kashechewan_Airport",""
2026,"CZLQ","medium_airport","Thicket Portage Airport",55.3189,-97.7078,678,"NA","CA","CA-MB","Thicket Portage","no","CZLQ","YTD","","","http://en.wikipedia.org/wiki/Thicket_Portage_Airport","ZLQ"
2027,"CZMD","medium_airport","Muskrat Dam Airport",53.4414,-91.7628,911,"NA","CA","CA-ON","Muskrat Dam","yes","CZMD","MSA","","","http://en.wikipedia.org/wiki/Muskrat_Dam_Airport","ZMD"
2029,"CZMN","medium_airport","Pikwitonei Airport",55.5889,-97.1642,630,"NA","CA","CA-MB","Pikwitonei","no","CZMN","PIW","","","http://en.wikipedia.org/wiki/Pikwitonei_Airport","ZMN"
2030,"CZMT","medium_airport","Masset Airport",54.0275,-132.125,25,"NA","CA","CA-BC","Masset","yes","CZMT","ZMT","","","http://en.wikipedia.org/wiki/Masset_Airport",""
2031,"CZNG","medium_airport","Poplar River Airport",52.9965,-97.2742,728,"NA","CA","CA-MB","Poplar River","no","CZNG","XPP","","","http://en.wikipedia.org/wiki/Poplar_River_Airport",""
2033,"CZPB","medium_airport","Sachigo Lake Airport",53.8911,-92.1964,876,"NA","CA","CA-ON","Sachigo Lake","yes","CZPB","ZPB","","","http://en.wikipedia.org/wiki/Sachigo_Lake_Airport",""
2034,"CZPC","medium_airport","Pincher Creek Airport",49.5206,-113.997,3903,"NA","CA","CA-AB","Pincher Creek","no","CZPC","WPC","","","http://en.wikipedia.org/wiki/Pincher_Creek_Airport","ZPC"
2036,"CZRJ","medium_airport","Round Lake (Weagamow Lake) Airport",52.9436,-91.3128,974,"NA","CA","CA-ON","Round Lake","yes","CZRJ","ZRJ","","","http://en.wikipedia.org/wiki/Round_Lake_(Weagamow_Lake)_Airport",""
2037,"CZSJ","medium_airport","Sandy Lake Airport",53.0642,-93.3444,951,"NA","CA","CA-ON","Sandy Lake","yes","CZSJ","ZSJ","","","http://en.wikipedia.org/wiki/Sandy_Lake_Airport",""
2038,"CZSN","medium_airport","South Indian Lake Airport",56.7928,-98.9072,951,"NA","CA","CA-MB","South Indian Lake","no","CZSN","XSI","ZSN","","http://en.wikipedia.org/wiki/South_Indian_Lake_Airport",""
2039,"CZST","medium_airport","Stewart Airport",55.9354,-129.982,24,"NA","CA","CA-BC","Stewart","no","CZST","ZST","CZST","","http://en.wikipedia.org/wiki/Stewart_Airport_(British_Columbia)",""
2041,"CZTM","medium_airport","Shamattawa Airport",55.8656,-92.0814,289,"NA","CA","CA-MB","Shamattawa","yes","CZTM","ZTM","","","http://en.wikipedia.org/wiki/Shamattawa_Airport",""
2042,"CZUC","medium_airport","Ignace Municipal Airport",49.4297,-91.7178,1435,"NA","CA","CA-ON","Ignace","no","CZUC","ZUC","","","http://en.wikipedia.org/wiki/Ignace_Municipal_Airport",""
2045,"CZWH","medium_airport","Lac Brochet Airport",58.6175,-101.469,1211,"NA","CA","CA-MB","Lac Brochet","no","CZWH","XLB","ZWH","","http://en.wikipedia.org/wiki/Lac_Brochet_Airport",""
2046,"CZWL","medium_airport","Wollaston Lake Airport",58.1069,-103.172,1360,"NA","CA","CA-SK","Wollaston Lake","yes","CZWL","ZWL","","","http://en.wikipedia.org/wiki/Wollaston_Lake_Airport",""
2047,"DAAB","medium_airport","Blida Airport",36.5036,2.81417,535,"AF","DZ","DZ-09","","no","DAAB","QLD","","","http://en.wikipedia.org/wiki/Blida_Airport",""
2048,"DAAD","medium_airport","Bou Saada Airport",35.3325,4.20639,1506,"AF","DZ","DZ-28","","no","DAAD","BUJ","","","",""
2049,"DAAE","medium_airport","Soummam Airport",36.712,5.06992,20,"AF","DZ","DZ-06","Béjaïa","yes","DAAE","BJA","","","http://en.wikipedia.org/wiki/Soummam_Airport",""
2050,"DAAG","large_airport","Houari Boumediene Airport",36.691,3.21541,82,"AF","DZ","DZ-35","Algiers","yes","DAAG","ALG","","","http://en.wikipedia.org/wiki/Houari_Boumedienne_Airport",""
2051,"DAAJ","medium_airport","Djanet Inedbirene Airport",24.2928,9.45244,3176,"AF","DZ","DZ-33","Djanet","yes","DAAJ","DJG","","","http://en.wikipedia.org/wiki/Djanet_Inedbirene_Airport","Tiska Djanet Airport"
2054,"DAAP","medium_airport","Illizi Takhamalt Airport",26.7235,8.62265,1778,"AF","DZ","DZ-33","Illizi","yes","DAAP","VVZ","","","http://en.wikipedia.org/wiki/Illizi_Airport",""
2056,"DAAT","medium_airport","Aguenar – Hadj Bey Akhamok Airport",22.8115,5.45108,4518,"AF","DZ","DZ-11","Tamanrasset","yes","DAAT","TMR","","","http://en.wikipedia.org/wiki/Tamanrasset_Airport",""
2057,"DAAV","medium_airport","Jijel Ferhat Abbas Airport",36.7951,5.87361,36,"AF","DZ","DZ-18","Jijel","yes","DAAV","GJL","","","http://en.wikipedia.org/wiki/Jijel_Ferhat_Abbas_Airport",""
2058,"DAAY","medium_airport","Mecheria Airport",33.5359,-0.242353,3855,"AF","DZ","DZ-45","Mecheria","no","DAAY","MZW","","","http://fr.wikipedia.org/wiki/A%C3%A9roport_de_Mecheria",""
2060,"DABB","medium_airport","Rabah Bitat Airport",36.8222,7.80917,16,"AF","DZ","DZ-36","Annaba","yes","DABB","AAE","","","http://en.wikipedia.org/wiki/Rabah_Bitat_Airport","Les Salines Airport, El Mellah Airport, Annabah"
2061,"DABC","medium_airport","Mohamed Boudiaf International Airport",36.276,6.62039,2265,"AF","DZ","DZ-25","Constantine","yes","DABC","CZL","","","http://en.wikipedia.org/wiki/Mohamed_Boudiaf_International_Airport",""
2062,"DABS","medium_airport","Cheikh Larbi Tébessi Airport",35.4316,8.12072,2661,"AF","DZ","DZ-12","Tébessi","yes","DABS","TEE","","","http://en.wikipedia.org/wiki/T%C3%A9bessa_Airport",""
2063,"DABT","medium_airport","Batna Airport",35.7521,6.30859,2697,"AF","DZ","DZ-05","Batna","yes","DABT","BLJ","","","http://en.wikipedia.org/wiki/Batna_Airport",""
2064,"DAFH","medium_airport","Hassi R'Mel Airport",32.9304,3.31154,2540,"AF","DZ","DZ-03","","yes","DAFH","HRM","","","http://en.wikipedia.org/wiki/Hassi_R'Mel_Airport",""
2065,"DAOB","medium_airport","Bou Chekif Airport",35.3411,1.46315,3245,"AF","DZ","DZ-14","Tiaret","no","DAOB","TID","","","http://en.wikipedia.org/wiki/Bou_Chekif_Airport",""
2067,"DAOF","medium_airport","Tindouf Airport",27.7004,-8.1671,1453,"AF","DZ","DZ-37","Tindouf","yes","DAOF","TIN","","","http://en.wikipedia.org/wiki/Tindouf_Airport",""
2068,"DAOI","medium_airport","Ech Cheliff Airport",36.2127,1.33177,463,"AF","DZ","DZ-02","","no","DAOI","CFK","","","http://en.wikipedia.org/wiki/Chlef_International_Airport",""
2069,"DAOL","medium_airport","Tafaraoui Airport",35.5424,-0.532278,367,"AF","DZ","DZ-31","","no","DAOL","TAF","","","",""
2070,"DAON","medium_airport","Zenata – Messali El Hadj Airport",35.0167,-1.45,814,"AF","DZ","DZ-13","Tlemcen","yes","DAON","TLM","","","http://en.wikipedia.org/wiki/Zenata_Airport",""
2071,"DAOO","medium_airport","Es Senia Airport",35.6239,-0.621183,295,"AF","DZ","DZ-31","Oran","yes","DAOO","ORN","","","http://en.wikipedia.org/wiki/Oran_Es_Senia_Airport",""
2072,"DAOR","medium_airport","Béchar Boudghene Ben Ali Lotfi Airport",31.6457,-2.26986,2661,"AF","DZ","DZ-08","Béchar","yes","DAOR","CBH","","","http://en.wikipedia.org/wiki/B%C3%A9char_Ouakda_Airport","Béchar Ouakda Airport"
2074,"DAOV","medium_airport","Ghriss Airport",35.2077,0.147142,1686,"AF","DZ","DZ-29","","no","DAOV","MUW","","","",""
2075,"DAUA","medium_airport","Touat Cheikh Sidi Mohamed Belkebir Airport",27.8376,-0.186414,919,"AF","DZ","DZ-01","","yes","DAUA","AZR","","","http://en.wikipedia.org/wiki/Touat_Cheikh_Sidi_Mohamed_Belkebir_Airport",""
2076,"DAUB","medium_airport","Biskra Airport",34.7933,5.73823,289,"AF","DZ","DZ-07","Biskra","yes","DAUB","BSK","","","http://en.wikipedia.org/wiki/Biskra_Airport",""
2077,"DAUE","medium_airport","El Golea Airport",30.5713,2.85959,1306,"AF","DZ","DZ-47","","yes","DAUE","ELG","","","http://en.wikipedia.org/wiki/El_Golea_Airport",""
2078,"DAUG","medium_airport","Noumérat - Moufdi Zakaria Airport",32.3841,3.79411,1512,"AF","DZ","DZ-47","Ghardaïa","yes","DAUG","GHA","","","http://en.wikipedia.org/wiki/Noumerate_Airport",""
2079,"DAUH","medium_airport","Oued Irara Airport",31.673,6.14044,463,"AF","DZ","DZ-30","Hassi Messaoud","yes","DAUH","HME","","","http://en.wikipedia.org/wiki/Oued_Irara_Airport",""
2080,"DAUI","medium_airport","In Salah Airport",27.251,2.51202,896,"AF","DZ","DZ-11","In Salah","yes","DAUI","INZ","","","http://en.wikipedia.org/wiki/In_Salah_Airport",""
2081,"DAUK","medium_airport","Touggourt Sidi Madhi Airport",33.0678,6.08867,279,"AF","DZ","DZ-30","Touggourt","yes","DAUK","TGR","","","http://en.wikipedia.org/wiki/Touggourt_Sidi_Madhi_Airport",""
2082,"DAUL","medium_airport","Laghouat Airport",33.7644,2.92834,2510,"AF","DZ","DZ-03","Laghouat","no","DAUL","LOO","","","",""
2083,"DAUO","medium_airport","Guemar Airport",33.5114,6.77679,203,"AF","DZ","DZ-39","Guemar","yes","DAUO","ELU","","","http://en.wikipedia.org/wiki/Guemar_Airport",""
2084,"DAUT","medium_airport","Timimoun Airport",29.2371,0.276033,1027,"AF","DZ","DZ-01","Timimoun","yes","DAUT","TMX","","","http://en.wikipedia.org/wiki/Timimoun_Airport",""
2085,"DAUU","medium_airport","Ain el Beida Airport",31.9172,5.41278,492,"AF","DZ","DZ-30","Ouargla","yes","DAUU","OGX","","","http://en.wikipedia.org/wiki/Ain_el_Beida_Airport",""
2086,"DAUZ","medium_airport","In Aménas Airport",28.0515,9.64291,1847,"AF","DZ","DZ-33","Aménas","yes","DAUZ","IAM","","","",""
2087,"DBBB","medium_airport","Cadjehoun Airport",6.35723,2.38435,19,"AF","BJ","BJ-AQ","Cotonou","yes","DBBB","COO","","","http://en.wikipedia.org/wiki/Cadjehoun_Airport",""
2088,"DFFD","medium_airport","Ouagadougou Airport",12.3532,-1.51242,1037,"AF","BF","BF-KAD","Ouagadougou","yes","DFFD","OUA","","","http://en.wikipedia.org/wiki/Ouagadougou_Airport",""
2089,"DFOO","medium_airport","Bobo Dioulasso Airport",11.1601,-4.33097,1511,"AF","BF","BF-HOU","Bobo Dioulasso","yes","DFOO","BOY","","","http://en.wikipedia.org/wiki/Bobo_Dioulasso_Airport",""
2090,"DGAA","large_airport","Kotoka International Airport",5.60519,-0.166786,205,"AF","GH","GH-AA","Accra","yes","DGAA","ACC","","","http://en.wikipedia.org/wiki/Kotoka_International_Airport",""
2091,"DGLE","medium_airport","Tamale Airport",9.55719,-0.863214,553,"AF","GH","GH-NP","Tamale","yes","DGLE","TML","","","http://en.wikipedia.org/wiki/Tamale_Airport",""
2093,"DGSI","medium_airport","Kumasi Airport",6.71456,-1.59082,942,"AF","GH","GH-AH","Kumasi","yes","DGSI","KMS","","","http://en.wikipedia.org/wiki/Kumasi_Airport",""
2094,"DGSN","medium_airport","Sunyani Airport",7.36183,-2.32876,1014,"AF","GH","GH-BA","Sunyani","yes","DGSN","NYI","","","http://en.wikipedia.org/wiki/Sunyani_Airport",""
2095,"DGTK","medium_airport","Takoradi Airport",4.89606,-1.77476,21,"AF","GH","GH-WP","Sekondi-Takoradi","yes","DGTK","TKD","","","http://en.wikipedia.org/wiki/Takoradi_Airport",""
2096,"DIAP","medium_airport","Port Bouet Airport",5.26139,-3.92629,21,"AF","CI","CI-01","Abidjan","yes","DIAP","ABJ","","","http://en.wikipedia.org/wiki/Port_Bouet_Airport","Félix Houphouët-Boigny International Airport"
2097,"DIBK","medium_airport","Bouaké Airport",7.7388,-5.07367,1230,"AF","CI","CI-04","","yes","DIBK","BYK","","","http://en.wikipedia.org/wiki/Bouak%C3%A9_Airport",""
2098,"DIDL","medium_airport","Daloa Airport",6.79281,-6.47319,823,"AF","CI","CI-02","","no","DIDL","DJO","","","",""
2099,"DIKO","medium_airport","Korhogo Airport",9.38718,-5.55666,1214,"AF","CI","CI-03","Korhogo","no","DIKO","HGO","","","http://en.wikipedia.org/wiki/Korhogo_Airport",""
2100,"DIMN","medium_airport","Man Airport",7.27207,-7.58736,1089,"AF","CI","CI-06","","no","DIMN","MJC","","","",""
2101,"DISP","medium_airport","San Pedro Airport",4.74672,-6.66082,26,"AF","CI","CI-09","","no","DISP","SPY","","","",""
2102,"DIYO","medium_airport","Yamoussoukro Airport",6.90317,-5.36558,699,"AF","CI","CI-07","Yamoussoukro","no","DIYO","ASK","","","http://en.wikipedia.org/wiki/Yamoussoukro_Airport",""
2104,"DNAA","large_airport","Nnamdi Azikiwe International Airport",9.00679,7.26317,1123,"AF","NG","NG-FC","Abuja","yes","DNAA","ABV","","http://www.faannigeria.org/nigeria-airport.php?airport=3","http://en.wikipedia.org/wiki/Nnamdi_Azikiwe_International_Airport",""
2105,"DNAK","medium_airport","Akure Airport",7.24674,5.30101,1100,"AF","NG","NG-ON","Akure","yes","DNAK","AKR","","http://www.faannigeria.org/nigeria-airport.php?airport=21","http://en.wikipedia.org/wiki/Akure_Airport",""
2106,"DNBE","medium_airport","Benin Airport",6.31698,5.5995,258,"AF","NG","NG-ED","Benin","yes","DNBE","BNI","","http://www.faannigeria.org/nigeria-airport.php?airport=22","http://en.wikipedia.org/wiki/Benin_Airport",""
2107,"DNCA","medium_airport","Margaret Ekpo International Airport",4.97602,8.3472,210,"AF","NG","NG-CR","Calabar","yes","DNCA","CBQ","","http://www.faannigeria.org/nigeria-airport.php?airport=12","http://en.wikipedia.org/wiki/Margaret_Ekpo_International_Airport",""
2108,"DNEN","medium_airport","Akanu Ibiam International Airport",6.47427,7.56196,466,"AF","NG","NG-EN","Enegu","yes","DNEN","ENU","","http://www.faannigeria.org/nigeria-airport.php?airport=11","http://en.wikipedia.org/wiki/Akanu_Ibiam_International_Airport",""
2110,"DNIB","medium_airport","Ibadan Airport",7.36246,3.97833,725,"AF","NG","NG-OY","Ibadan","yes","DNIB","IBA","","http://www.faannigeria.org/nigeria-airport.php?airport=7","http://en.wikipedia.org/wiki/Ibadan_Airport",""
2111,"DNIL","medium_airport","Ilorin International Airport",8.44021,4.49392,1126,"AF","NG","NG-KW","Ilorin","yes","DNIL","ILR","","http://www.faannigeria.org/nigeria-airport.php?airport=20","http://en.wikipedia.org/wiki/Ilorin_International_Airport",""
2112,"DNIM","medium_airport","Sam Mbakwe International Airport",5.42706,7.20603,373,"AF","NG","NG-IM","Owerri","yes","DNIM","QOW","","http://www.faannigeria.org/nigeria-airport.php?airport=17","http://en.wikipedia.org/wiki/Sam_Mbakwe_International_Cargo_Airport","Imo Airport"
2113,"DNJO","medium_airport","Yakubu Gowon Airport",9.63983,8.86905,4232,"AF","NG","NG-PL","Jos","yes","DNJO","JOS","","http://www.faannigeria.org/nigeria-airport.php?airport=15","http://en.wikipedia.org/wiki/Yakubu_Gowon_Airport",""
2114,"DNKA","medium_airport","Kaduna Airport",10.696,7.32011,2073,"AF","NG","NG-KD","Kaduna","yes","DNKA","KAD","","http://www.faannigeria.org/nigeria-airport.php?airport=10","http://en.wikipedia.org/wiki/Kaduna_Airport",""
2115,"DNKN","large_airport","Mallam Aminu International Airport",12.0476,8.52462,1562,"AF","NG","NG-KN","Kano","yes","DNKN","KAN","","http://www.faannigeria.org/nigeria-airport.php?airport=2","http://en.wikipedia.org/wiki/Mallam_Aminu_Kano_International_Airport",""
2116,"DNMA","medium_airport","Maiduguri International Airport",11.8553,13.0809,1099,"AF","NG","NG-BO","Maiduguri","yes","DNMA","MIU","","http://www.faannigeria.org/nigeria-airport.php?airport=14","http://en.wikipedia.org/wiki/Maiduguri_International_Airport",""
2117,"DNMK","medium_airport","Makurdi Airport",7.70388,8.61394,371,"AF","NG","NG-BE","Makurdi","yes","DNMK","MDI","","http://www.faannigeria.org/nigeria-airport.php?airport=23","https://en.wikipedia.org/wiki/Makurdi_Airport",""
2118,"DNMM","large_airport","Murtala Muhammed International Airport",6.57737,3.32116,135,"AF","NG","NG-LA","Lagos","yes","DNMM","LOS","","http://www.faannigeria.org/nigeria-airport.php?airport=1","http://en.wikipedia.org/wiki/Murtala_Mohammed_International_Airport",""
2119,"DNMN","medium_airport","Minna Airport",9.65217,6.46226,834,"AF","NG","NG-NI","Minna","no","DNMN","MXJ","","http://www.faannigeria.org/nigeria-airport.php?airport=19","http://en.wikipedia.org/wiki/Minna_Airport",""
2120,"DNPO","medium_airport","Port Harcourt International Airport",5.01549,6.94959,87,"AF","NG","NG-RI","Port Harcourt","yes","DNPO","PHC","","http://www.faannigeria.org/nigeria-airport.php?airport=4","http://en.wikipedia.org/wiki/Port_Harcourt_International_Airport",""
2121,"DNSO","medium_airport","Sadiq Abubakar III International Airport",12.9163,5.20719,1010,"AF","NG","NG-SO","Sokoto","yes","DNSO","SKO","","http://www.faannigeria.org/nigeria-airport.php?airport=13","http://en.wikipedia.org/wiki/Sadiq_Abubakar_III_International_Airport",""
2122,"DNYO","medium_airport","Yola Airport",9.25755,12.4304,599,"AF","NG","NG-AD","Yola","yes","DNYO","YOL","","http://www.faannigeria.org/nigeria-airport.php?airport=16","http://en.wikipedia.org/wiki/Yola_Airport",""
2123,"DNZA","medium_airport","Zaria Airport",11.1302,7.68581,2170,"AF","NG","NG-KD","Zaria","no","DNZA","ZAR","","http://www.faannigeria.org/nigeria-airport.php?airport=24","https://en.wikipedia.org/wiki/Zaria_Airport",""
2124,"DRRM","medium_airport","Maradi Airport",13.5025,7.12675,1240,"AF","NE","NE-4","Maradi","no","DRRM","MFQ","","","",""
2125,"DRRN","medium_airport","Diori Hamani International Airport",13.4815,2.18361,732,"AF","NE","NE-8","Niamey","yes","DRRN","NIM","","","http://en.wikipedia.org/wiki/Diori_Hamani_International_Airport",""
2126,"DRRT","medium_airport","Tahoua Airport",14.8757,5.26536,1266,"AF","NE","NE-5","Tahoua","no","DRRT","THZ","","","",""
2127,"DRZA","medium_airport","Mano Dayak International Airport",16.966,8.00011,1657,"AF","NE","NE-1","Agadez","yes","DRZA","AJY","","","http://en.wikipedia.org/wiki/Mano_Dayak_International_Airport",""
2130,"DRZR","medium_airport","Zinder Airport",13.779,8.98376,1516,"AF","NE","NE-7","Zinder","yes","DRZR","ZND","","","http://en.wikipedia.org/wiki/Zinder_Airport",""
2131,"DTKA","medium_airport","Tabarka 7 Novembre Airport",36.98,8.87694,230,"AF","TN","TN-32","Tabarka","yes","DTKA","TBJ","","","http://en.wikipedia.org/wiki/Tabarka_-_7_Novembre_International_Airport",""
2132,"DTMB","medium_airport","Monastir Habib Bourguiba International Airport",35.7581,10.7547,9,"AF","TN","TN-52","Monastir","yes","DTMB","MIR","","","http://en.wikipedia.org/wiki/Habib_Bourguiba_International_Airport",""
2133,"DTTA","large_airport","Tunis Carthage International Airport",36.851,10.2272,22,"AF","TN","TN-11","Tunis","yes","DTTA","TUN","","http://www.oaca.nat.tn/english/div_horizontal_tunis_airport_eng.htm","http://en.wikipedia.org/wiki/Tunis-Carthage_International_Airport","Aéroport international de Tunis-Carthage, مطار تونس قرطاج الدولي"
2136,"DTTF","medium_airport","Gafsa Ksar International Airport",34.422,8.8225,1060,"AF","TN","TN-71","Gafsa","yes","DTTF","GAF","","","http://en.wikipedia.org/wiki/Gafsa_-_Ksar_International_Airport",""
2137,"DTTG","medium_airport","Gabès Matmata International Airport",33.8769,10.1033,26,"AF","TN","TN-81","Gabès","yes","DTTG","GAE","","","http://en.wikipedia.org/wiki/Gab%C3%A8s_-_Matmata_International_Airport",""
2139,"DTTJ","medium_airport","Djerba Zarzis International Airport",33.875,10.7755,19,"AF","TN","TN-82","Djerba","yes","DTTJ","DJE","","","http://en.wikipedia.org/wiki/Djerba-Zarzis_Airport",""
2140,"DTTR","medium_airport","El Borma Airport",31.7043,9.25462,827,"AF","TN","TN-83","El Borma","no","DTTR","EBM","","","",""
2141,"DTTX","medium_airport","Sfax Thyna International Airport",34.718,10.691,85,"AF","TN","TN-61","Sfax","yes","DTTX","SFA","","","http://en.wikipedia.org/wiki/Thyna_Airport",""
2142,"DTTZ","medium_airport","Tozeur Nefta International Airport",33.9397,8.11056,287,"AF","TN","TN-72","Tozeur","yes","DTTZ","TOE","","","http://en.wikipedia.org/wiki/Nefta_Airport",""
2143,"DXNG","medium_airport","Niamtougou International Airport",9.76733,1.09125,1515,"AF","TG","TG-K","Niamtougou","no","DXNG","LRL","","","http://en.wikipedia.org/wiki/Niamtougou_International_Airport",""
2144,"DXXX","medium_airport","Lomé-Tokoin Airport",6.16561,1.25451,72,"AF","TG","TG-M","Lomé","yes","DXXX","LFW","","","http://en.wikipedia.org/wiki/Lom%C3%A9-Tokoin_Airport","Gnassingbe Eyadema International Airport"
2152,"EBAW","medium_airport","Antwerp International Airport (Deurne)",51.1894,4.46028,39,"EU","BE","BE-VAN","Antwerp","yes","EBAW","ANR","","http://www.antwerp-airport.be/","http://en.wikipedia.org/wiki/Antwerp_International_Airport",""
2155,"EBBR","large_airport","Brussels Airport",50.9014,4.48444,184,"EU","BE","BE-BRU","Brussels","yes","EBBR","BRU","","http://www.brusselsairport.be/en/","http://en.wikipedia.org/wiki/Brussels_Airport",""
2157,"EBCI","large_airport","Brussels South Charleroi Airport",50.4592,4.45382,614,"EU","BE","BE-WHT","Brussels","yes","EBCI","CRL","","http://www.charleroi-airport.com/doc.php?nd=o29&tid=29&lg=2&docid=1&site=1","http://en.wikipedia.org/wiki/Brussels_South_Charleroi_Airport","Gosselies Airport"
2161,"EBKT","medium_airport","Wevelgem Airport",50.8172,3.20472,64,"EU","BE","BE-VWV","Wevelgem","no","EBKT","KJK","","http://www.kortrijkairport.be","http://en.wikipedia.org/wiki/Kortrijk-Wevelgem_International_Airport",""
2162,"EBLG","large_airport","Liège Airport",50.6374,5.44322,659,"EU","BE","BE-WLG","Liège","yes","EBLG","LGG","","http://www.liegeairport.be/","http://en.wikipedia.org/wiki/Li%C3%A8ge_Airport",""
2163,"EBOS","medium_airport","Ostend-Bruges International Airport",51.1989,2.86222,13,"EU","BE","BE-VWV","Ostend","yes","EBOS","OST","","http://www.ost.aero/","http://en.wikipedia.org/wiki/Ostend-Bruges_International_Airport",""
2184,"EDAC","medium_airport","Altenburg-Nobitz Airport",50.9819,12.5064,640,"EU","DE","DE-TH","Altenburg","yes","EDAC","AOC","","http://www.leipzig-altenburg-airport.de/","http://en.wikipedia.org/wiki/Altenburg-Nobitz_Airport","Altenburg Nobitz"
2187,"EDAH","medium_airport","Heringsdorf Airport",53.8787,14.1523,93,"EU","DE","DE-MV","Heringsdorf","yes","EDAH","HDF","","","http://en.wikipedia.org/wiki/Heringsdorf_Airport",""
2199,"EDBM","medium_airport","Magdeburg \"City\" Airport",52.0736,11.6264,259,"EU","DE","DE-ST","Magdeburg","no","EDBM","ZMG","","http://www.edbm.de","https://en.wikipedia.org/wiki/Magdeburg%E2%80%93Cochstedt_Airport",""
2204,"EDCD","medium_airport","Cottbus-Drewitz Airport",51.8894,14.5319,272,"EU","DE","DE-BR","Cottbus","no","EDCD","CBU","","","https://en.wikipedia.org/wiki/Cottbus-Drewitz_Airport",""
2209,"EDDB","large_airport","Berlin-Schönefeld Airport",52.38,13.5225,157,"EU","DE","DE-BR","Berlin","yes","EDDB","SXF","","http://www.berlin-airport.de/en/travellers-sxf/index.php","http://en.wikipedia.org/wiki/Berlin-Sch%C3%B6nefeld_International_Airport","BER, Schoenefeld"
2210,"EDDC","large_airport","Dresden Airport",51.1328,13.7672,755,"EU","DE","DE-SN","Dresden","yes","EDDC","DRS","","http://www.dresden-airport.de/en/index.html","http://en.wikipedia.org/wiki/Dresden_Airport",""
2211,"EDDE","medium_airport","Erfurt Airport",50.9798,10.9581,1036,"EU","DE","DE-TH","Erfurt","yes","EDDE","ERF","","http://www.airport-erfurt.de/","http://en.wikipedia.org/wiki/Erfurt_Airport","Flughafen Erfurt"
2212,"EDDF","large_airport","Frankfurt am Main Airport",50.0333,8.57056,364,"EU","DE","DE-HE","Frankfurt am Main","yes","EDDF","FRA","","http://www.frankfurt-airport.de/","http://en.wikipedia.org/wiki/Frankfurt_Airport","EDAF, Rhein-Main Air Base"
2213,"EDDG","large_airport","Münster Osnabrück Airport",52.1346,7.68483,160,"EU","DE","DE-NW","Münster","yes","EDDG","FMO","","","http://en.wikipedia.org/wiki/M%C3%BCnster_Osnabr%C3%BCck_International_Airport",""
2214,"EDDH","large_airport","Hamburg Airport",53.6304,9.98823,53,"EU","DE","DE-HH","Hamburg","yes","EDDH","HAM","","https://www.hamburg-airport.de/en/","http://en.wikipedia.org/wiki/Hamburg_Airport",""
2216,"EDDK","large_airport","Cologne Bonn Airport",50.8659,7.14274,302,"EU","DE","DE-NW","Cologne","yes","EDDK","CGN","","http://www.koeln-bonn-airport.de/en/","http://en.wikipedia.org/wiki/Cologne_Bonn_Airport","Köln"
2217,"EDDL","large_airport","Düsseldorf Airport",51.2895,6.76678,147,"EU","DE","DE-NW","Düsseldorf","yes","EDDL","DUS","","http://www.dus.com/dus_en/","http://en.wikipedia.org/wiki/D%C3%BCsseldorf_Airport",""
2218,"EDDM","large_airport","Munich Airport",48.3538,11.7861,1487,"EU","DE","DE-BY","Munich","yes","EDDM","MUC","","http://www.munich-airport.com/","http://en.wikipedia.org/wiki/Munich_International_Airport","Franz Josef Strauss Airport, Flughafen München Franz Josef Strauß"
2219,"EDDN","large_airport","Nuremberg Airport",49.4987,11.0781,1046,"EU","DE","DE-BY","Nuremberg","yes","EDDN","NUE","","https://www.airport-nuernberg.de/english","http://en.wikipedia.org/wiki/Nuremberg_Airport","Nürnberg"
2220,"EDDP","large_airport","Leipzig/Halle Airport",51.4239,12.2364,465,"EU","DE","DE-SN","Leipzig","yes","EDDP","LEJ","","http://www.leipzig-halle-airport.de/en/index.html","http://en.wikipedia.org/wiki/Leipzig/Halle_Airport","Schkeuditz Airport"
2221,"EDDR","medium_airport","Saarbrücken Airport",49.2146,7.10951,1058,"EU","DE","DE-SL","Saarbrücken","yes","EDDR","SCN","","http://www.flughafen-saarbruecken.de/","http://en.wikipedia.org/wiki/Saarbr%C3%BCcken_Airport",""
2222,"EDDS","large_airport","Stuttgart Airport",48.6899,9.22196,1276,"EU","DE","DE-BW","Stuttgart","yes","EDDS","STR","","http://www.flughafen-stuttgart.de/","http://en.wikipedia.org/wiki/Stuttgart_Airport",""
2223,"EDDT","large_airport","Berlin-Tegel Airport",52.5597,13.2877,122,"EU","DE","DE-BE","Berlin","yes","EDDT","TXL","","http://www.berlin-airport.de/en/travellers-txl/index.php","http://en.wikipedia.org/wiki/Berlin-Tegel_International_Airport","BER, Otto Lilienthal"
2224,"EDDV","large_airport","Hannover Airport",52.4611,9.68508,183,"EU","DE","DE-NI","Hannover","yes","EDDV","HAJ","","","http://en.wikipedia.org/wiki/Hanover/Langenhagen_International_Airport",""
2225,"EDDW","large_airport","Bremen Airport",53.0475,8.78667,14,"EU","DE","DE-HB","Bremen","yes","EDDW","BRE","","","http://en.wikipedia.org/wiki/Bremen_Airport",""
2226,"EDFE","medium_airport","Frankfurt-Egelsbach Airport",49.96,8.64583,384,"EU","DE","DE-HE","Frankfurt am Main","no","EDFE","QEF","","http://www.egelsbach-airport.com/","http://en.wikipedia.org/wiki/Frankfurt_Egelsbach_Airport",""
2227,"EDFH","medium_airport","Frankfurt-Hahn Airport",49.9487,7.26389,1649,"EU","DE","DE-RP","Frankfurt am Main","yes","EDFH","HHN","","","http://en.wikipedia.org/wiki/Frankfurt-Hahn_Airport",""
2228,"EDFM","medium_airport","Mannheim-City Airport",49.4731,8.51417,308,"EU","DE","DE-BW","Mannheim","yes","EDFM","MHG","","http://www.flugplatz-mannheim.de/","http://en.wikipedia.org/wiki/Mannheim_City_Airport","Mannheim"
2232,"EDGE","medium_airport","Eisenach-Kindel Airport",50.9916,10.4797,1112,"EU","DE","DE-TH","Eisenach","no","EDGE","EIB","","http://www.flugplatz-eisenach.de/","http://de.wikipedia.org/wiki/Flugplatz_Eisenach-Kindel","Flugplatz Eisenach-Kindel"
2233,"EDGS","medium_airport","Siegerland Airport",50.7077,8.08297,1966,"EU","DE","DE-NW","","no","EDGS","SGE","","","http://en.wikipedia.org/wiki/Siegerland_Airport",""
2234,"EDHI","medium_airport","Hamburg-Finkenwerder Airport",53.5353,9.83556,23,"EU","DE","DE-HH","Hamburg","no","EDHI","XFW","","","http://en.wikipedia.org/wiki/Hamburg_Finkenwerder_Airport",""
2235,"EDHK","medium_airport","Kiel-Holtenau Airport",54.3794,10.1453,102,"EU","DE","DE-SH","Kiel","yes","EDHK","KEL","","","http://en.wikipedia.org/wiki/Kiel-Holtenau_airport",""
2236,"EDHL","medium_airport","Lübeck Blankensee Airport",53.8054,10.7192,53,"EU","DE","DE-SH","Lübeck","yes","EDHL","LBC","","","http://en.wikipedia.org/wiki/L%C3%BCbeck_Airport",""
2237,"EDJA","medium_airport","Memmingen Allgau Airport",47.9888,10.2395,2077,"EU","DE","DE-BY","Memmingen","yes","EDJA","FMM","","","http://en.wikipedia.org/wiki/Memmingen_Airport",""
2243,"EDLN","medium_airport","Mönchengladbach Airport",51.2303,6.50444,125,"EU","DE","DE-NW","Mönchengladbach","no","EDLN","MGL","","","http://en.wikipedia.org/wiki/D%C3%BCsseldorf-M%C3%B6nchengladbach_Airport",""
2244,"EDLP","medium_airport","Paderborn Lippstadt Airport",51.6141,8.61632,699,"EU","DE","DE-NW","Paderborn","yes","EDLP","PAD","","","http://en.wikipedia.org/wiki/Paderborn_Lippstadt_Airport",""
2246,"EDLV","medium_airport","Weeze Airport",51.6024,6.14217,106,"EU","DE","DE-NW","Weeze","yes","EDLV","NRN","","http://www.airport-weeze.de/de","http://en.wikipedia.org/wiki/Airport_Weeze","LRC, ETUL, Niederrhein Airport, RAF Laarbruch, Düsseldorf Regional"
2247,"EDLW","large_airport","Dortmund Airport",51.5183,7.61224,425,"EU","DE","DE-NW","Dortmund","yes","EDLW","DTM","","","http://en.wikipedia.org/wiki/Dortmund_Airport",""
2248,"EDMA","medium_airport","Augsburg Airport",48.4253,10.9317,1516,"EU","DE","DE-BY","Augsburg","yes","EDMA","AGB","","","https://en.wikipedia.org/wiki/Augsburg_Airport",""
2252,"EDMO","medium_airport","Oberpfaffenhofen Airport",48.0814,11.2831,1947,"EU","DE","DE-BY","","no","EDMO","OBF","","","","Weßling"
2256,"EDNY","medium_airport","Friedrichshafen Airport",47.6713,9.51149,1367,"EU","DE","DE-BW","Friedrichshafen","yes","EDNY","FDH","","","http://en.wikipedia.org/wiki/Friedrichshafen_Airport",""
2258,"EDOP","medium_airport","Schwerin Parchim Airport",53.427,11.7834,166,"EU","DE","DE-MV","","no","EDOP","SZW","","","https://en.wikipedia.org/wiki/Parchim_International_Airport",""
2261,"EDQD","medium_airport","Bayreuth Airport",49.985,11.64,1601,"EU","DE","DE-BY","Bayreuth","no","EDQD","BYU","","","http://en.wikipedia.org/wiki/Bindlacher_Berg_Airport","Bindlacher Berg Airport"
2263,"EDQM","medium_airport","Hof-Plauen Airport",50.2886,11.8564,1959,"EU","DE","DE-BY","Hof","yes","EDQM","HOQ","","","http://en.wikipedia.org/wiki/Hof-Plauen_Airport",""
2270,"EDSB","large_airport","Karlsruhe Baden-Baden Airport",48.7794,8.0805,408,"EU","DE","DE-BW","Baden-Baden","yes","EDSB","FKB","","http://www.baden-airpark.de/startseite.html","http://en.wikipedia.org/wiki/Baden_Airpark","Baden Airpark"
2273,"EDTD","medium_airport","Donaueschingen-Villingen Airport",47.9733,8.52222,2231,"EU","DE","DE-BW","Donaueschingen","no","EDTD","ZQL","","http://www.flugplatz-donaueschingen.de/","http://de.wikipedia.org/wiki/Flugplatz_Donaueschingen-Villingen",""
2276,"EDTL","medium_airport","Lahr Airport",48.3693,7.82772,511,"EU","DE","DE-BW","","no","EDTL","LHA","","http://airport-lahr.de/","http://en.wikipedia.org/wiki/CFB_Lahr","Black Forest Airport"
2284,"EDVE","medium_airport","Braunschweig-Wolfsburg Airport",52.3192,10.5561,295,"EU","DE","DE-NI","Braunschweig","yes","EDVE","BWE","","http://www.flughafen-braunschweig-wolfsburg.de/","https://en.wikipedia.org/wiki/Braunschweig_Airport",""
2285,"EDVK","medium_airport","Kassel-Calden Airport",51.4173,9.38497,820,"EU","DE","DE-HE","Kassel","yes","EDVK","KSF","","http://www.flughafenkassel.de/","http://en.wikipedia.org/wiki/Kassel_Calden_Airport",""
2296,"EDXW","medium_airport","Westerland Sylt Airport",54.9132,8.34047,51,"EU","DE","DE-SH","Westerland","yes","EDXW","GWT","","","http://en.wikipedia.org/wiki/Sylt_Airport",""
2298,"EEKA","medium_airport","Kärdla Airport",58.9908,22.8307,18,"EU","EE","EE-39","Kärdla","yes","EEKA","KDL","","","http://en.wikipedia.org/wiki/K%C3%A4rdla_Airport",""
2299,"EEKE","medium_airport","Kuressaare Airport",58.2299,22.5095,14,"EU","EE","EE-74","Kuressaare","yes","EEKE","URE","","http://www.eeke.ee/","http://en.wikipedia.org/wiki/Kuressaare_Airport",""
2300,"EEPU","medium_airport","Pärnu Airport",58.419,24.4728,47,"EU","EE","EE-67","Pärnu","yes","EEPU","EPU","","","http://en.wikipedia.org/wiki/P%C3%A4rnu_Airport",""
2301,"EETN","large_airport","Lennart Meri Tallinn Airport",59.4133,24.8328,131,"EU","EE","EE-37","Tallinn","yes","EETN","TLL","","http://www.tallinn-airport.ee/eng","http://en.wikipedia.org/wiki/Tallinn_Airport",""
2302,"EETU","medium_airport","Tartu Airport",58.3075,26.6904,219,"EU","EE","EE-7B","Tartu","yes","EETU","TAY","","","http://en.wikipedia.org/wiki/Tartu_Airport",""
2303,"EFET","medium_airport","Enontekio Airport",68.3626,23.4243,1005,"EU","FI","FI-LL","Enontekio","yes","EFET","ENF","","http://www.finavia.fi/en/enontekio/","https://en.wikipedia.org/wiki/Enonteki%C3%B6_Airport",""
2305,"EFHA","medium_airport","Halli Airport",61.856,24.7867,479,"EU","FI","FI-LS","Halli / Kuorevesi","no","EFHA","KEV","","","https://en.wikipedia.org/wiki/Halli_Airport","Halli Air Base"
2306,"EFHF","medium_airport","Helsinki Malmi Airport",60.2546,25.0428,57,"EU","FI","FI-ES","Helsinki","no","EFHF","HEM","","","http://en.wikipedia.org/wiki/Helsinki-Malmi_Airport",""
2307,"EFHK","large_airport","Helsinki Vantaa Airport",60.3172,24.9633,179,"EU","FI","FI-ES","Helsinki","yes","EFHK","HEL","","http://www.finavia.fi/en/helsinki-airport","http://en.wikipedia.org/wiki/Helsinki-Vantaa_Airport",""
2313,"EFIT","medium_airport","Kitee Airport",62.1661,30.0736,364,"EU","FI","FI-IS","","no","EFIT","KTQ","","","https://en.wikipedia.org/wiki/Kitee_Airfield",""
2314,"EFIV","medium_airport","Ivalo Airport",68.6073,27.4053,481,"EU","FI","FI-LL","Ivalo","yes","EFIV","IVL","","http://www.finavia.fi/en/ivalo/","http://en.wikipedia.org/wiki/Ivalo_Airport",""
2315,"EFJO","medium_airport","Joensuu Airport",62.6629,29.6075,398,"EU","FI","FI-IS","Joensuu / Liperi","yes","EFJO","JOE","","http://www.finavia.fi/en/joensuu/","http://en.wikipedia.org/wiki/Joensuu_Airport",""
2316,"EFJY","medium_airport","Jyvaskyla Airport",62.3995,25.6783,459,"EU","FI","FI-LS","Jyväskylän Maalaiskunta","yes","EFJY","JYV","","https://www.finavia.fi/en/jyvaskyla/","http://en.wikipedia.org/wiki/Jyv%C3%A4skyl%C3%A4_Airport",""
2317,"EFKA","medium_airport","Kauhava Airport",63.1271,23.0514,151,"EU","FI","FI-LS","Kauhava","no","EFKA","KAU","","","https://en.wikipedia.org/wiki/Kauhava_Airfield","Kauhava Air Base"
2318,"EFKE","medium_airport","Kemi-Tornio Airport",65.7787,24.5821,61,"EU","FI","FI-LL","Kemi / Tornio","yes","EFKE","KEM","","http://www.finavia.fi/en/kemi-tornio/","http://en.wikipedia.org/wiki/Kemi-Tornio_Airport",""
2319,"EFKI","medium_airport","Kajaani Airport",64.2855,27.6924,483,"EU","FI","FI-OL","Kajaani","yes","EFKI","KAJ","","https://www.finavia.fi/en/kajaani/","http://en.wikipedia.org/wiki/Kajaani_Airport",""
2320,"EFKJ","medium_airport","Kauhajoki Airport",62.4625,22.3931,407,"EU","FI","FI-LS","","no","EFKJ","KHJ","","","http://en.wikipedia.org/wiki/Kauhajoki_Airfield",""
2321,"EFKK","medium_airport","Kokkola-Pietarsaari Airport",63.7212,23.1431,84,"EU","FI","FI-LS","Kokkola / Kruunupyy","yes","EFKK","KOK","","https://www.finavia.fi/en/kokkola-pietarsaari/","https://en.wikipedia.org/wiki/Kokkola-Pietarsaari_Airport","Kronoby Airport"
2324,"EFKS","medium_airport","Kuusamo Airport",65.9876,29.2394,866,"EU","FI","FI-OL","Kuusamo","yes","EFKS","KAO","","http://www.finavia.fi/en/kuusamo/","http://en.wikipedia.org/wiki/Kuusamo_Airport",""
2325,"EFKT","medium_airport","Kittilä Airport",67.701,24.8468,644,"EU","FI","FI-LL","Kittilä","yes","EFKT","KTT","","http://www.finavia.fi/en/kittila/","http://en.wikipedia.org/wiki/Kittil%C3%A4_Airport",""
2326,"EFKU","medium_airport","Kuopio Airport",63.0071,27.7978,323,"EU","FI","FI-IS","Kuopio / Siilinjärvi","yes","EFKU","KUO","","https://www.finavia.fi/en/kuopio/","http://en.wikipedia.org/wiki/Kuopio_Airport",""
2329,"EFLP","medium_airport","Lappeenranta Airport",61.0446,28.1447,349,"EU","FI","FI-ES","Lappeenranta","no","EFLP","LPP","","https://www.finavia.fi/en/lappeenranta/","http://en.wikipedia.org/wiki/Lappeenranta_Airport",""
2330,"EFMA","medium_airport","Mariehamn Airport",60.1222,19.8982,17,"EU","FI","FI-AL","","yes","EFMA","MHQ","","http://www.finavia.fi/en/mariehamn/","http://en.wikipedia.org/wiki/Mariehamn_Airport",""
2332,"EFMI","medium_airport","Mikkeli Airport",61.6866,27.2018,329,"EU","FI","FI-IS","Mikkeli","no","EFMI","MIK","","http://www.mikkelinlentoasema.fi/en/","http://en.wikipedia.org/wiki/Mikkeli_Airport",""
2334,"EFOU","medium_airport","Oulu Airport",64.9301,25.3546,47,"EU","FI","FI-OL","Oulu / Oulunsalo","yes","EFOU","OUL","","https://www.finavia.fi/en/oulu/","http://en.wikipedia.org/wiki/Oulu_Airport",""
2336,"EFPO","medium_airport","Pori Airport",61.4617,21.8,44,"EU","FI","FI-LS","Pori","yes","EFPO","POR","","http://www.finavia.fi/en/pori/","http://en.wikipedia.org/wiki/Pori_Airport",""
2341,"EFRO","medium_airport","Rovaniemi Airport",66.5648,25.8304,642,"EU","FI","FI-LL","Rovaniemi","yes","EFRO","RVN","","http://www.finavia.fi/en/rovaniemi/","http://en.wikipedia.org/wiki/Rovaniemi_Airport",""
2343,"EFSA","medium_airport","Savonlinna Airport",61.9431,28.9451,311,"EU","FI","FI-IS","Savonlinna","yes","EFSA","SVL","","http://www.finavia.fi/en/savonlinna/","http://en.wikipedia.org/wiki/Savonlinna_Airport",""
2345,"EFSI","medium_airport","Seinäjoki Airport",62.6921,22.8323,302,"EU","FI","FI-LS","Seinäjoki / Ilmajoki","yes","EFSI","SJY","","","http://en.wikipedia.org/wiki/Sein%C3%A4joki_Airport",""
2346,"EFSO","medium_airport","Sodankyla Airport",67.395,26.6191,602,"EU","FI","FI-LL","Sodankyla","no","EFSO","SOT","","","http://en.wikipedia.org/wiki/Sodankyl%C3%A4_Airfield",""
2347,"EFTP","medium_airport","Tampere-Pirkkala Airport",61.4141,23.6044,390,"EU","FI","FI-LS","Tampere / Pirkkala","yes","EFTP","TMP","","https://www.finavia.fi/en/tampere-pirkkala/","http://en.wikipedia.org/wiki/Tampere-Pirkkala_Airport",""
2349,"EFTU","medium_airport","Turku Airport",60.5141,22.2628,161,"EU","FI","FI-LS","Turku","yes","EFTU","TKU","","https://www.finavia.fi/en/turku/","http://en.wikipedia.org/wiki/Turku_Airport",""
2351,"EFVA","medium_airport","Vaasa Airport",63.0507,21.7622,19,"EU","FI","FI-LS","Vaasa","yes","EFVA","VAA","","http://www.finavia.fi/en/vaasa/","http://en.wikipedia.org/wiki/Vaasa_Airport",""
2352,"EFVR","medium_airport","Varkaus Airport",62.1711,27.8686,286,"EU","FI","FI-IS","Varkaus / Joroinen","yes","EFVR","VRK","","http://www.finavia.fi/en/varkaus/","http://en.wikipedia.org/wiki/Varkaus_Airport",""
2385,"EGAA","large_airport","Belfast International Airport",54.6575,-6.21583,268,"EU","GB","GB-NIR","Belfast","yes","EGAA","BFS","","http://www.belfastairport.com/","http://en.wikipedia.org/wiki/Belfast_International_Airport","Aldergrove, RAF Aldergrove"
2386,"EGAB","medium_airport","St Angelo Airport",54.3989,-7.65167,155,"EU","GB","GB-NIR","Enniskillen","no","EGAB","ENK","","","http://en.wikipedia.org/wiki/Enniskillen/St_Angelo_Airport",""
2387,"EGAC","large_airport","George Best Belfast City Airport",54.6181,-5.8725,15,"EU","GB","GB-NIR","Belfast","yes","EGAC","BHD","","http://www.belfastcityairport.com/","http://en.wikipedia.org/wiki/George_Best_Belfast_City_Airport",""
2388,"EGAE","medium_airport","City of Derry Airport",55.0428,-7.16111,22,"EU","GB","GB-NIR","Derry","yes","EGAE","LDY","","http://www.cityofderryairport.com/","http://en.wikipedia.org/wiki/City_of_Derry_Airport","Londonderry Eglinton Airport"
2389,"EGBB","large_airport","Birmingham International Airport",52.4539,-1.74803,327,"EU","GB","GB-ENG","Birmingham","yes","EGBB","BHX","","http://www.bhx.co.uk/","http://en.wikipedia.org/wiki/Birmingham_International_Airport_(United_Kingdom)",""
2390,"EGBE","medium_airport","Coventry Airport",52.3697,-1.47972,267,"EU","GB","GB-ENG","Coventry","no","EGBE","CVT","","http://www.coventryairport.co.uk/","http://en.wikipedia.org/wiki/Coventry_Airport","RAF Baginton"
2392,"EGBJ","medium_airport","Gloucestershire Airport",51.8942,-2.16722,101,"EU","GB","GB-ENG","Staverton","no","EGBJ","GLO","","","http://en.wikipedia.org/wiki/Gloucestershire_Airport",""
2393,"EGBN","medium_airport","Nottingham Airport",52.92,-1.07917,138,"EU","GB","GB-ENG","Nottingham","yes","EGBN","NQT","","http://www.nottinghamairport.co.uk/","http://en.wikipedia.org/wiki/Nottingham_Airport",""
2398,"EGCC","large_airport","Manchester Airport",53.3537,-2.27495,257,"EU","GB","GB-ENG","Manchester","yes","EGCC","MAN","","http://www.manchesterairport.co.uk/","http://en.wikipedia.org/wiki/Manchester_Airport","Ringway Airport, RAF Ringway"
2401,"EGCN","large_airport","Robin Hood Doncaster Sheffield Airport",53.4805,-1.01066,55,"EU","GB","GB-ENG","Doncaster","yes","EGCN","DSA","","http://www.robinhoodairport.com/","http://en.wikipedia.org/wiki/Robin_Hood_Airport_Doncaster_Sheffield","RAF Finningley"
2404,"EGHQ","medium_airport","Newquay Cornwall Airport",50.4406,-4.99541,390,"EU","GB","GB-ENG","Newquay","yes","EGHQ","NQY","","http://www.newquaycornwallairport.com/","http://en.wikipedia.org/wiki/Newquay_Cornwall_Airport","St Mawgan, EGDG"
2410,"EGDY","medium_airport","RNAS Yeovilton",51.0094,-2.63882,75,"EU","GB","GB-ENG","Yeovil","no","EGDY","YEO","","","http://en.wikipedia.org/wiki/RNAS_Yeovilton_(HMS_Heron)",""
2411,"EGEC","medium_airport","Campbeltown Airport",55.4372,-5.68639,42,"EU","GB","GB-SCT","Campbeltown","yes","EGEC","CAL","","http://www.hial.co.uk/campbeltown-airport.html","http://en.wikipedia.org/wiki/Campbeltown_Airport","Kintyre, RAF Machrihanish, Kinlochkilkerran"
2414,"EGFE","medium_airport","Haverfordwest Airport",51.8331,-4.96111,159,"EU","GB","GB-WLS","Haverfordwest","no","EGFE","HAW","","","http://en.wikipedia.org/wiki/Haverfordwest_Aerodrome",""
2415,"EGFF","large_airport","Cardiff International Airport",51.3967,-3.34333,220,"EU","GB","GB-WLS","Cardiff","yes","EGFF","CWL","","http://www.cwlfly.com/","http://en.wikipedia.org/wiki/Cardiff_International_Airport","Rhoose"
2416,"EGFH","medium_airport","Swansea Airport",51.6053,-4.06783,299,"EU","GB","GB-WLS","Swansea","no","EGFH","SWS","","","http://en.wikipedia.org/wiki/Swansea_Airport",""
2417,"EGGD","large_airport","Bristol Airport",51.3827,-2.71909,622,"EU","GB","GB-ENG","Bristol","yes","EGGD","BRS","","http://www.bristolairport.co.uk/","http://en.wikipedia.org/wiki/Bristol_International_Airport","Lulsgate Bottom"
2418,"EGGP","large_airport","Liverpool John Lennon Airport",53.3336,-2.84972,80,"EU","GB","GB-ENG","Liverpool","yes","EGGP","LPL","","http://www.liverpoolairport.com/","http://en.wikipedia.org/wiki/Liverpool_John_Lennon_Airport",""
2419,"EGGW","large_airport","London Luton Airport",51.8747,-0.368333,526,"EU","GB","GB-ENG","London","yes","EGGW","LTN","","http://www.london-luton.co.uk/en/","http://en.wikipedia.org/wiki/London_Luton_Airport","LON"
2421,"EGHH","large_airport","Bournemouth Airport",50.78,-1.8425,38,"EU","GB","GB-ENG","Bournemouth","yes","EGHH","BOH","","http://www.bournemouthairport.com/","http://en.wikipedia.org/wiki/Bournemouth_Airport","RAF Hurn"
2422,"EGHI","large_airport","Southampton Airport",50.9503,-1.3568,44,"EU","GB","GB-ENG","Southampton","yes","EGHI","SOU","","http://www.southamptonairport.com/","http://en.wikipedia.org/wiki/Southampton_Airport","RAF Eastleigh, RAF Southampton"
2423,"EGHL","medium_airport","Lasham Airport",51.1872,-1.0335,618,"EU","GB","GB-ENG","Lasham","no","EGHL","QLA","","http://www.lasham.org.uk/","http://en.wikipedia.org/wiki/Lasham_Airfield","Basingstoke, RAF Lasham"
2424,"EGJA","medium_airport","Alderney Airport",49.7061,-2.21472,290,"EU","GG","GG-U-A","Saint Anne","yes","EGJA","ACI","","","http://en.wikipedia.org/wiki/Alderney_Airport","The Blaye, Channel Islands"
2425,"EGJB","medium_airport","Guernsey Airport",49.435,-2.60197,336,"EU","GG","GG-U-A","Saint Peter Port","yes","EGJB","GCI","","","http://en.wikipedia.org/wiki/Guernsey_Airport","Channel Islands"
2426,"EGJJ","medium_airport","Jersey Airport",49.2079,-2.19551,277,"EU","JE","JE-U-A","Saint Helier","yes","EGJJ","JER","","http://www.jerseyairport.com/","http://en.wikipedia.org/wiki/Jersey_Airport","Channel Islands"
2427,"EGKA","medium_airport","Shoreham Airport",50.8356,-0.297222,7,"EU","GB","GB-ENG","Brighton","no","EGKA","ESH","","http://flybrighton.com","http://en.wikipedia.org/wiki/Shoreham_Airport",""
2428,"EGKB","medium_airport","London Biggin Hill Airport",51.3308,0.0325,598,"EU","GB","GB-ENG","London","no","EGKB","BQH","","http://www.bigginhillairport.com/","http://en.wikipedia.org/wiki/London_Biggin_Hill_Airport","LON, RAF Biggin Hill"
2429,"EGKK","large_airport","London Gatwick Airport",51.1481,-0.190278,202,"EU","GB","GB-ENG","London","yes","EGKK","LGW","","http://www.gatwickairport.com/","http://en.wikipedia.org/wiki/London_Gatwick_Airport","LON, Crawley, Charlwood"
2430,"EGLC","medium_airport","London City Airport",51.5053,0.055278,19,"EU","GB","GB-ENG","London","yes","EGLC","LCY","","http://www.londoncityairport.com/","http://en.wikipedia.org/wiki/London_City_Airport","LON"
2431,"EGLF","medium_airport","Farnborough Airport",51.2758,-0.776333,238,"EU","GB","GB-ENG","Farnborough","no","EGLF","FAB","","http://www.tagaviation.com","http://en.wikipedia.org/wiki/Farnborough_Airfield","TAG London Farnborough Airport, RAE Farnborough, EGUF"
2433,"EGLK","medium_airport","Blackbushe Airport",51.3239,-0.8475,325,"EU","GB","GB-ENG","Yateley","no","EGLK","BBS","","http://www.blackbusheairport.co.uk/","http://en.wikipedia.org/wiki/Blackbushe_Airport","RAF Hartford Bridge"
2434,"EGLL","large_airport","London Heathrow Airport",51.4706,-0.461941,83,"EU","GB","GB-ENG","London","yes","EGLL","LHR","","http://www.heathrowairport.com/","http://en.wikipedia.org/wiki/London_Heathrow_Airport","LON, Londres"
2435,"EGMC","medium_airport","Southend Airport",51.5714,0.695556,49,"EU","GB","GB-ENG","Southend","yes","EGMC","SEN","","http://www.southendairport.com/","http://en.wikipedia.org/wiki/London_Southend_Airport","RAF Rochford"
2436,"EGMD","medium_airport","Lydd Airport",50.9561,0.939167,13,"EU","GB","GB-ENG","Lydd, Ashford","yes","EGMD","LYX","","http://www.lydd-airport.co.uk/","http://en.wikipedia.org/wiki/London_Ashford_Airport","London Ashford"
2439,"EGNC","medium_airport","Carlisle Airport",54.9375,-2.80917,190,"EU","GB","GB-ENG","Carlisle","no","EGNC","CAX","","","http://en.wikipedia.org/wiki/Carlisle_Airport",""
2441,"EGNH","medium_airport","Blackpool International Airport",53.7717,-3.02861,34,"EU","GB","GB-ENG","Blackpool","yes","EGNH","BLK","","http://www.blackpoolinternational.com/","http://en.wikipedia.org/wiki/Blackpool_International_Airport",""
2442,"EGNJ","medium_airport","Humberside Airport",53.5744,-0.350833,121,"EU","GB","GB-ENG","Grimsby","yes","EGNJ","HUY","","http://www.humbersideairport.com/","http://en.wikipedia.org/wiki/Humberside_Airport","RAF Kirmington"
2443,"EGNL","medium_airport","Barrow Walney Island Airport",54.1286,-3.2675,173,"EU","GB","GB-ENG","Barrow-in-Furness","no","EGNL","BWF","","http://www.walneyairfield.multiservers.com/","http://en.wikipedia.org/wiki/Barrow/Walney_Island_Airfield",""
2444,"EGNM","large_airport","Leeds Bradford Airport",53.8659,-1.66057,681,"EU","GB","GB-ENG","Leeds","yes","EGNM","LBA","","http://www.lbia.co.uk/","http://en.wikipedia.org/wiki/Leeds_Bradford_International_Airport",""
2445,"EGNO","medium_airport","Warton Airport",53.7451,-2.88306,55,"EU","GB","GB-ENG","Warton","no","EGNO","WRT","","","http://en.wikipedia.org/wiki/Warton_Aerodrome",""
2446,"EGNR","medium_airport","Hawarden Airport",53.1781,-2.97778,45,"EU","GB","GB-WLS","Hawarden","yes","EGNR","CEG","","","http://en.wikipedia.org/wiki/Hawarden_Airport","Chester"
2447,"EGNS","medium_airport","Isle of Man Airport",54.0833,-4.62389,52,"EU","IM","IM-U-A","Castletown","yes","EGNS","IOM","","http://www.iom-airport.com/","http://en.wikipedia.org/wiki/Isle_of_Man_Airport","Ronaldsway, Douglas"
2448,"EGNT","large_airport","Newcastle Airport",55.0375,-1.69167,266,"EU","GB","GB-ENG","Newcastle","yes","EGNT","NCL","","http://www.newcastleairport.com/","http://en.wikipedia.org/wiki/Newcastle_Airport",""
2449,"EGNV","medium_airport","Durham Tees Valley Airport",54.5092,-1.42941,120,"EU","GB","GB-ENG","Durham","yes","EGNV","MME","","http://www.durhamteesvalleyairport.com/","http://en.wikipedia.org/wiki/Durham_Tees_Valley_Airport","Teesside"
2450,"EGNX","large_airport","East Midlands Airport",52.8311,-1.32806,306,"EU","GB","GB-ENG","Nottingham","yes","EGNX","EMA","","http://www.eastmidlandsairport.com/","http://en.wikipedia.org/wiki/East_Midlands_Airport","RAF Castle Donington"
2454,"EGOV","medium_airport","Anglesey Airport",53.2481,-4.53534,37,"EU","GB","GB-WLS","Angelsey","yes","EGOV","VLY","","http://www.angleseyairport.com/","http://en.wikipedia.org/wiki/Anglesey_Airport","Maes Awyr Môn, RAF Valley"
2456,"EGPA","medium_airport","Kirkwall Airport",58.9578,-2.905,50,"EU","GB","GB-SCT","Orkney Islands","yes","EGPA","KOI","","","http://en.wikipedia.org/wiki/Kirkwall_Airport",""
2457,"EGPB","medium_airport","Sumburgh Airport",59.8789,-1.29556,20,"EU","GB","GB-SCT","Lerwick","yes","EGPB","LSI","","http://www.hial.co.uk/sumburgh-airport.html","http://en.wikipedia.org/wiki/Sumburgh_Airport","Shetlands"
2458,"EGPC","medium_airport","Wick Airport",58.4589,-3.09306,126,"EU","GB","GB-SCT","Wick","yes","EGPC","WIC","","http://www.hial.co.uk/wick-airport.html","http://en.wikipedia.org/wiki/Wick_Airport",""
2459,"EGPD","large_airport","Aberdeen Dyce Airport",57.2019,-2.19778,215,"EU","GB","GB-SCT","Aberdeen","yes","EGPD","ABZ","","http://www.aberdeenairport.com/","http://en.wikipedia.org/wiki/Aberdeen_Airport",""
2460,"EGPE","medium_airport","Inverness Airport",57.5425,-4.0475,31,"EU","GB","GB-SCT","Inverness","yes","EGPE","INV","","http://www.hial.co.uk/inverness-airport.html","http://en.wikipedia.org/wiki/Inverness_Airport",""
2461,"EGPF","large_airport","Glasgow International Airport",55.8719,-4.43306,26,"EU","GB","GB-SCT","Glasgow","yes","EGPF","GLA","","http://www.glasgowairport.com/","http://en.wikipedia.org/wiki/Glasgow_International_Airport","Port-adhair Eadar-nàiseanta Ghlaschu, RAF Abbotsinch, RAF Ayr"
2462,"EGPH","large_airport","Edinburgh Airport",55.95,-3.3725,135,"EU","GB","GB-SCT","Edinburgh","yes","EGPH","EDI","","http://www.edinburghairport.com/","http://en.wikipedia.org/wiki/Edinburgh_Airport",""
2463,"EGPI","medium_airport","Islay Airport",55.6819,-6.25667,56,"EU","GB","GB-SCT","Port Ellen","yes","EGPI","ILY","","","http://en.wikipedia.org/wiki/Islay_Airport","Glenegedale"
2464,"EGPK","medium_airport","Glasgow Prestwick Airport",55.5094,-4.58667,65,"EU","GB","GB-SCT","Glasgow","yes","EGPK","PIK","","http://www.glasgowprestwick.com/","http://en.wikipedia.org/wiki/Glasgow_Prestwick_International_Airport",""
2465,"EGPL","medium_airport","Benbecula Airport",57.4811,-7.36278,19,"EU","GB","GB-SCT","Balivanich","yes","EGPL","BEB","","http://www.hial.co.uk/benbecula-airport.html","http://en.wikipedia.org/wiki/Benbecula_Airport",""
2466,"EGPM","medium_airport","Scatsta Airport",60.4328,-1.29611,81,"EU","GB","GB-SCT","Shetland Islands","no","EGPM","SCS","","","http://en.wikipedia.org/wiki/Scatsta_Airport",""
2467,"EGPN","medium_airport","Dundee Airport",56.4525,-3.02583,17,"EU","GB","GB-SCT","Dundee","yes","EGPN","DND","","http://www.hial.co.uk/dundee-airport.html","http://en.wikipedia.org/wiki/Dundee_Airport",""
2468,"EGPO","medium_airport","Stornoway Airport",58.2156,-6.33111,26,"EU","GB","GB-SCT","Stornoway","yes","EGPO","SYY","","http://www.hial.co.uk/stornoway-airport.html","http://en.wikipedia.org/wiki/Stornoway_Airport","Lewis"
2469,"EGPU","medium_airport","Tiree Airport",56.4992,-6.86917,38,"EU","GB","GB-SCT","Balemartine","yes","EGPU","TRE","","http://www.hial.co.uk/tiree-airport.html","http://en.wikipedia.org/wiki/Tiree_Airport","Inner Hebrides"
2470,"EGQK","medium_airport","RAF Kinloss",57.6494,-3.56064,22,"EU","GB","GB-SCT","Kinloss","no","EGQK","FSS","","","http://en.wikipedia.org/wiki/RAF_Kinloss",""
2471,"EGQL","medium_airport","RAF Leuchars",56.3729,-2.86844,38,"EU","GB","GB-SCT","St. Andrews","no","EGQL","ADX","","","http://en.wikipedia.org/wiki/RAF_Leuchars",""
2472,"EGQS","medium_airport","RAF Lossiemouth",57.7052,-3.33917,42,"EU","GB","GB-SCT","Lossiemouth","no","EGQS","LMO","","http://www.raf.mod.uk/raflossiemouth/","http://en.wikipedia.org/wiki/RAF_Lossiemouth",""
2473,"EGSC","medium_airport","Cambridge Airport",52.205,0.175,47,"EU","GB","GB-ENG","Cambridge","no","EGSC","CBG","","http://www.cambridgeairport.com/","http://en.wikipedia.org/wiki/Cambridge_Airport","Cambridge City,Cambridge"
2475,"EGSH","large_airport","Norwich International Airport",52.6758,1.28278,117,"EU","GB","GB-ENG","Norwich","yes","EGSH","NWI","","http://www.norwichairport.co.uk/","http://en.wikipedia.org/wiki/Norwich_International_Airport","RAF Horsham St Faith"
2476,"EGSS","large_airport","London Stansted Airport",51.885,0.235,348,"EU","GB","GB-ENG","London","yes","EGSS","STN","","http://www.stanstedairport.com/","http://en.wikipedia.org/wiki/London_Stansted_Airport","LON"
2481,"EGTE","large_airport","Exeter International Airport",50.7344,-3.41389,102,"EU","GB","GB-ENG","Exeter","yes","EGTE","EXT","","http://www.exeter-airport.co.uk/","http://en.wikipedia.org/wiki/Exeter_International_Airport",""
2483,"EGTK","medium_airport","Oxford (Kidlington) Airport",51.8369,-1.32,270,"EU","GB","GB-ENG","Kidlington","no","EGTK","OXF","","http://www.oxfordairport.co.uk/","http://en.wikipedia.org/wiki/Oxford_Airport","RAF Kidlington"
2486,"EGUB","medium_airport","RAF Benson",51.6164,-1.09583,226,"EU","GB","GB-ENG","Benson","no","EGUB","BEX","","","http://en.wikipedia.org/wiki/RAF_Benson",""
2487,"EGUL","large_airport","RAF Lakenheath",52.4093,0.561,32,"EU","GB","GB-ENG","Lakenheath","no","EGUL","LKZ","","http://www.lakenheath.af.mil/","http://en.wikipedia.org/wiki/RAF_Lakenheath",""
2488,"EGUN","large_airport","RAF Mildenhall",52.3619,0.486406,33,"EU","GB","GB-ENG","Mildenhall","no","EGUN","MHZ","","http://www.mildenhall.af.mil/","http://en.wikipedia.org/wiki/RAF_Mildenhall",""
2491,"EGUY","medium_airport","RAF Wyton",52.3572,-0.107833,135,"EU","GB","GB-ENG","St. Ives","no","EGUY","QUY","","","http://en.wikipedia.org/wiki/RAF_Wyton",""
2492,"EGVA","large_airport","RAF Fairford",51.6822,-1.79003,286,"EU","GB","GB-ENG","Fairford","no","EGVA","FFD","","","http://en.wikipedia.org/wiki/RAF_Fairford",""
2493,"EGVN","large_airport","RAF Brize Norton",51.75,-1.58362,288,"EU","GB","GB-ENG","Brize Norton","yes","EGVN","BZZ","","http://www.raf.mod.uk/rafbrizenorton/passengers/","http://en.wikipedia.org/wiki/RAF_Brize_Norton","Royal Air Force"
2494,"EGVO","medium_airport","RAF Odiham",51.2341,-0.942825,405,"EU","GB","GB-ENG","Odiham","no","EGVO","ODH","","","http://en.wikipedia.org/wiki/RAF_Odiham",""
2496,"EGWU","medium_airport","RAF Northolt",51.553,-0.418167,124,"EU","GB","GB-ENG","London","no","EGWU","NHT","","http://www.raf.mod.uk/rafnortholt/","http://en.wikipedia.org/wiki/RAF_Northolt",""
2497,"EGXC","medium_airport","RAF Coningsby",53.093,-0.166014,25,"EU","GB","GB-ENG","Coningsby","no","EGXC","QCY","","http://www.raf.mod.uk/rafconingsby","http://en.wikipedia.org/wiki/RAF_Coningsby",""
2501,"EGXH","medium_airport","RAF Honington",52.3426,0.772939,174,"EU","GB","GB-ENG","Thetford","no","EGXH","BEQ","","","http://en.wikipedia.org/wiki/RAF_Honington",""
2503,"EGXP","medium_airport","RAF Scampton",53.3078,-0.550833,202,"EU","GB","GB-ENG","Scampton","no","EGXP","SQZ","","","http://en.wikipedia.org/wiki/RAF_Scampton",""
2505,"EGXU","medium_airport","RAF Linton-On-Ouse",54.0489,-1.25275,53,"EU","GB","GB-ENG","Linton-On-Ouse","no","EGXU","HRT","","","http://en.wikipedia.org/wiki/RAF_Linton-on-Ouse",""
2506,"EGXW","medium_airport","RAF Waddington",53.1662,-0.523811,231,"EU","GB","GB-ENG","Waddington","no","EGXW","WTN","","http://www.raf.mod.uk/rafwaddington","http://en.wikipedia.org/wiki/RAF_Waddington",""
2511,"EGYM","medium_airport","RAF Marham",52.6484,0.550692,75,"EU","GB","GB-ENG","Marham","no","EGYM","KNF","","http://www.raf.mod.uk/rafmarham/","http://en.wikipedia.org/wiki/RAF_Marham","King's Lynn"
2512,"EGYP","medium_airport","Mount Pleasant Airport",-51.8228,-58.4472,244,"SA","FK","FK-U-A","Mount Pleasant","yes","EGYP","MPN","","","http://en.wikipedia.org/wiki/RAF_Mount_Pleasant","RAF Mount Pleasant"
2513,"EHAM","large_airport","Amsterdam Airport Schiphol",52.3086,4.76389,-11,"EU","NL","NL-NH","Amsterdam","yes","EHAM","AMS","","http://www.schiphol.nl/","http://en.wikipedia.org/wiki/Amsterdam_Schiphol_Airport",""
2515,"EHBK","large_airport","Maastricht Aachen Airport",50.9117,5.77014,375,"EU","NL","NL-LI","Maastricht","yes","EHBK","MST","","","http://en.wikipedia.org/wiki/Maastricht_Aachen_Airport",""
2518,"EHEH","large_airport","Eindhoven Airport",51.4501,5.37453,74,"EU","NL","NL-NB","Eindhoven","yes","EHEH","EIN","","http://www.eindhovenairport.nl/","http://en.wikipedia.org/wiki/Eindhoven_Airport","Welschap Airport"
2519,"EHGG","medium_airport","Eelde Airport",53.1197,6.57944,17,"EU","NL","NL-DR","Groningen","yes","EHGG","GRQ","","","http://en.wikipedia.org/wiki/Groningen_Airport_Eelde",""
2521,"EHKD","medium_airport","De Kooy Airport",52.9234,4.78062,3,"EU","NL","NL-NH","Den Helder","no","EHKD","DHR","","","http://en.wikipedia.org/wiki/De_Kooy",""
2522,"EHLE","medium_airport","Lelystad Airport",52.4603,5.52722,-13,"EU","NL","NL-FL","Lelystad","no","EHLE","LEY","","https://www.lelystadairport.nl/","http://en.wikipedia.org/wiki/Lelystad_Airport",""
2524,"EHRD","medium_airport","Rotterdam The Hague Airport",51.9569,4.43722,-15,"EU","NL","NL-ZH","Rotterdam","yes","EHRD","RTM","","","http://en.wikipedia.org/wiki/Rotterdam_Airport",""
2526,"EHTW","medium_airport","Twente Airport",52.2758,6.88917,114,"EU","NL","NL-OV","Enschede","no","EHTW","ENS","","https://www.twente-airport.nl/","http://en.wikipedia.org/wiki/Enschede_Airport_Twente",""
2530,"EICK","large_airport","Cork Airport",51.8413,-8.49111,502,"EU","IE","IE-C","Cork","yes","EICK","ORK","","http://www.corkairport.com/","http://en.wikipedia.org/wiki/Cork_Airport","Aerfort Chorcaí"
2531,"EICM","medium_airport","Galway Airport",53.3002,-8.94159,81,"EU","IE","IE-G","Galway","yes","EICM","GWY","","http://www.galwayairport.com/","http://en.wikipedia.org/wiki/Galway_Airport",""
2532,"EIDL","medium_airport","Donegal Airport",55.0442,-8.341,30,"EU","IE","IE-DL","Donegal","yes","EIDL","CFN","","http://www.donegalairport.ie/","http://en.wikipedia.org/wiki/Donegal_Airport","Gweedore"
2533,"EIDW","large_airport","Dublin Airport",53.4213,-6.27007,242,"EU","IE","IE-D","Dublin","yes","EIDW","DUB","","http://www.dublinairport.com/","http://en.wikipedia.org/wiki/Dublin_Airport","Aerfort Bhaile Átha Cliath"
2534,"EIKN","medium_airport","Ireland West Knock Airport",53.9103,-8.81849,665,"EU","IE","IE-MO","Charleston","yes","EIKN","NOC","","http://www.irelandwestairport.com/","http://en.wikipedia.org/wiki/Ireland_West_Airport_Knock","Connaught"
2535,"EIKY","medium_airport","Kerry Airport",52.1809,-9.52378,112,"EU","IE","IE-KY","Killarney","yes","EIKY","KIR","","http://www.kerryairport.ie/","http://en.wikipedia.org/wiki/Kerry_Airport",""
2537,"EINN","large_airport","Shannon Airport",52.702,-8.92482,46,"EU","IE","IE-CE","Limerick","yes","EINN","SNN","","http://www.shannonairport.com/","http://en.wikipedia.org/wiki/Shannon_Airport",""
2538,"EISG","medium_airport","Sligo Airport",54.2802,-8.59921,11,"EU","IE","IE-SO","Sligo","no","EISG","SXL","","http://www.sligoairport.com/","http://en.wikipedia.org/wiki/Sligo_Airport",""
2539,"EIWF","medium_airport","Waterford Airport",52.1872,-7.08696,119,"EU","IE","IE-WD","Waterford","yes","EIWF","WAT","","http://flywaterford.com/","http://en.wikipedia.org/wiki/Waterford_Airport",""
2540,"EKAH","medium_airport","Aarhus Airport",56.3,10.619,82,"EU","DK","DK-82","Aarhus","yes","EKAH","AAR","","http://www.aar.dk/default.asp?id=87","http://en.wikipedia.org/wiki/Aarhus_Airport",""
2541,"EKBI","large_airport","Billund Airport",55.7403,9.15178,247,"EU","DK","DK-83","Billund","yes","EKBI","BLL","","http://www.billund-airport.dk/?sc_lang=en","http://en.wikipedia.org/wiki/Billund_Airport",""
2542,"EKCH","large_airport","Copenhagen Kastrup Airport",55.6179,12.656,17,"EU","DK","DK-84","Copenhagen","yes","EKCH","CPH","","http://www.cph.dk/en/","http://en.wikipedia.org/wiki/Copenhagen_Airport","København, Malmö"
2543,"EKEB","medium_airport","Esbjerg Airport",55.5259,8.5534,97,"EU","DK","DK-83","Esbjerg","yes","EKEB","EBJ","","http://www.esbjerg-lufthavn.dk/en/","http://en.wikipedia.org/wiki/Esbjerg_Airport","offshore, North Sea"
2546,"EKKA","medium_airport","Karup Airport",56.2975,9.12463,170,"EU","DK","DK-82","Karup","yes","EKKA","KRP","","","http://en.wikipedia.org/wiki/Karup_Airport",""
2548,"EKMB","medium_airport","Lolland Falster Maribo Airport",54.6993,11.4401,16,"EU","DK","DK-85","Lolland Falster / Maribo","no","EKMB","MRW","","","https://en.wikipedia.org/wiki/Lolland_Falster_Airport",""
2549,"EKOD","medium_airport","Odense Airport",55.4767,10.3309,56,"EU","DK","DK-83","Odense","yes","EKOD","ODE","","","http://en.wikipedia.org/wiki/Odense_Airport",""
2551,"EKRK","medium_airport","Copenhagen Roskilde Airport",55.5856,12.1314,146,"EU","DK","DK-85","Copenhagen","no","EKRK","RKE","","","http://en.wikipedia.org/wiki/Roskilde_Airport","København"
2552,"EKRN","medium_airport","Bornholm Airport",55.0633,14.7596,52,"EU","DK","DK-84","Rønne","yes","EKRN","RNN","","http://www.bornholms-lufthavn.dk/en/","http://en.wikipedia.org/wiki/Bornholm_Airport","Roenne"
2553,"EKSB","medium_airport","Sønderborg Airport",54.9644,9.79173,24,"EU","DK","DK-83","Sønderborg","yes","EKSB","SGD","","","http://en.wikipedia.org/wiki/S%C3%B8nderborg_Airport","Sonderborg, Soenderborg"
2554,"EKSN","medium_airport","Sindal Airport",57.5035,10.2294,92,"EU","DK","DK-81","Sindal","yes","EKSN","CNL","","http://www.eksn.dk/","",""
2556,"EKSV","medium_airport","Skive Airport",56.5502,9.17298,74,"EU","DK","DK-82","Skive","no","EKSV","SQW","","","",""
2557,"EKTS","medium_airport","Thisted Airport",57.0688,8.70522,23,"EU","DK","DK-81","Thisted","no","EKTS","TED","","","http://en.wikipedia.org/wiki/Thisted_Airport",""
2559,"EKVG","medium_airport","Vagar Airport",62.0636,-7.27722,280,"EU","FO","FO-U-A","Vagar","yes","EKVG","FAE","","http://www.floghavn.fo/","http://en.wikipedia.org/wiki/V%C3%A1gar_Airport","Faroes"
2561,"EKVJ","medium_airport","Stauning Airport",55.9901,8.35391,17,"EU","DK","DK-82","Skjern / Ringkøbing","no","EKVJ","STA","","","",""
2562,"EKYT","large_airport","Aalborg Airport",57.0928,9.84924,10,"EU","DK","DK-81","Aalborg","yes","EKYT","AAL","","http://www.aal.dk","http://en.wikipedia.org/wiki/Aalborg_Airport",""
2563,"ELLX","large_airport","Luxembourg-Findel International Airport",49.6233,6.20444,1234,"EU","LU","LU-L","Luxembourg","yes","ELLX","LUX","","http://www.lux-airport.lu/en/","http://en.wikipedia.org/wiki/Luxembourg-Findel_International_Airport",""
2564,"ENAL","medium_airport","Ålesund Airport",62.5625,6.1197,69,"EU","NO","NO-15","Ålesund","yes","ENAL","AES","","http://www.avinor.no/lufthavn/alesund","http://en.wikipedia.org/wiki/%C3%85lesund_Airport%2C_Vigra","Vigra"
2565,"ENAN","medium_airport","Andøya Airport",69.2925,16.1442,43,"EU","NO","NO-18","Andenes","yes","ENAN","ANX","","https://avinor.no/en/airport/andoya-airport/","http://en.wikipedia.org/wiki/And%C3%B8ya_Airport%2C_Andenes",""
2566,"ENAT","medium_airport","Alta Airport",69.9761,23.3717,9,"EU","NO","NO-20","Alta","yes","ENAT","ALF","","https://avinor.no/en/airport/alta-airport/","http://en.wikipedia.org/wiki/Alta_Airport",""
2568,"ENBN","medium_airport","Brønnøysund Airport",65.4611,12.2175,25,"EU","NO","NO-18","Brønnøy","yes","ENBN","BNN","","https://avinor.no/en/airport/bronnoysund-airport/","http://en.wikipedia.org/wiki/Br%C3%B8nn%C3%B8ysund_Airport%2C_Br%C3%B8nn%C3%B8y","Bronnoy"
2569,"ENBO","large_airport","Bodø Airport",67.2692,14.3653,42,"EU","NO","NO-18","Bodø","yes","ENBO","BOO","","http://www.avinor.no/en/airport/bodo/frontpage","http://en.wikipedia.org/wiki/Bod%C3%B8_Airport","Bodø Air Force Base, Bodø Main Air Station"
2570,"ENBR","large_airport","Bergen Airport Flesland",60.2934,5.21814,170,"EU","NO","NO-12","Bergen","yes","ENBR","BGO","","http://www.avinor.no/en/airport/bergen","http://en.wikipedia.org/wiki/Bergen_Airport%2C_Flesland",""
2571,"ENBS","medium_airport","Båtsfjord Airport",70.6005,29.6914,490,"EU","NO","NO-20","Båtsfjord","yes","ENBS","BJF","","https://avinor.no/en/airport/batsfjord-airport/","http://en.wikipedia.org/wiki/B%C3%A5tsfjord_Airport",""
2572,"ENCN","medium_airport","Kristiansand Airport",58.2042,8.08537,57,"EU","NO","NO-10","Kjevik","yes","ENCN","KRS","","http://www.avinor.no/en/airport/kristiansand","http://en.wikipedia.org/wiki/Kristiansand_Airport%2C_Kjevik",""
2574,"ENDU","medium_airport","Bardufoss Airport",69.0558,18.5404,252,"EU","NO","NO-19","Målselv","yes","ENDU","BDU","","https://avinor.no/en/airport/bardufoss-airport/","http://en.wikipedia.org/wiki/Bardufoss_Airport",""
2575,"ENEV","medium_airport","Harstad/Narvik Airport, Evenes",68.4913,16.6781,84,"EU","NO","NO-18","Evenes","yes","ENEV","EVE","","https://avinor.no/en/airport/harstadnarvik-airport/","http://en.wikipedia.org/wiki/Harstad/Narvik_Airport%2C_Evenes","Harstad/Narvik lufthavn, Evenes"
2576,"ENFG","medium_airport","Leirin Airport",61.0156,9.28806,2697,"EU","NO","NO-05","","yes","ENFG","VDB","","https://avinor.no/en/airport/fagernes-airport/","http://en.wikipedia.org/wiki/Fagernes_Airport%2C_Leirin",""
2577,"ENFL","medium_airport","Florø Airport",61.5836,5.02472,37,"EU","NO","NO-14","Florø","yes","ENFL","FRO","","https://avinor.no/en/airport/floro-airport/","http://en.wikipedia.org/wiki/Flor%C3%B8_Airport","Floro"
2578,"ENGM","large_airport","Oslo Gardermoen Airport",60.1939,11.1004,681,"EU","NO","NO-02","Oslo","yes","ENGM","OSL","","https://avinor.no/en/airport/oslo-airport","https://en.wikipedia.org/wiki/Oslo_Airport,_Gardermoen",""
2579,"ENHD","medium_airport","Haugesund Airport",59.3453,5.20836,86,"EU","NO","NO-11","Karmøy","yes","ENHD","HAU","","https://avinor.no/en/airport/haugesund-airport/","http://en.wikipedia.org/wiki/Haugesund_Airport%2C_Karm%C3%B8y","Karmoy"
2581,"ENKB","medium_airport","Kristiansund Airport (Kvernberget)",63.1118,7.82452,204,"EU","NO","NO-15","Kvernberget","yes","ENKB","KSU","","https://avinor.no/en/airport/kristiansund-airport/","http://en.wikipedia.org/wiki/Kristiansund_Airport%2C_Kvernberget","Kristiansund lufthavn, Kvernberget"
2583,"ENKR","medium_airport","Kirkenes Airport (Høybuktmoen)",69.7258,29.8913,283,"EU","NO","NO-20","Kirkenes","yes","ENKR","KKN","","https://avinor.no/en/airport/kirkenes-airport/","http://en.wikipedia.org/wiki/Kirkenes_Airport%2C_H%C3%B8ybuktmoen",""
2585,"ENML","medium_airport","Molde Airport",62.7447,7.2625,10,"EU","NO","NO-15","Årø","yes","ENML","MOL","","https://avinor.no/en/airport/molde-airport/","http://en.wikipedia.org/wiki/Molde_Airport%2C_%C3%85r%C3%B8","Aro"
2586,"ENMS","medium_airport","Mosjøen Airport (Kjærstad)",65.784,13.2149,237,"EU","NO","NO-18","","yes","ENMS","MJF","","https://avinor.no/en/airport/mosjoen-airport/","http://en.wikipedia.org/wiki/Mosj%C3%B8en_Airport%2C_Kj%C3%A6rstad",""
2587,"ENNA","medium_airport","Banak Airport",70.0688,24.9735,25,"EU","NO","NO-20","Lakselv","yes","ENNA","LKL","","https://avinor.no/en/airport/lakselv-airport/","http://en.wikipedia.org/wiki/Lakselv_Airport%2C_Banak","North Cape Airport"
2588,"ENNO","medium_airport","Notodden Airport",59.5657,9.21222,63,"EU","NO","NO-08","Notodden","yes","ENNO","NTB","","http://www.notodden-flyplass.no/","http://en.wikipedia.org/wiki/Notodden_Airport%2C_Tuven",""
2589,"ENOL","medium_airport","Ørland Airport",63.6989,9.604,28,"EU","NO","NO-16","Ørland","yes","ENOL","OLA","","","http://en.wikipedia.org/wiki/Brekstad_Airport%2C_%C3%98rland","Orland"
2591,"ENRO","medium_airport","Røros Airport",62.5784,11.3423,2054,"EU","NO","NO-16","Røros","yes","ENRO","RRS","","https://avinor.no/en/airport/roros-airport/","http://en.wikipedia.org/wiki/R%C3%B8ros_Airport","Roros"
2592,"ENRY","medium_airport","Moss-Rygge Airport",59.3788,10.7854,174,"EU","NO","NO-01","Oslo","yes","ENRY","RYG","","http://www.en.ryg.no/","http://en.wikipedia.org/wiki/Moss_Airport%2C_Rygge","Moss lufthavn Rygge, Rygge Air Station"
2593,"ENSB","medium_airport","Svalbard Airport, Longyear",78.2461,15.4656,88,"EU","NO","NO-21","Longyearbyen","yes","ENSB","LYR","","https://avinor.no/en/airport/svalbard-airport/","http://en.wikipedia.org/wiki/Svalbard_Airport%2C_Longyear",""
2594,"ENSN","medium_airport","Skien Airport",59.185,9.56694,463,"EU","NO","NO-08","Geiteryggen","no","ENSN","SKE","","","http://en.wikipedia.org/wiki/Skien_Airport%2C_Geiteryggen",""
2595,"ENSO","medium_airport","Stord Airport",59.7919,5.34085,160,"EU","NO","NO-12","Leirvik","yes","ENSO","SRP","","","http://en.wikipedia.org/wiki/Stord_Airport%2C_S%C3%B8rstokken","Sorstokken, Sørstokken"
2596,"ENSR","medium_airport","Sørkjosen Airport",69.7868,20.9594,16,"EU","NO","NO-19","Sørkjosen","yes","ENSR","SOJ","","https://avinor.no/en/airport/sorkjosen-airport/","http://en.wikipedia.org/wiki/S%C3%B8rkjosen_Airport",""
2597,"ENSS","medium_airport","Vardø Airport, Svartnes",70.3554,31.0449,42,"EU","NO","NO-20","Vardø","yes","ENSS","VAW","","https://avinor.no/en/airport/vardo-airport/","http://en.wikipedia.org/wiki/Vard%C3%B8_Airport%2C_Svartnes",""
2598,"ENST","medium_airport","Sandnessjøen Airport (Stokka)",65.9568,12.4689,56,"EU","NO","NO-18","Alstahaug","yes","ENST","SSJ","","https://avinor.no/en/airport/sandnessjoen-airport/","http://en.wikipedia.org/wiki/Sandnessj%C3%B8en_Airport%2C_Stokka",""
2599,"ENTC","large_airport","Tromsø Airport",69.6833,18.9189,31,"EU","NO","NO-19","Tromsø","yes","ENTC","TOS","","http://www.avinor.no/en/airport/tromso","http://en.wikipedia.org/wiki/Troms%C3%B8_Airport","Langnes, Tromsøya, Tromso"
2600,"ENTO","medium_airport","Sandefjord Airport, Torp",59.1867,10.2586,286,"EU","NO","NO-07","Torp","yes","ENTO","TRF","","","http://en.wikipedia.org/wiki/Sandefjord_Airport%2C_Torp",""
2601,"ENVA","large_airport","Trondheim Airport Værnes",63.4578,10.924,56,"EU","NO","NO-17","Trondheim","yes","ENVA","TRD","","https://avinor.no/en/airport/trondheim-airport/","http://en.wikipedia.org/wiki/Trondheim_Airport%2C_V%C3%A6rnes",""
2602,"ENZV","large_airport","Stavanger Airport Sola",58.8767,5.63778,29,"EU","NO","NO-11","Stavanger","yes","ENZV","SVG","","http://www.avinor.no/en/airport/stavanger/","http://en.wikipedia.org/wiki/Stavanger_Airport,_Sola","Sola Air Station, Stavanger lufthavn, Sola"
2604,"EPBY","medium_airport","Bydgoszcz Ignacy Jan Paderewski Airport",53.0968,17.9777,235,"EU","PL","PL-KP","Bydgoszcz","yes","EPBY","BZG","","http://www.plb.pl/","http://en.wikipedia.org/wiki/Bydgoszcz_Ignacy_Jan_Paderewski_Airport","Szwederowo, Bromberg"
2608,"EPGD","large_airport","Gdańsk Lech Wałęsa Airport",54.3776,18.4662,489,"EU","PL","PL-PM","Gdańsk","yes","EPGD","GDN","","http://www.airport.gdansk.pl/","http://en.wikipedia.org/wiki/Gda%C5%84sk_Lech_Wa%C5%82%C4%99sa_Airport","Gdańsk-Rębiechowo"
2609,"EPKK","large_airport","John Paul II International Airport Kraków-Balice Airport",50.0777,19.7848,791,"EU","PL","PL-MA","Kraków","yes","EPKK","KRK","","http://lotnisko-balice.pl/en.html","http://en.wikipedia.org/wiki/John_Paul_II_International_Airport_Krak%C3%B3w-Balice","Krakov"
2613,"EPKT","large_airport","Katowice International Airport",50.4743,19.08,995,"EU","PL","PL-SL","Katowice","yes","EPKT","KTW","","http://katowice.airport.com","http://en.wikipedia.org/wiki/Katowice_International_Airport","Pyrzowice, Dąbrowa Górnicza, Katowice, Silesia, GOP, Silesia Metropolis, Gliwice, Piekary Śląskie, Bytom, Zabrze, Sosnowiec"
2616,"EPLL","medium_airport","Łódź Władysław Reymont Airport",51.7219,19.3981,604,"EU","PL","PL-LD","Łódź","yes","EPLL","LCJ","","","http://en.wikipedia.org/wiki/%C5%81%C3%B3d%C5%BA_W%C5%82adys%C5%82aw_Reymont_Airport","Lublinek"
2622,"EPMO","large_airport","Modlin Airport",52.4511,20.6518,341,"EU","PL","PL-MZ","Warsaw","yes","EPMO","WMI","","http://modlinairport.pl/","http://en.wikipedia.org/wiki/Warsaw%E2%80%93Modlin_Mazovia_Airport","Nowy Dwor Mazowiecki"
2625,"EPPO","large_airport","Poznań-Ławica Airport",52.421,16.8263,308,"EU","PL","PL-WP","Poznań","yes","EPPO","POZ","","http://www.airport-poznan.com.pl/en/","http://en.wikipedia.org/wiki/Pozna%C5%84-%C5%81awica_Airport",""
2628,"EPRA","medium_airport","Radom Airport",51.3892,21.2133,610,"EU","PL","PL-MZ","Radom","yes","EPRA","RDO","","http://lotnisko-radom.eu/pl/","https://en.wikipedia.org/wiki/Radom_Airport","Radom Military Air Base, Radom-Sadków Airport"
2629,"EPRZ","medium_airport","Rzeszów-Jasionka Airport",50.11,22.019,675,"EU","PL","PL-PK","Rzeszów","yes","EPRZ","RZE","","http://www.lotnisko-rzeszow.pl/?lang=en","http://en.wikipedia.org/wiki/Rzesz%C3%B3w-Jasionka_Airport",""
2630,"EPSC","medium_airport","Szczecin-Goleniów \"Solidarność\" Airport",53.5847,14.9022,154,"EU","PL","PL-ZP","Goleniow","yes","EPSC","SZZ","","http://www.airport.com.pl/en/index.php","http://en.wikipedia.org/wiki/Szczecin-Goleni%C3%B3w_%22Solidarno%C5%9B%C4%87%22_Airport",""
2635,"EPSY","medium_airport","Olsztyn-Mazury Airport",53.4819,20.9377,463,"EU","PL","PL-WN","Olsztyn","yes","EPSY","SZY","","http://mazuryairport.pl/","https://en.wikipedia.org/wiki/Olsztyn-Mazury_Airport",""
2637,"EPWA","large_airport","Warsaw Chopin Airport",52.1657,20.9671,362,"EU","PL","PL-MZ","Warsaw","yes","EPWA","WAW","","http://www.lotnisko-chopina.pl/?lang=en","http://en.wikipedia.org/wiki/Warsaw_Frederic_Chopin_Airport","Okęcie"
2638,"EPWR","large_airport","Copernicus Wrocław Airport",51.1027,16.8858,404,"EU","PL","PL-DS","Wrocław","yes","EPWR","WRO","","http://www.airport.wroclaw.pl/en/index.php","http://en.wikipedia.org/wiki/Copernicus_Airport_Wroc%C5%82aw","Strachowice, Breslau"
2639,"EPZG","medium_airport","Zielona Góra-Babimost Airport",52.1385,15.7986,194,"EU","PL","PL-LB","Babimost","yes","EPZG","IEG","","http://www.lotnisko.zielonagora.pl/","http://en.wikipedia.org/wiki/Zielona_G%C3%B3ra_Airport",""
2646,"ESDF","medium_airport","Ronneby Airport",56.2667,15.265,191,"EU","SE","SE-K","","yes","ESDF","RNB","","https://www.swedavia.com/ronneby/","http://en.wikipedia.org/wiki/Ronneby_Airport",""
2648,"ESGG","large_airport","Gothenburg-Landvetter Airport",57.6628,12.2798,506,"EU","SE","SE-Q","Gothenburg","yes","ESGG","GOT","","https://www.swedavia.com/landvetter/","http://en.wikipedia.org/wiki/Gothenburg-Landvetter_Airport","Göteborg-Landvetter"
2649,"ESGJ","medium_airport","Jönköping Airport",57.7576,14.0687,741,"EU","SE","SE-F","Jönköping","yes","ESGJ","JKG","","http://www.lfv.se/templates/LFV_AirportStartPage____1672.aspx","http://en.wikipedia.org/wiki/J%C3%B6nk%C3%B6ping_Airport",""
2652,"ESGP","medium_airport","Gothenburg City Airport",57.7747,11.8704,59,"EU","SE","SE-Q","Gothenburg","yes","ESGP","GSE","","http://www.goteborgairport.se/","http://en.wikipedia.org/wiki/Gothenburg_City_Airport","Säve Airport, Göteborg City Airport"
2653,"ESGR","medium_airport","Skövde Airport",58.4564,13.9727,324,"EU","SE","SE-Q","Skövde","no","ESGR","KVB","","","",""
2654,"ESGT","medium_airport","Trollhättan-Vänersborg Airport",58.3181,12.345,137,"EU","SE","SE-Q","Trollhättan","yes","ESGT","THN","","","http://en.wikipedia.org/wiki/Trollh%C3%A4ttan-V%C3%A4nersborg_Airport",""
2658,"ESKK","medium_airport","Karlskoga Airport",59.3459,14.4959,400,"EU","SE","SE-T","","no","ESKK","KSK","","","",""
2659,"ESKM","medium_airport","Mora Airport",60.9579,14.5114,634,"EU","SE","SE-W","Mora","yes","ESKM","MXX","","","http://en.wikipedia.org/wiki/Mora-Siljan_Airport",""
2660,"ESKN","medium_airport","Stockholm Skavsta Airport",58.7886,16.9122,140,"EU","SE","SE-D","Stockholm / Nyköping","yes","ESKN","NYO","","","http://en.wikipedia.org/wiki/Stockholm-Skavsta_Airport",""
2664,"ESMK","medium_airport","Kristianstad Airport",55.9217,14.0855,76,"EU","SE","SE-M","Kristianstad","yes","ESMK","KID","","","http://en.wikipedia.org/wiki/Kristianstad_Airport",""
2668,"ESMQ","medium_airport","Kalmar Airport",56.6855,16.2876,17,"EU","SE","SE-H","","yes","ESMQ","KLR","","","http://en.wikipedia.org/wiki/Kalmar_Airport",""
2669,"ESMS","large_airport","Malmö Sturup Airport",55.5363,13.3762,236,"EU","SE","SE-M","Malmö","yes","ESMS","MMX","","http://www.swedavia.com/malmo/","http://en.wikipedia.org/wiki/Malm%C3%B6_Airport",""
2670,"ESMT","medium_airport","Halmstad Airport",56.6911,12.8202,101,"EU","SE","SE-N","Halmstad","yes","ESMT","HAD","","","http://en.wikipedia.org/wiki/Halmstad_Airport",""
2672,"ESMX","medium_airport","Växjö Kronoberg Airport",56.9291,14.728,610,"EU","SE","SE-G","Växjö","yes","ESMX","VXO","","","http://en.wikipedia.org/wiki/V%C3%A4xj%C3%B6_Airport",""
2675,"ESND","medium_airport","Sveg Airport",62.0478,14.4229,1178,"EU","SE","SE-Z","","yes","ESND","EVG","","","http://en.wikipedia.org/wiki/Sveg_Airport",""
2676,"ESNG","medium_airport","Gällivare Airport",67.1324,20.8146,1027,"EU","SE","SE-BD","Gällivare","yes","ESNG","GEV","","","http://en.wikipedia.org/wiki/G%C3%A4llivare_Airport",""
2679,"ESNK","medium_airport","Kramfors Sollefteå Airport",63.0486,17.7689,34,"EU","SE","SE-Y","Kramfors / Sollefteå","yes","ESNK","KRF","","","http://en.wikipedia.org/wiki/Kramfors_Airport",""
2680,"ESNL","medium_airport","Lycksele Airport",64.5483,18.7162,705,"EU","SE","SE-AC","","yes","ESNL","LYC","","","http://en.wikipedia.org/wiki/Lycksele_Airport",""
2682,"ESNN","medium_airport","Sundsvall-Härnösand Airport",62.5281,17.4439,16,"EU","SE","SE-Y","Sundsvall/ Härnösand","yes","ESNN","SDL","","","http://en.wikipedia.org/wiki/Sundsvall-H%C3%A4rn%C3%B6sand_Airport",""
2683,"ESNO","medium_airport","Örnsköldsvik Airport",63.4083,18.99,354,"EU","SE","SE-Y","Örnsköldsvik","yes","ESNO","OER","","","http://en.wikipedia.org/wiki/%C3%96rnsk%C3%B6ldsvik_Airport",""
2685,"ESNQ","medium_airport","Kiruna Airport",67.822,20.3368,1508,"EU","SE","SE-BD","Kiruna","yes","ESNQ","KRN","","https://www.swedavia.com/kiruna/","http://en.wikipedia.org/wiki/Kiruna_Airport",""
2687,"ESNS","medium_airport","Skellefteå Airport",64.6248,21.0769,157,"EU","SE","SE-AC","Skellefteå","yes","ESNS","SFT","","","http://en.wikipedia.org/wiki/Skellefte%C3%A5_Airport",""
2689,"ESNU","medium_airport","Umeå Airport",63.7918,20.2828,24,"EU","SE","SE-AC","Umeå","yes","ESNU","UME","","https://www.swedavia.com/umea/","http://en.wikipedia.org/wiki/Ume%C3%A5_Airport",""
2690,"ESNV","medium_airport","Vilhelmina Airport",64.5791,16.8336,1140,"EU","SE","SE-AC","","yes","ESNV","VHM","","","http://en.wikipedia.org/wiki/Vilhelmina_Airport",""
2691,"ESNX","medium_airport","Arvidsjaur Airport",65.5903,19.2819,1245,"EU","SE","SE-BD","Arvidsjaur","yes","ESNX","AJR","","","http://en.wikipedia.org/wiki/Arvidsjaur_Airport",""
2692,"ESNY","medium_airport","Söderhamn Airport",61.2615,17.0991,88,"EU","SE","SE-X","Söderhamn","no","ESNY","SOO","","","",""
2693,"ESOE","medium_airport","Örebro Airport",59.2237,15.038,188,"EU","SE","SE-T","Örebro","yes","ESOE","ORB","","","http://en.wikipedia.org/wiki/%C3%96rebro_Airport",""
2694,"ESOH","medium_airport","Hagfors Airport",60.0201,13.5789,474,"EU","SE","SE-S","","yes","ESOH","HFS","","","http://en.wikipedia.org/wiki/Hagfors_Airport",""
2695,"ESOK","medium_airport","Karlstad Airport",59.4447,13.3374,352,"EU","SE","SE-S","Karlstad","yes","ESOK","KSD","","","http://en.wikipedia.org/wiki/Karlstad_Airport",""
2696,"ESOW","medium_airport","Stockholm Västerås Airport",59.5894,16.6336,21,"EU","SE","SE-U","Stockholm / Västerås","yes","ESOW","VST","","","http://en.wikipedia.org/wiki/Stockholm-V%C3%A4ster%C3%A5s_Airport",""
2697,"ESPA","large_airport","Luleå Airport",65.5438,22.122,65,"EU","SE","SE-BD","Luleå","yes","ESPA","LLA","","https://www.swedavia.com/lulea/","http://en.wikipedia.org/wiki/Lule%C3%A5_Airport","Kallax Air Base"
2701,"ESSA","large_airport","Stockholm-Arlanda Airport",59.6519,17.9186,137,"EU","SE","SE-AB","Stockholm","yes","ESSA","ARN","","http://www.swedavia.se/arlanda/","http://en.wikipedia.org/wiki/Stockholm-Arlanda_Airport",""
2702,"ESSB","medium_airport","Stockholm-Bromma Airport",59.3544,17.9417,47,"EU","SE","SE-AB","Stockholm","yes","ESSB","BMA","","","http://en.wikipedia.org/wiki/Stockholm-Bromma_Airport",""
2703,"ESSD","medium_airport","Borlange Airport",60.422,15.5152,503,"EU","SE","SE-W","","yes","ESSD","BLE","","","http://en.wikipedia.org/wiki/Borl%C3%A4nge_Airport",""
2705,"ESSK","medium_airport","Gävle Sandviken Airport",60.5933,16.9514,224,"EU","SE","SE-X","Gävle / Sandviken","no","ESSK","GVX","","","",""
2706,"ESSL","medium_airport","Linköping City Airport",58.4062,15.6805,172,"EU","SE","SE-E","Linköping","yes","ESSL","LPI","","http://www.linkopingsflygplats.se/","http://en.wikipedia.org/wiki/Link%C3%B6ping_SAAB_Airport",""
2707,"ESSP","medium_airport","Norrköping Airport",58.5863,16.2506,32,"EU","SE","SE-E","Norrköping","yes","ESSP","NRK","","","http://en.wikipedia.org/wiki/Norrk%C3%B6ping_Airport","Kungsangen"
2708,"ESST","medium_airport","Torsby Airport",60.1576,12.9913,393,"EU","SE","SE-S","","yes","ESST","TYF","","http://www.torsbyflygplats.se","http://en.wikipedia.org/wiki/Torsby_Airport",""
2709,"ESSU","medium_airport","Eskilstuna Airport",59.3511,16.7084,139,"EU","SE","SE-D","Eskilstuna","no","ESSU","EKT","","","",""
2710,"ESSV","medium_airport","Visby Airport",57.6628,18.3462,164,"EU","SE","SE-I","Visby","yes","ESSV","VBY","","https://www.swedavia.com/visby/","http://en.wikipedia.org/wiki/Visby_Airport",""
2711,"ESTA","medium_airport","Ängelholm-Helsingborg Airport",56.2961,12.8471,68,"EU","SE","SE-M","Ängelholm","yes","ESTA","AGH","","http://www.lfv.se/templates/LFV_AirportStartPage____4777.aspx","http://en.wikipedia.org/wiki/%C3%84ngelholm-Helsingborg_Airport","ESDB, Ängelholm Air Base"
2713,"ESUD","medium_airport","Storuman Airport",64.9609,17.6966,915,"EU","SE","SE-AC","","yes","ESUD","SQO","","","http://en.wikipedia.org/wiki/Storuman_Airport",""
2715,"ESUP","medium_airport","Pajala Airport",67.2456,23.0689,542,"EU","SE","SE-BD","","no","ESUP","PJA","","","http://en.wikipedia.org/wiki/Pajala_Airport",""
2716,"ESUT","medium_airport","Hemavan Airport",65.8061,15.0828,1503,"EU","SE","SE-AC","","yes","ESUT","HMV","","","http://en.wikipedia.org/wiki/Hemavan_Airport",""
2722,"ETHC","medium_airport","Celle Airport",52.5912,10.0221,129,"EU","DE","DE-NI","","no","ETHC","ZCN","","","",""
2724,"ETHF","medium_airport","Fritzlar Airport",51.1146,9.286,1345,"EU","DE","DE-HE","Fritzlar","no","ETHF","FRZ","","","",""
2739,"ETNL","medium_airport","Rostock-Laage Airport",53.9182,12.2783,138,"EU","DE","DE-MV","Rostock","yes","ETNL","RLG","","","http://en.wikipedia.org/wiki/Rostock-Laage_Airport",""
2743,"EDBN","medium_airport","Neubrandenburg Airport",53.6022,13.306,228,"EU","DE","DE-MV","Neubrandenburg","no","EDBN","FNB","","http://www.flughafen-neubrandenburg.de/","http://en.wikipedia.org/wiki/Neubrandenburg_Airport",""
2753,"ETSI","medium_airport","Ingolstadt Manching Airport",48.7157,11.534,1202,"EU","DE","DE-BY","Manching","no","ETSI","IGS","","","http://en.wikipedia.org/wiki/Ingolstadt_Manching_Airport",""
2757,"EVLA","medium_airport","Liepāja International Airport",56.5175,21.0969,16,"EU","LV","LV-LE","Liepāja","yes","EVLA","LPX","","http://www.liepaja-airport.lv/","http://en.wikipedia.org/wiki/Liep%C4%81ja_International_Airport",""
2758,"EVRA","large_airport","Riga International Airport",56.9236,23.9711,36,"EU","LV","LV-RIX","Riga","yes","EVRA","RIX","","http://www.riga-airport.com/","http://en.wikipedia.org/wiki/Riga_International_Airport",""
2759,"EVVA","medium_airport","Ventspils International Airport",57.3578,21.5442,19,"EU","LV","LV-VEN","Ventspils","yes","EVVA","VNT","","http://www.airport.ventspils.lv/","http://en.wikipedia.org/wiki/Ventspils_International_Airport",""
2760,"EYKA","medium_airport","Kaunas International Airport",54.9639,24.0848,256,"EU","LT","LT-KU","Kaunas","yes","EYKA","KUN","","http://www.kaunasair.lt/index.php?lang=2&m=2&p=210","http://en.wikipedia.org/wiki/Kaunas_Airport","Kauno tarptautinis Oro Uostas"
2762,"EYPA","medium_airport","Palanga International Airport",55.9732,21.0939,33,"EU","LT","LT-KL","Palanga","yes","EYPA","PLQ","","http://www.palanga-airport.lt/","http://en.wikipedia.org/wiki/Palanga_International_Airport",""
2764,"EYSA","medium_airport","Šiauliai International Airport",55.8939,23.395,443,"EU","LT","LT-SA","Šiauliai","no","EYSA","SQQ","","http://www.airport.siauliai.lt/","http://en.wikipedia.org/wiki/%C5%A0iauliai_International_Airport","Zokniai Airport, Zoknių oro uostas"
2765,"EYSB","medium_airport","Barysiai Airport",56.0706,23.5581,270,"EU","LT","LT-SA","Barysiai","no","EYSB","HLJ","","","",""
2766,"EYVI","large_airport","Vilnius International Airport",54.6341,25.2858,648,"EU","LT","LT-VL","Vilnius","yes","EYVI","VNO","","http://www.vilnius-airport.lt/en/","http://en.wikipedia.org/wiki/Vilnius_International_Airport",""
2767,"FAAB","medium_airport","Alexander Bay Airport",-28.575,16.5333,98,"AF","ZA","ZA-NC","Alexander Bay","no","FAAB","ALJ","","","http://en.wikipedia.org/wiki/Alexander_Bay_Airport","Kortdoorn"
2768,"FAAG","medium_airport","Aggeneys Airport",-29.2818,18.8139,2648,"AF","ZA","ZA-NC","Aggeneys","no","FAAG","AGZ","","","",""
2771,"FABE","medium_airport","Bisho Airport",-32.8971,27.2791,1950,"AF","ZA","ZA-EC","Bisho","no","FABE","BIY","","","",""
2772,"FABL","medium_airport","Bram Fischer International Airport",-29.0927,26.3024,4458,"AF","ZA","ZA-FS","Bloemfontain","yes","FABL","BFN","","","http://en.wikipedia.org/wiki/Bloemfontein_Airport",""
2775,"FACT","large_airport","Cape Town International Airport",-33.9648,18.6017,151,"AF","ZA","ZA-WC","Cape Town","yes","FACT","CPT","","http://www.airports.co.za/home.asp?pid=229","http://en.wikipedia.org/wiki/Cape_Town_International_Airport","Kaapstad Internasionale Lughawe, CTIA, DF Malan Airport"
2779,"FAEL","medium_airport","Ben Schoeman Airport",-33.0356,27.8259,435,"AF","ZA","ZA-EC","East London","yes","FAEL","ELS","","http://www.airports.co.za/home.asp?pid=415","http://en.wikipedia.org/wiki/East_London_Airport",""
2781,"FAFB","medium_airport","Ficksburg Sentraoes Airport",-28.8231,27.9089,5315,"AF","ZA","ZA-FS","Ficksburg","no","FAFB","FCB","","","",""
2782,"FAGC","medium_airport","Grand Central Airport",-25.9863,28.1401,5325,"AF","ZA","ZA-GT","Midrand","no","FAGC","GCJ","","","http://en.wikipedia.org/wiki/Grand_Central_Airport",""
2783,"FAGG","large_airport","George Airport",-34.0056,22.3789,648,"AF","ZA","ZA-WC","George","yes","FAGG","GRJ","","","http://en.wikipedia.org/wiki/George_Airport","PW Botha Airport"
2784,"FAGM","medium_airport","Rand Airport",-26.2425,28.1512,5483,"AF","ZA","ZA-GT","Johannesburg","yes","FAGM","QRA","","","http://en.wikipedia.org/wiki/Rand_Airport",""
2789,"FAHR","medium_airport","Harrismith Airport",-28.2351,29.1062,5585,"AF","ZA","ZA-FS","Harrismith","no","FAHR","HRS","","","",""
2792,"FAJS","large_airport","OR Tambo International Airport",-26.1392,28.246,5558,"AF","ZA","ZA-GT","Johannesburg","yes","FAOR","JNB","","http://www.acsa.co.za/home.asp?pid=228","http://en.wikipedia.org/wiki/OR_Tambo_International_Airport","Johannesburg International Airport"
2793,"FAKD","medium_airport","P C Pelser Airport",-26.8711,26.718,4444,"AF","ZA","ZA-NW","Klerksdorp","no","FAKD","KXE","","","",""
2794,"FAKM","medium_airport","Kimberley Airport",-28.8028,24.7652,3950,"AF","ZA","ZA-NC","Kimberley","yes","FAKM","KIM","","","http://en.wikipedia.org/wiki/Kimberley_Airport",""
2795,"FAKN","medium_airport","Kruger Mpumalanga International Airport",-25.3832,31.1056,2829,"AF","ZA","ZA-MP","Mpumalanga","yes","FAKN","MQP","","","http://en.wikipedia.org/wiki/Kruger_Mpumalanga_International_Airport",""
2798,"FAKU","medium_airport","Johan Pienaar Airport",-27.4567,23.4114,4382,"AF","ZA","ZA-NC","Kuruman","no","FAKU","KMH","","","http://en.wikipedia.org/wiki/Johan_Pienaar_Airport",""
2799,"FAKZ","medium_airport","Kleinsee Airport",-29.6884,17.094,270,"AF","ZA","ZA-NC","Kleinsee","no","FAKZ","KLZ","","","http://en.wikipedia.org/wiki/Kleinzee_Airport",""
2800,"FALA","medium_airport","Lanseria Airport",-25.9385,27.9261,4517,"AF","ZA","ZA-GT","Johannesburg","yes","FALA","HLA","","","http://en.wikipedia.org/wiki/Lanseria_Airport",""
2801,"FALC","medium_airport","Lime Acres Finsch Mine Airport",-28.3601,23.4391,4900,"AF","ZA","ZA-NC","Lime Acres","no","FALC","LMR","","","",""
2805,"FALW","medium_airport","Langebaanweg Airport",-32.9689,18.1603,108,"AF","ZA","ZA-WC","Langebaanweg","no","FALW","SDB","","","http://en.wikipedia.org/wiki/AFB_Langebaanweg",""
2806,"FALY","medium_airport","Ladysmith Airport",-28.5817,29.7497,3548,"AF","ZA","ZA-NL","Ladysmith","no","FALY","LAY","","","http://en.wikipedia.org/wiki/Ladysmith_Airport",""
2808,"FAMD","medium_airport","Malamala Airport",-24.8181,31.5446,1124,"AF","ZA","ZA-NP","Malamala","yes","FAMD","AAM","","","http://en.wikipedia.org/wiki/Mala_Mala_Airport",""
2809,"FAMG","medium_airport","Margate Airport",-30.8574,30.343,495,"AF","ZA","ZA-NL","Margate","yes","FAMG","MGH","","","http://en.wikipedia.org/wiki/Margate_Airport",""
2812,"FAMM","medium_airport","Mmabatho International Airport",-25.7984,25.548,4181,"AF","ZA","ZA-NW","Mafeking","yes","FAMM","MBD","","","http://en.wikipedia.org/wiki/Mmabatho_International_Airport","Mafikeng"
2813,"FAMN","medium_airport","Riverside Airport",-25.43,31.5767,1024,"AF","ZA","ZA-MP","Malelane","no","FAMN","LLE","","","",""
2815,"FAMU","medium_airport","Mkuze Airport",-27.6261,32.0443,400,"AF","ZA","ZA-NL","Mkuze","no","FAMU","MZQ","","","",""
2816,"FANC","medium_airport","Newcastle Airport",-27.7706,29.9769,4074,"AF","ZA","ZA-NL","Newcastle","no","FANC","NCS","","","http://en.wikipedia.org/wiki/Newcastle_Airport_(South_Africa)",""
2819,"FAOH","medium_airport","Oudtshoorn Airport",-33.607,22.189,1063,"AF","ZA","ZA-WC","Oudtshoorn","no","FAOH","OUH","FAOH","","",""
2820,"FAPE","medium_airport","Port Elizabeth Airport",-33.9849,25.6173,226,"AF","ZA","ZA-EC","Port Elizabeth","yes","FAPE","PLZ","","http://www.acsa.co.za/home.asp?pid=236","http://en.wikipedia.org/wiki/Port_Elizabeth_Airport","Verwoerd International Airport"
2821,"FAPG","medium_airport","Plettenberg Bay Airport",-34.0882,23.3287,465,"AF","ZA","ZA-WC","Plettenberg Bay","no","FAPG","PBZ","","","",""
2822,"FAPH","medium_airport","Hendrik Van Eck Airport",-23.9372,31.1554,1432,"AF","ZA","ZA-NP","Phalaborwa","yes","FAPH","PHW","","","http://en.wikipedia.org/wiki/Hendrik_Van_Eck_Airport",""
2824,"FAPJ","medium_airport","Port St Johns Airport",-31.6059,29.5198,1227,"AF","ZA","ZA-EC","Port St Johns","no","FAPJ","JOH","","","",""
2825,"FAPM","medium_airport","Pietermaritzburg Airport",-29.649,30.3987,2423,"AF","ZA","ZA-NL","Pietermaritzburg","yes","FAPM","PZB","","","http://en.wikipedia.org/wiki/Pietermaritzburg_Airport",""
2827,"FAPP","medium_airport","Polokwane International Airport",-23.8453,29.4586,4076,"AF","ZA","ZA-NP","Polokwane","yes","FAPP","PTG","","","http://en.wikipedia.org/wiki/Polokwane_International_Airport","FAPB,  AFB Pietersburg,  Pietersburg International Airport, Gateway International Airport"
2828,"FAPS","medium_airport","Potchefstroom Airport",-26.671,27.0819,4520,"AF","ZA","ZA-NW","Potchefstroom","no","FAPS","PCF","","","",""
2830,"FAQT","medium_airport","Queenstown Airport",-31.9202,26.8822,3637,"AF","ZA","ZA-EC","Queenstown","no","FAQT","UTW","","","",""
2831,"FARB","medium_airport","Richards Bay Airport",-28.741,32.0921,109,"AF","ZA","ZA-NL","Richards Bay","yes","FARB","RCB","","","http://en.wikipedia.org/wiki/Richards_Bay_Airport",""
2833,"FARS","medium_airport","Robertson Airport",-33.8122,19.9028,640,"AF","ZA","ZA-WC","Robertson","no","FARS","ROD","","","",""
2834,"FASB","medium_airport","Springbok Airport",-29.6893,17.9396,2690,"AF","ZA","ZA-NC","Springbok","no","FASB","SBU","","","",""
2835,"FASC","medium_airport","Secunda Airport",-26.5241,29.1701,5250,"AF","ZA","ZA-MP","Secunda","no","FASC","ZEC","","","",""
2839,"FASS","medium_airport","Sishen Airport",-27.6486,22.9993,3848,"AF","ZA","ZA-NC","Sishen","no","FASS","SIS","","","",""
2841,"FASZ","medium_airport","Skukuza Airport",-24.9609,31.5887,1020,"AF","ZA","ZA-MP","Skukuza","no","FASZ","SZK","","","http://en.wikipedia.org/wiki/Skukuza_Airport",""
2845,"FATZ","medium_airport","Tzaneen Airport",-23.8244,30.3293,1914,"AF","ZA","ZA-NP","Tzaneen","no","FATZ","LTA","","","",""
2846,"FAUL","medium_airport","Prince Mangosuthu Buthelezi Airport",-28.3206,31.4165,1720,"AF","ZA","ZA-NL","Ulundi","no","FAUL","ULD","","","http://en.wikipedia.org/wiki/Ulundi_Airport",""
2847,"FAUP","medium_airport","Pierre Van Ryneveld Airport",-28.3991,21.2602,2782,"AF","ZA","ZA-NC","Upington","yes","FAUP","UTN","","","http://en.wikipedia.org/wiki/Upington_Airport",""
2848,"FAUT","medium_airport","K. D. Matanzima Airport",-31.5464,28.6734,2400,"AF","ZA","ZA-EC","Mthatha","yes","FAUT","UTT","","","http://en.wikipedia.org/wiki/K.D._Matanzima_Airport","Umtata"
2849,"FAVB","medium_airport","Vryburg Airport",-26.9824,24.7288,3920,"AF","ZA","ZA-NW","Vyrburg","no","FAVB","VRU","","","http://en.wikipedia.org/wiki/Vryburg_Airport",""
2850,"FAVG","medium_airport","Virginia Airport",-29.7706,31.0584,20,"AF","ZA","ZA-NL","Durban","no","FAVG","VIR","","","",""
2852,"FAVR","medium_airport","Vredendal Airport",-31.641,18.5448,330,"AF","ZA","ZA-WC","Vredendal","no","FAVR","VRE","","","",""
2854,"FAWB","medium_airport","Wonderboom Airport",-25.6539,28.2242,4095,"AF","ZA","ZA-GT","Pretoria","yes","FAWB","PRY","","http://www.wonderboomairport.co.za/","http://en.wikipedia.org/wiki/Wonderboom_Airport",""
2860,"FBFT","medium_airport","Francistown Airport",-21.1596,27.4745,3283,"AF","BW","BW-NE","Francistown","yes","FBFT","FRW","","","http://en.wikipedia.org/wiki/Francistown_Airport",""
2861,"FBJW","medium_airport","Jwaneng Airport",-24.6023,24.691,3900,"AF","BW","BW-SO","","yes","FBJW","JWA","","","http://en.wikipedia.org/wiki/Jwaneng_Airport",""
2862,"FBKE","medium_airport","Kasane Airport",-17.8329,25.1624,3289,"AF","BW","BW-NW","Kasane","yes","FBKE","BBK","","","http://en.wikipedia.org/wiki/Kasane_Airport",""
2863,"FBMN","medium_airport","Maun Airport",-19.9726,23.4311,3093,"AF","BW","BW-NW","Maun","yes","FBMN","MUB","","","http://en.wikipedia.org/wiki/Maun_Airport",""
2864,"FBSK","medium_airport","Sir Seretse Khama International Airport",-24.5552,25.9182,3299,"AF","BW","BW-SE","Gaborone","yes","FBSK","GBE","","","http://en.wikipedia.org/wiki/Sir_Seretse_Khama_International_Airport",""
2865,"FBSN","medium_airport","Sua Pan Airport",-20.5534,26.1158,2985,"AF","BW","BW-CE","Sowa","no","FBSN","SXN","","","https://en.wikipedia.org/wiki/Sua_Pan_Airport",""
2866,"FBSP","medium_airport","Selebi Phikwe Airport",-22.0583,27.8288,2925,"AF","BW","BW-CE","","yes","FBSP","PKW","","","http://en.wikipedia.org/wiki/Selebi-Phikwe_Airport",""
2868,"FCBB","medium_airport","Maya-Maya Airport",-4.2517,15.253,1048,"AF","CG","CG-12","Brazzaville","yes","FCBB","BZV","","","http://en.wikipedia.org/wiki/Maya-Maya_Airport",""
2869,"FCOO","medium_airport","Owando Airport",-0.53135,15.9501,1214,"AF","CG","CG-8","Owando","no","FCOO","FTX","","","",""
2870,"FCOU","medium_airport","Ouesso Airport",1.61599,16.0379,1158,"AF","CG","CG-13","","no","FCOU","OUE","","","",""
2871,"FCPP","medium_airport","Pointe Noire Airport",-4.81603,11.8866,55,"AF","CG","CG-5","Pointe Noire","yes","FCPP","PNR","","","http://en.wikipedia.org/wiki/Pointe_Noire_Airport","Antonio Agostinho Neto International Airport"
2872,"FDMS","medium_airport","Matsapha Airport",-26.529,31.3075,2075,"AF","SZ","SZ-MA","Manzini","yes","FDMS","MTS","","","http://en.wikipedia.org/wiki/Matsapha_Airport",""
2873,"FEFF","medium_airport","Bangui M'Poko International Airport",4.39848,18.5188,1208,"AF","CF","CF-MP","Bangui","yes","FEFF","BGF","","","http://en.wikipedia.org/wiki/Bangui_M'Poko_International_Airport",""
2874,"FEFT","medium_airport","Berbérati Airport",4.22158,15.7864,1929,"AF","CF","CF-HS","Berbérati","no","FEFT","BBT","","","http://en.wikipedia.org/wiki/Berb%C3%A9rati_Airport",""
2875,"FGBT","medium_airport","Bata Airport",1.90547,9.80568,13,"AF","GQ","GQ-LI","","yes","FGBT","BSG","","","http://en.wikipedia.org/wiki/Bata_Airport",""
2876,"FGSL","medium_airport","Malabo Airport",3.75527,8.70872,76,"AF","GQ","GQ-BN","Malabo","yes","FGSL","SSG","","","http://en.wikipedia.org/wiki/Malabo_International_Airport","Fernando Poo"
2877,"FHAW","medium_airport","RAF Ascension Island",-7.9696,-14.3937,278,"AF","SH","SH-AC","Ascension Island","no","FHAW","ASI","","http://www.raf.mod.uk/organisation/stations.cfm?selectStation=9DEB5257-FDEF-6850-8B1CFF5050616CC1#cgi.script_name#","http://en.wikipedia.org/wiki/Ascension_Island_Base","Wideawake Airfield"
2878,"FIMP","medium_airport","Sir Seewoosagur Ramgoolam International Airport",-20.4302,57.6836,186,"AF","MU","MU-GP","Port Louis","yes","FIMP","MRU","","http://aml.mru.aero/","http://en.wikipedia.org/wiki/Sir_Seewoosagur_Ramgoolam_International_Airport","Plaisance International Airport"
2879,"FIMR","large_airport","Sir Charles Gaetan Duval Airport",-19.7577,63.361,95,"AF","MU","MU-VP","Port Mathurin","yes","FIMR","RRG","","","http://en.wikipedia.org/wiki/Rodrigues_Island_Airport","Plaine Corail"
2881,"FKKC","medium_airport","Tiko Airport",4.08919,9.36053,151,"AF","CM","CM-SW","Tiko","no","FKKC","TKC","","","http://en.wikipedia.org/wiki/Tiko_Airport",""
2882,"FKKD","medium_airport","Douala International Airport",4.00608,9.71948,33,"AF","CM","CM-LT","Douala","yes","FKKD","DLA","","","http://en.wikipedia.org/wiki/Douala_International_Airport",""
2883,"FKKL","medium_airport","Salak Airport",10.4514,14.2574,1390,"AF","CM","CM-EN","Maroua","yes","FKKL","MVR","","","http://en.wikipedia.org/wiki/Salak_Airport",""
2884,"FKKM","medium_airport","Foumban Nkounja Airport",5.63692,10.7508,3963,"AF","CM","CM-OU","Foumban","no","FKKM","FOM","","","",""
2885,"FKKN","medium_airport","N'Gaoundéré Airport",7.35701,13.5592,3655,"AF","CM","CM-AD","N'Gaoundéré","yes","FKKN","NGE","","","http://en.wikipedia.org/wiki/N'Gaound%C3%A9r%C3%A9_Airport","Ngaoundere"
2886,"FKKR","medium_airport","Garoua International Airport",9.33589,13.3701,794,"AF","CM","CM-NO","Garoua","yes","FKKR","GOU","","","http://en.wikipedia.org/wiki/Garoua_International_Airport",""
2887,"FKKU","medium_airport","Bafoussam Airport",5.53692,10.3546,4347,"AF","CM","CM-OU","Bafoussam","no","FKKU","BFX","","","http://en.wikipedia.org/wiki/Bafoussam_Airport",""
2888,"FKKV","medium_airport","Bamenda Airport",6.03924,10.1226,4065,"AF","CM","CM-NW","Bamenda","no","FKKV","BPC","","","",""
2889,"FKKY","medium_airport","Yaoundé Airport",3.83604,11.5235,2464,"AF","CM","CM-CE","Yaoundé","yes","FKKY","YAO","","","http://en.wikipedia.org/wiki/Yaound%C3%A9_Airport","Yaoundé Ville Airport"
2890,"FKYS","medium_airport","Yaoundé Nsimalen International Airport",3.72256,11.5533,2278,"AF","CM","CM-CE","Yaoundé","yes","FKYS","NSI","","","http://en.wikipedia.org/wiki/Yaound%C3%A9_Nsimalen_International_Airport",""
2891,"FLKE","medium_airport","Kasompe Airport",-12.5728,27.8939,4636,"AF","ZM","ZM-08","Chingola","no","FLKE","CGJ","","","https://en.wikipedia.org/wiki/Kasompe_Airport",""
2893,"FLLI","medium_airport","Livingstone Airport",-17.8218,25.8227,3302,"AF","ZM","ZM-07","Livingstone","yes","FLLI","LVI","","","http://en.wikipedia.org/wiki/Livingstone_Airport",""
2894,"FLLS","large_airport","Kenneth Kaunda International Airport Lusaka",-15.3308,28.4526,3779,"AF","ZM","ZM-09","Lusaka","yes","FLKK","LUN","","http://www.nacl.co.zm/?page_id=336","http://en.wikipedia.org/wiki/Lusaka_International_Airport",""
2895,"FLMF","medium_airport","Mfuwe Airport",-13.2589,31.9366,1853,"AF","ZM","ZM-03","Mfuwe","yes","FLMF","MFU","","","http://en.wikipedia.org/wiki/Mfuwe_Airport",""
2896,"FLMG","medium_airport","Mongu Airport",-15.2545,23.1623,3488,"AF","ZM","ZM-01","Mongu","no","FLMG","MNR","","","",""
2897,"FLND","medium_airport","Simon Mwansa Kapwepwe International Airport",-12.9981,28.6649,4167,"AF","ZM","ZM-08","Ndola","yes","FLSK","NLA","","","http://en.wikipedia.org/wiki/Ndola_Airport","FLND, Ndola Airport"
2898,"FLSO","medium_airport","Southdowns Airport",-12.9005,28.1499,4145,"AF","ZM","ZM-08","Kitwe","no","FLSO","KIW","","","",""
2901,"FMCH","medium_airport","Prince Said Ibrahim International Airport",-11.5337,43.2719,93,"AF","KM","KM-G","Moroni","yes","FMCH","HAH","","","http://en.wikipedia.org/wiki/Prince_Said_Ibrahim_International_Airport","Hahaia"
2902,"FMCI","medium_airport","Mohéli Bandar Es Eslam Airport",-12.2981,43.7664,46,"AF","KM","KM-M","","yes","FMCI","NWA","","","http://en.wikipedia.org/wiki/Moh%C3%A9li_Bandar_Es_Eslam_Airport","Mwali, Bandaressalam"
2903,"FMCV","medium_airport","Ouani Airport",-12.1317,44.4303,62,"AF","KM","KM-A","Ouani","yes","FMCV","AJN","","","http://en.wikipedia.org/wiki/Ouani_Airport",""
2904,"FMCZ","medium_airport","Dzaoudzi Pamandzi International Airport",-12.8047,45.2811,23,"AF","YT","YT-U-A","Dzaoudzi","yes","FMCZ","DZA","","","http://en.wikipedia.org/wiki/Dzaoudzi_Pamandzi_International_Airport",""
2905,"FMEE","medium_airport","Roland Garros Airport",-20.8871,55.5103,66,"AF","RE","RE-U-A","St Denis","yes","FMEE","RUN","","http://www.reunion.aeroport.fr/index.htm","http://en.wikipedia.org/wiki/Roland_Garros_Airport","Gillot Airport"
2906,"FMEP","medium_airport","Pierrefonds Airport",-21.3209,55.425,59,"AF","RE","RE-U-A","St Pierre","yes","FMEP","ZSE","","http://www.grandsudreunion.org/FR2004/aeroport.php","http://en.wikipedia.org/wiki/Pierrefonds_Airport","Aéroport de Saint-Pierre - Pierrefonds"
2908,"FMMI","medium_airport","Ivato Airport",-18.7969,47.4788,4198,"AF","MG","MG-T","Antananarivo","yes","FMMI","TNR","","","http://en.wikipedia.org/wiki/Ivato_Airport",""
2909,"FMMN","medium_airport","Miandrivazo Airport",-19.5628,45.4508,203,"AF","MG","MG-U","","yes","FMMN","ZVA","","","http://en.wikipedia.org/wiki/Miandrivazo_Airport",""
2910,"FMMS","medium_airport","Sainte Marie Airport",-17.0939,49.8158,7,"AF","MG","MG-A","","yes","FMMS","SMS","","","http://en.wikipedia.org/wiki/Saints_Marie_Airport",""
2911,"FMMT","medium_airport","Toamasina Airport",-18.1095,49.3925,22,"AF","MG","MG-A","","yes","FMMT","TMM","","","http://en.wikipedia.org/wiki/Toamasina_Airport",""
2912,"FMMV","medium_airport","Morondava Airport",-20.2847,44.3176,30,"AF","MG","MG-U","","yes","FMMV","MOQ","","","http://en.wikipedia.org/wiki/Morondava_Airport",""
2913,"FMNA","medium_airport","Arrachart Airport",-12.3494,49.2917,374,"AF","MG","MG-D","","yes","FMNA","DIE","","","http://en.wikipedia.org/wiki/Arrachart_Airport",""
2914,"FMNC","medium_airport","Mananara Nord Airport",-16.1639,49.7738,9,"AF","MG","MG-A","Mananara Nord","yes","FMNC","WMR","","","http://en.wikipedia.org/wiki/Mananara_Nord_Airport","Avaratra Airport"
2915,"FMND","medium_airport","Andapa Airport",-14.6517,49.6206,1552,"AF","MG","MG-D","","no","FMND","ZWA","","","",""
2917,"FMNH","medium_airport","Antsirabato Airport",-14.9994,50.3202,20,"AF","MG","MG-D","","yes","FMNH","ANM","","","http://en.wikipedia.org/wiki/Antsirabato_Airport",""
2918,"FMNL","medium_airport","Analalava Airport",-14.6297,47.7638,345,"AF","MG","MG-M","","yes","FMNL","HVA","","","http://en.wikipedia.org/wiki/Analalava_Airport",""
2919,"FMNM","medium_airport","Amborovy Airport",-15.6668,46.3512,87,"AF","MG","MG-M","","yes","FMNM","MJN","","","http://en.wikipedia.org/wiki/Amborovy_Airport","Philibert Tsiranana Airport, Mahajanga"
2920,"FMNN","medium_airport","Fascene Airport",-13.3121,48.3148,36,"AF","MG","MG-D","Nosy Be","yes","FMNN","NOS","","","http://en.wikipedia.org/wiki/Fascene_Airport",""
2921,"FMNQ","medium_airport","Besalampy Airport",-16.7445,44.4825,125,"AF","MG","MG-M","","yes","FMNQ","BPY","","","http://en.wikipedia.org/wiki/Besalampy_Airport",""
2922,"FMNR","medium_airport","Maroantsetra Airport",-15.4367,49.6883,13,"AF","MG","MG-A","","yes","FMNR","WMN","","","http://en.wikipedia.org/wiki/Maroantsetra_Airport",""
2923,"FMNS","medium_airport","Sambava Airport",-14.2786,50.1747,20,"AF","MG","MG-D","","yes","FMNS","SVB","","","http://en.wikipedia.org/wiki/Sambava_Airport",""
2924,"FMNV","medium_airport","Vohimarina Airport",-13.3758,50.0028,19,"AF","MG","MG-D","","yes","FMNV","VOH","","","http://en.wikipedia.org/wiki/Vohemar_Airport",""
2925,"FMNW","medium_airport","Ambalabe Airport",-14.8988,47.9939,92,"AF","MG","MG-M","Antsohihy","yes","FMNW","WAI","","","http://en.wikipedia.org/wiki/Ambalabe_Airport",""
2927,"FMSD","medium_airport","Tôlanaro Airport",-25.0381,46.9561,29,"AF","MG","MG-U","Tôlanaro","yes","FMSD","FTU","","","http://en.wikipedia.org/wiki/T%C3%B4lanaro_Airport","Tolagnaro Airport, Marillac Airport"
2928,"FMSF","medium_airport","Fianarantsoa Airport",-21.4416,47.1117,3658,"AF","MG","MG-F","","yes","FMSF","WFI","","","http://en.wikipedia.org/wiki/Fianarantsoa_Airport",""
2930,"FMSK","medium_airport","Manakara Airport",-22.1197,48.0217,33,"AF","MG","MG-F","","yes","FMSK","WVK","","","http://en.wikipedia.org/wiki/Manakara_Airport",""
2931,"FMSM","medium_airport","Mananjary Airport",-21.2018,48.3583,20,"AF","MG","MG-F","","yes","FMSM","MNJ","","","http://en.wikipedia.org/wiki/Mananjary_Airport",""
2932,"FMSR","medium_airport","Morombe Airport",-21.7539,43.3755,16,"AF","MG","MG-U","","yes","FMSR","MXM","","","http://en.wikipedia.org/wiki/Morombe_Airport",""
2933,"FMST","medium_airport","Toliara Airport",-23.3834,43.7285,29,"AF","MG","MG-U","","yes","FMST","TLE","","","http://en.wikipedia.org/wiki/Toliara_Airport",""
2934,"FNBC","medium_airport","Mbanza Congo Airport",-6.2699,14.247,1860,"AF","AO","AO-ZAI","Mbanza Congo","yes","FNBC","SSY","","","http://en.wikipedia.org/wiki/Mbanza_Congo_Airport",""
2935,"FNBG","medium_airport","Benguela Airport",-12.609,13.4037,118,"AF","AO","AO-BGU","Benguela","no","FNBG","BUG","","","http://en.wikipedia.org/wiki/Benguela_Airport","Aeroporto 17 de Setembro, Gen. V. Deslandes Airport"
2936,"FNCA","medium_airport","Cabinda Airport",-5.59699,12.1884,66,"AF","AO","AO-CAB","Cabinda","yes","FNCA","CAB","","","http://en.wikipedia.org/wiki/Cabinda_Airport",""
2937,"FNDU","medium_airport","Dundo Airport",-7.40089,20.8185,2451,"AF","AO","AO-LNO","Chitato","yes","FNDU","DUE","","","http://en.wikipedia.org/wiki/Dundo_Airport",""
2938,"FNGI","medium_airport","Ngjiva Pereira Airport",-17.0435,15.6838,3566,"AF","AO","AO-CNN","Ngiva","yes","FNGI","VPE","","","http://en.wikipedia.org/wiki/Ondjiva_Pereira_Airport","Ngiva Airport, NGV, Ondjiva, 11 de Novembro"
2939,"FNHU","medium_airport","Nova Lisboa Airport",-12.8089,15.7605,5587,"AF","AO","AO-HUA","Huambo","yes","FNHU","NOV","","","http://en.wikipedia.org/wiki/Nova_Lisboa_Airport","Nova Lisbo Airport"
2940,"FNKU","medium_airport","Kuito Airport",-12.4046,16.9474,5618,"AF","AO","AO-BIE","Kuito","no","FNKU","SVP","","","https://en.wikipedia.org/wiki/Kuito_Airport",""
2942,"FNLU","medium_airport","Quatro de Fevereiro Airport",-8.85837,13.2312,243,"AF","AO","AO-LUA","Luanda","yes","FNLU","LAD","","","http://en.wikipedia.org/wiki/Quatro_de_Fevereiro_Airport","4 de Fevereiro"
2944,"FNMA","medium_airport","Malanje Airport",-9.52509,16.3124,3868,"AF","AO","AO-MAL","Malanje","yes","FNMA","MEG","","","http://en.wikipedia.org/wiki/Malanje_Airport",""
2945,"FNME","medium_airport","Menongue Airport",-14.6576,17.7198,4469,"AF","AO","AO-CCU","Menongue","yes","FNME","SPP","","","http://en.wikipedia.org/wiki/Menongue_Airport",""
2946,"FNMO","medium_airport","Namibe Airport",-15.2612,12.1468,210,"AF","AO","AO-NAM","Namibe","yes","FNMO","MSZ","","","http://en.wikipedia.org/wiki/Namibe_Airport",""
2947,"FNNG","medium_airport","Negage Airport",-7.75451,15.2877,4105,"AF","AO","AO-UIG","Negage","yes","FNNG","GXG","","","http://en.wikipedia.org/wiki/Negage_Airport",""
2948,"FNPA","medium_airport","Porto Amboim Airport",-10.722,13.7655,16,"AF","AO","AO-CUS","Port Amboim","no","FNPA","PBN","","","",""
2949,"FNSA","medium_airport","Saurimo Airport",-9.68907,20.4319,3584,"AF","AO","AO-LSU","Saurimo","no","FNSA","VHC","","","",""
2950,"FNSO","medium_airport","Soyo Airport",-6.14109,12.3718,15,"AF","AO","AO-ZAI","Soyo","yes","FNSO","SZA","","","http://en.wikipedia.org/wiki/Soyo_Airport",""
2951,"FNSU","medium_airport","Sumbe Airport",-11.1679,13.8475,36,"AF","AO","AO-CUS","Sumbe","no","FNSU","NDD","","","",""
2952,"FNUB","medium_airport","Lubango Airport",-14.9247,13.575,5778,"AF","AO","AO-HUI","Lubango","yes","FNUB","SDD","","","http://en.wikipedia.org/wiki/Lubango_Airport",""
2953,"FNUE","medium_airport","Luena Airport",-11.7681,19.8977,4360,"AF","AO","AO-MOX","Luena","no","FNUE","LUO","","","",""
2954,"FNUG","medium_airport","Uige Airport",-7.60307,15.0278,2720,"AF","AO","AO-UIG","Uige","no","FNUG","UGO","","","",""
2955,"FNXA","medium_airport","Xangongo Airport",-16.7554,14.9653,3635,"AF","AO","AO-CNN","Xangongo","no","FNXA","XGN","","","http://en.wikipedia.org/wiki/Xangongo_Airport",""
2957,"FOGK","medium_airport","Koulamoutou Mabimbi Airport",-1.18461,12.4413,1070,"AF","GA","GA-7","Koulamoutou","yes","FOGK","KOU","","","http://en.wikipedia.org/wiki/Koula_Moutou_Airport","Koula Moutou, FO23, Koulamouton/Mabimbi"
2958,"FOGM","medium_airport","Mouilla Ville Airport",-1.84514,11.0567,295,"AF","GA","GA-4","Mouila","yes","FOGM","MJL","","","http://en.wikipedia.org/wiki/Mouila_Airport",""
2959,"FOGO","medium_airport","Oyem Airport",1.54311,11.5814,2158,"AF","GA","GA-9","Oyem","yes","FOGO","OYE","","","http://en.wikipedia.org/wiki/Oyem_Airport",""
2960,"FOGQ","medium_airport","Okondja Airport",-0.665214,13.6731,1325,"AF","GA","GA-2","Okondja","no","FOGQ","OKN","","","",""
2961,"FOGR","medium_airport","Lambarene Airport",-0.704389,10.2457,82,"AF","GA","GA-3","Lambarene","no","FOGR","LBQ","","","",""
2962,"FOOB","medium_airport","Bitam Airport",2.07564,11.4932,1969,"AF","GA","GA-9","Bitam","no","FOOB","BMM","","","",""
2963,"FOOG","medium_airport","Port Gentil Airport",-0.711739,8.75438,13,"AF","GA","GA-8","Port Gentil","yes","FOOG","POG","","","http://en.wikipedia.org/wiki/Port-Gentil_International_Airport",""
2964,"FOOH","medium_airport","Omboue Hopital Airport",-1.57473,9.26269,33,"AF","GA","GA-8","Omboue","no","FOOH","OMB","","","",""
2965,"FOOK","medium_airport","Makokou Airport",0.579211,12.8909,1726,"AF","GA","GA-6","Makokou","yes","FOOK","MKU","","","http://en.wikipedia.org/wiki/Makokou_Airport",""
2966,"FOOL","medium_airport","Libreville Leon M'ba International Airport",0.4586,9.41228,39,"AF","GA","GA-1","Libreville","yes","FOOL","LBV","","http://www.adlgabon.com","http://en.wikipedia.org/wiki/Libreville_International_Airport",""
2967,"FOON","medium_airport","M'Vengue El Hadj Omar Bongo Ondimba International Airport",-1.65616,13.438,1450,"AF","GA","GA-2","Franceville","yes","FOON","MVB","","","http://en.wikipedia.org/wiki/M'Vengue_El_Hadj_Omar_Bongo_Ondimba_International_Airport",""
2968,"FPPR","medium_airport","Principe Airport",1.66294,7.41174,591,"AF","ST","ST-P","","yes","FPPR","PCP","","","http://en.wikipedia.org/wiki/Pr%C3%ADncipe_Airport",""
2969,"FPST","medium_airport","São Tomé International Airport",0.378175,6.71215,33,"AF","ST","ST-S","São Tomé","yes","FPST","TMS","","","http://en.wikipedia.org/wiki/S%C3%A3o_Tom%C3%A9_International_Airport",""
2970,"FQBR","medium_airport","Beira Airport",-19.7964,34.9076,33,"AF","MZ","MZ-S","Beira","yes","FQBR","BEW","","","http://en.wikipedia.org/wiki/Beira_Airport",""
2971,"FQCH","medium_airport","Chimoio Airport",-19.1513,33.429,2287,"AF","MZ","MZ-B","Chimoio","yes","FQCH","VPY","","","http://en.wikipedia.org/wiki/Chimoio_Airport",""
2972,"FQIN","medium_airport","Inhambane Airport",-23.8764,35.4085,30,"AF","MZ","MZ-I","Inhambabe","yes","FQIN","INH","","","http://en.wikipedia.org/wiki/Inhambane_Airport",""
2973,"FQLC","medium_airport","Lichinga Airport",-13.274,35.2663,4505,"AF","MZ","MZ-A","Lichinga","yes","FQLC","VXC","","","http://en.wikipedia.org/wiki/Lichinga_Airport",""
2975,"FQMA","medium_airport","Maputo Airport",-25.9208,32.5726,145,"AF","MZ","MZ-MPM","Maputo","yes","FQMA","MPM","","","http://en.wikipedia.org/wiki/Maputo_International_Airport",""
2976,"FQMD","medium_airport","Mueda Airport",-11.6729,39.5631,2789,"AF","MZ","MZ-P","Mueda","no","FQMD","MUD","","","",""
2977,"FQMP","medium_airport","Mocímboa da Praia Airport",-11.3618,40.3549,89,"AF","MZ","MZ-P","Mocímboa da Praia","no","FQMP","MZB","","","",""
2980,"FQNP","medium_airport","Nampula Airport",-15.1056,39.2818,1444,"AF","MZ","MZ-N","Nampula","yes","FQNP","APL","","","http://en.wikipedia.org/wiki/Nampula_Airport",""
2981,"FQPB","medium_airport","Pemba Airport",-12.9918,40.524,331,"AF","MZ","MZ-P","Pemba / Porto Amelia","yes","FQPB","POL","","","http://en.wikipedia.org/wiki/Pemba_Airport",""
2982,"FQQL","medium_airport","Quelimane Airport",-17.8555,36.8691,36,"AF","MZ","MZ-Q","Quelimane","yes","FQQL","UEL","","","http://en.wikipedia.org/wiki/Quelimane_Airport",""
2984,"FQTT","medium_airport","Chingozi Airport",-16.1048,33.6402,525,"AF","MZ","MZ-T","Tete","yes","FQTT","TET","","","http://en.wikipedia.org/wiki/Chingozi_Airport",""
2986,"FQVL","medium_airport","Vilankulo Airport",-22.0184,35.3133,46,"AF","MZ","MZ-I","Vilanculo","yes","FQVL","VNX","","","http://en.wikipedia.org/wiki/Vilankulo_Airport","Vilanculos Airport"
2993,"FSIA","medium_airport","Seychelles International Airport",-4.67434,55.5218,10,"AF","SC","SC-20","Mahe Island","yes","FSIA","SEZ","","","http://en.wikipedia.org/wiki/Seychelles_International_Airport",""
2994,"FSPP","medium_airport","Praslin Airport",-4.31929,55.6914,10,"AF","SC","SC-14","Praslin Island","yes","FSPP","PRI","","","http://en.wikipedia.org/wiki/Praslin_Island_Airport",""
2996,"FTTC","medium_airport","Abeche Airport",13.847,20.8443,1788,"AF","TD","TD-OD","","yes","FTTC","AEH","","","http://en.wikipedia.org/wiki/Ab%C3%A9ch%C3%A9_Airport",""
2997,"FTTD","medium_airport","Moundou Airport",8.62441,16.0714,1407,"AF","TD","TD-LO","","yes","FTTD","MQQ","","","http://en.wikipedia.org/wiki/Moundou_Airport",""
2998,"FTTJ","medium_airport","N'Djamena International Airport",12.1337,15.034,968,"AF","TD","TD-CB","N'Djamena","yes","FTTJ","NDJ","","","http://en.wikipedia.org/wiki/N'Djamena_International_Airport","Ndjamena Hassan Djamous"
2999,"FTTY","medium_airport","Faya Largeau Airport",17.9171,19.1111,771,"AF","TD","TD-BET","","no","FTTY","FYT","","","",""
3000,"FVBU","medium_airport","Joshua Mqabuko Nkomo International Airport",-20.0174,28.6179,4359,"AF","ZW","ZW-BU","Bulawayo","yes","FVBU","BUQ","","","http://en.wikipedia.org/wiki/Joshua_Mqabuko_Nkomo_International_Airport",""
3003,"FVCZ","medium_airport","Buffalo Range Airport",-21.0081,31.5786,1421,"AF","ZW","ZW-MV","Chiredzi","no","FVCZ","BFO","","","",""
3004,"FVFA","medium_airport","Victoria Falls International Airport",-18.0959,25.839,3490,"AF","ZW","ZW-MN","Victoria Falls","yes","FVFA","VFA","","","http://en.wikipedia.org/wiki/Victoria_Falls_Airport",""
3005,"FVHA","medium_airport","Harare International Airport",-17.9318,31.0928,4887,"AF","ZW","ZW-HA","Harare","yes","FVHA","HRE","","","http://en.wikipedia.org/wiki/Harare_International_Airport",""
3006,"FVKB","medium_airport","Kariba International Airport",-16.5198,28.885,1706,"AF","ZW","ZW-MW","Kariba","no","FVKB","KAB","","","",""
3010,"FVMV","medium_airport","Masvingo International Airport",-20.0553,30.8591,3595,"AF","ZW","ZW-MV","Masvingo","no","FVMV","MVZ","","","",""
3014,"FVWN","medium_airport","Hwange National Park Airport",-18.6299,27.021,3543,"AF","ZW","ZW-MN","Hwange","no","FVWN","HWN","","","http://en.wikipedia.org/wiki/Hwange_National_Park_Airport",""
3015,"FWCL","medium_airport","Chileka International Airport",-15.6791,34.974,2555,"AF","MW","MW-BL","Blantyre","yes","FWCL","BLZ","","","http://en.wikipedia.org/wiki/Chileka_International_Airport",""
3016,"FWKA","medium_airport","Karonga Airport",-9.95357,33.893,1765,"AF","MW","MW-KR","Karonga","no","FWKA","KGJ","","","",""
3018,"FWKI","medium_airport","Lilongwe International Airport",-13.7894,33.781,4035,"AF","MW","MW-LI","Lilongwe","yes","FWKI","LLW","","","http://en.wikipedia.org/wiki/Lilongwe_International_Airport","FWLI, Kamuzu International Airport"
3020,"FWUU","medium_airport","Mzuzu Airport",-11.4447,34.0118,4115,"AF","MW","MW-MZ","Mzuzu","yes","FWUU","ZZU","","","http://en.wikipedia.org/wiki/Mzuzu_Airport",""
3022,"FXMM","medium_airport","Moshoeshoe I International Airport",-29.4623,27.5525,5348,"AF","LS","LS-A","Maseru","yes","FXMM","MSU","","","http://en.wikipedia.org/wiki/Moshoeshoe_I_International_Airport",""
3024,"FYAR","medium_airport","Arandis Airport",-22.4622,14.98,1905,"AF","NA","NA-ER","Arandis","no","FYAR","ADI","","","",""
3026,"FYGF","medium_airport","Grootfontein Airport",-19.6022,18.1227,4636,"AF","NA","NA-OD","Grootfontein","no","FYGF","GFY","","","",""
3028,"FYKT","medium_airport","Keetmanshoop Airport",-26.5398,18.1114,3506,"AF","NA","NA-KA","Keetmanshoop","no","FYKT","KMP","","","",""
3029,"FYLZ","medium_airport","Luderitz Airport",-26.6874,15.2429,457,"AF","NA","NA-KA","Luderitz","yes","FYLZ","LUD","","","http://en.wikipedia.org/wiki/L%C3%BCderitz_Airport",""
3031,"FYOA","medium_airport","Ondangwa Airport",-17.8782,15.9526,3599,"AF","NA","NA-ON","Ondangwa","yes","FYOA","OND","","","http://en.wikipedia.org/wiki/Ondangwa_Airport",""
3032,"FYOG","medium_airport","Oranjemund Airport",-28.5847,16.4467,14,"AF","NA","NA-KA","Oranjemund","yes","FYOG","OMD","","","",""
3035,"FYRU","medium_airport","Rundu Airport",-17.9565,19.7194,3627,"AF","NA","NA-KE","Rundu","yes","FYRU","NDU","","","http://ourairports.com/airports/FYRU/#lat=-17.956499099731445,lon=19.71940040588379,zoom=13,type=Satellite,airport=FYRU",""
3036,"FYTM","medium_airport","Tsumeb Airport",-19.2619,17.7325,4353,"AF","NA","NA-OT","Tsumeb","no","FYTM","TSB","","","https://en.wikipedia.org/wiki/Tsumeb_Airport",""
3037,"FYWB","medium_airport","Walvis Bay Airport",-22.9799,14.6453,299,"AF","NA","NA-ER","Walvis Bay","yes","FYWB","WVB","","","http://en.wikipedia.org/wiki/Walvis_Bay_Airport",""
3038,"FYWE","medium_airport","Eros Airport",-22.6122,17.0804,5575,"AF","NA","NA-KH","Windhoek","yes","FYWE","ERS","","","http://en.wikipedia.org/wiki/Eros_Airport",""
3039,"FYWH","medium_airport","Hosea Kutako International Airport",-22.4799,17.4709,5640,"AF","NA","NA-KH","Windhoek","yes","FYWH","WDH","","","http://en.wikipedia.org/wiki/Windhoek_Hosea_Kutako_International_Airport","J.G. Strijdom Airport"
3040,"FZAA","medium_airport","Ndjili International Airport",-4.38575,15.4446,1027,"AF","CD","CD-KN","Kinshasa","yes","FZAA","FIH","","","http://en.wikipedia.org/wiki/Kinshasa_International_Airport",""
3041,"FZAB","medium_airport","Ndolo Airport",-4.32666,15.3275,915,"AF","CD","CD-KN","N'dolo","no","FZAB","NLO","","","https://en.wikipedia.org/wiki/N%27Dolo_Airport","N'Dolo Airport"
3044,"FZBO","medium_airport","Bandundu Airport",-3.31132,17.3817,1063,"AF","CD","CD-BN","","yes","FZBO","FDU","","","http://en.wikipedia.org/wiki/Bandundu_Airport",""
3045,"FZCA","medium_airport","Kikwit Airport",-5.03577,18.7856,1572,"AF","CD","CD-BN","","yes","FZCA","KKW","","","http://en.wikipedia.org/wiki/Kikwit_Airport",""
3046,"FZEA","medium_airport","Mbandaka Airport",0.0226,18.2887,1040,"AF","CD","CD-EQ","Mbandaka","yes","FZEA","MDK","","","http://en.wikipedia.org/wiki/Mbandaka_Airport",""
3047,"FZFD","medium_airport","Gbadolite Airport",4.25321,20.9753,1509,"AF","CD","CD-EQ","","yes","FZFD","BDT","","","http://en.wikipedia.org/wiki/Gbadolite_Airport",""
3048,"FZFK","medium_airport","Gemena Airport",3.23537,19.7713,1378,"AF","CD","CD-EQ","Gemena","yes","FZFK","GMA","","","http://en.wikipedia.org/wiki/Gemena_Airport",""
3050,"FZGA","medium_airport","Lisala Airport",2.17066,21.4969,1509,"AF","CD","CD-EQ","","no","FZGA","LIQ","","","https://en.wikipedia.org/wiki/Lisala_Airport",""
3052,"FZIC","medium_airport","Bangoka International Airport",0.481639,25.338,1417,"AF","CD","CD-OR","Kisangani","yes","FZIC","FKI","","","http://en.wikipedia.org/wiki/Bangoka_International_Airport",""
3053,"FZJH","medium_airport","Matari Airport",2.82761,27.5883,2438,"AF","CD","CD-OR","","yes","FZJH","IRP","","","http://en.wikipedia.org/wiki/Matari_Airport",""
3054,"FZKA","medium_airport","Bunia Airport",1.56572,30.2208,4045,"AF","CD","CD-OR","","yes","FZKA","BUX","","","http://en.wikipedia.org/wiki/Bunia_Airport",""
3055,"FZKJ","medium_airport","Buta Zega Airport",2.81835,24.7937,1378,"AF","CD","CD-OR","","no","FZKJ","BZU","","","",""
3056,"FZMA","medium_airport","Bukavu Kavumu Airport",-2.30898,28.8088,5643,"AF","CD","CD-SK","","no","FZMA","BKY","","","",""
3057,"FZNA","medium_airport","Goma International Airport",-1.67081,29.2385,5089,"AF","CD","CD-NK","Goma","yes","FZNA","GOM","","","http://en.wikipedia.org/wiki/Goma_International_Airport",""
3058,"FZOA","medium_airport","Kindu Airport",-2.91918,25.9154,1630,"AF","CD","CD-MA","Kindu","yes","FZOA","KND","","","http://en.wikipedia.org/wiki/Kindu_Airport",""
3059,"FZQA","medium_airport","Lubumbashi International Airport",-11.5913,27.5309,4295,"AF","CD","CD-KA","Lubumbashi","yes","FZQA","FBM","","","http://en.wikipedia.org/wiki/Lubumbashi_International_Airport",""
3060,"FZQM","medium_airport","Kolwezi Airport",-10.7659,25.5057,5007,"AF","CD","CD-KA","","yes","FZQM","KWZ","","","http://en.wikipedia.org/wiki/Kolwezi_Airport",""
3061,"FZRF","medium_airport","Kalemie Airport",-5.87556,29.25,2569,"AF","CD","CD-KA","","yes","FZRF","FMI","","","http://en.wikipedia.org/wiki/Kalemie_Airport",""
3062,"FZSA","medium_airport","Kamina Base Airport",-8.64202,25.2529,3543,"AF","CD","CD-KA","","no","FZSA","KMN","","","",""
3063,"FZUA","medium_airport","Kananga Airport",-5.90005,22.4692,2139,"AF","CD","CD-KW","Kananga","yes","FZUA","KGA","","","http://en.wikipedia.org/wiki/Kananga_Airport",""
3064,"FZWA","medium_airport","Mbuji Mayi Airport",-6.12124,23.569,2221,"AF","CD","CD-KE","Mbuji Mayi","yes","FZWA","MJM","","","http://en.wikipedia.org/wiki/Mbuji_Mayi_Airport",""
3066,"GABS","medium_airport","Senou Airport",12.5335,-7.94994,1247,"AF","ML","ML-2","Senou","yes","GABS","BKO","","","http://en.wikipedia.org/wiki/Senou_International_Airport",""
3067,"GAGO","medium_airport","Gao Airport",16.2484,-0.005456,870,"AF","ML","ML-7","","yes","GAGO","GAQ","","","http://en.wikipedia.org/wiki/Gao_International_Airport",""
3068,"GAKY","medium_airport","Kayes Dag Dag Airport",14.4812,-11.4044,164,"AF","ML","ML-1","","yes","GAKY","KYS","","","http://en.wikipedia.org/wiki/Kayes_Airport",""
3069,"GAMB","medium_airport","Mopti Airport",14.5128,-4.07956,906,"AF","ML","ML-5","","yes","GAMB","MZI","","","http://en.wikipedia.org/wiki/Mopti_Airport","Ambodedjo Airport"
3071,"GATB","medium_airport","Timbuktu Airport",16.7305,-3.00758,863,"AF","ML","ML-7","Timbuktu","yes","GATB","TOM","","","http://en.wikipedia.org/wiki/Timbuktu_Airport","Timbuctoo Airport, Tombouctou Airport, Tumbutu Airport, Tombouktou Airport"
3076,"GBYD","medium_airport","Banjul International Airport",13.338,-16.6522,95,"AF","GM","GM-W","Banjul","yes","GBYD","BJL","","","http://en.wikipedia.org/wiki/Banjul_International_Airport","Yundum international Airport"
3077,"GCFV","medium_airport","Fuerteventura Airport",28.4527,-13.8638,85,"EU","ES","ES-CN","Fuerteventura Island","yes","GCFV","FUE","","","http://en.wikipedia.org/wiki/El_Matorral_Airport",""
3079,"GCHI","medium_airport","Hierro Airport",27.8148,-17.8871,103,"EU","ES","ES-CN","El Hierro Island","yes","GCHI","VDE","","","http://en.wikipedia.org/wiki/El_Hierro_Airport",""
3080,"GCLA","medium_airport","La Palma Airport",28.6265,-17.7556,107,"EU","ES","ES-CN","Sta Cruz de la Palma, La Palma Island","yes","GCLA","SPC","","","http://en.wikipedia.org/wiki/La_Palma_Airport",""
3081,"GCLP","large_airport","Gran Canaria Airport",27.9319,-15.3866,78,"EU","ES","ES-CN","Gran Canaria Island","yes","GCLP","LPA","","http://www.aena.es/csee/Satellite?pagename=subHome&Language=EN_GB&c=Page&SiteName=LPA&cid=1048858940184","http://en.wikipedia.org/wiki/Gran_Canaria_Airport","Canary Islands, Las Palmas Airport, Gando Airport"
3082,"GCRR","medium_airport","Lanzarote Airport",28.9455,-13.6052,46,"EU","ES","ES-CN","Lanzarote Island","yes","GCRR","ACE","","","http://en.wikipedia.org/wiki/Arrecife_Airport",""
3083,"GCTS","large_airport","Tenerife South Airport",28.0445,-16.5725,209,"EU","ES","ES-CN","Tenerife Island","yes","GCTS","TFS","","","http://en.wikipedia.org/wiki/Tenerife_South_Airport","Canary Islands, Reina Sofía, TCI"
3084,"GCXO","large_airport","Tenerife Norte Airport",28.4827,-16.3415,2076,"EU","ES","ES-CN","Tenerife Island","yes","GCXO","TFN","","","http://en.wikipedia.org/wiki/Los_Rodeos_Airport","Canary Islands, Los Rodeos, TCI"
3092,"UGSS","medium_airport","Sukhumi Dranda Airport",42.8582,41.1281,53,"AS","GE","GE-AB","Sukhumi","yes","UGSS","SUI","","","http://en.wikipedia.org/wiki/Sukhumi_Dranda_Airport","Babushara Airport, UG29"
3093,"GEML","medium_airport","Melilla Airport",35.2798,-2.95626,156,"EU","ES","ES-ML","Melilla","yes","GEML","MLN","","","http://en.wikipedia.org/wiki/Melilla_Airport",""
3095,"GFLL","medium_airport","Lungi International Airport",8.61644,-13.1955,84,"AF","SL","SL-N","Freetown","yes","GFLL","FNA","","http://www.freetownairport.com/","http://en.wikipedia.org/wiki/Lungi_International_Airport",""
3097,"GGOV","medium_airport","Osvaldo Vieira International Airport",11.8948,-15.6537,129,"AF","GW","GW-BS","Bissau","yes","GGOV","OXB","","","http://en.wikipedia.org/wiki/Osvaldo_Vieira_International_Airport",""
3098,"GLMR","medium_airport","Spriggs Payne Airport",6.28906,-10.7587,25,"AF","LR","LR-MO","Monrovia","yes","GLMR","MLW","","","http://en.wikipedia.org/wiki/Spriggs_Payne_Airport",""
3099,"GLRB","medium_airport","Roberts International Airport",6.23379,-10.3623,31,"AF","LR","LR-MG","Monrovia","yes","GLRB","ROB","","","http://en.wikipedia.org/wiki/Roberts_International_Airport",""
3101,"GMAD","medium_airport","Al Massira Airport",30.325,-9.41307,250,"AF","MA","MA-AGD","Agadir","yes","GMAD","AGA","","","http://en.wikipedia.org/wiki/Al_Massira_Airport",""
3102,"GMAT","medium_airport","Tan Tan Airport",28.4482,-11.1613,653,"AF","MA","MA-TNT","Tan Tan","yes","GMAT","TTA","","","http://en.wikipedia.org/wiki/Tan_Tan_Airport","Plage Blanche Airport"
3103,"GMFF","medium_airport","Saïss Airport",33.9273,-4.97796,1900,"AF","MA","MA-FES","Fes","yes","GMFF","FEZ","","","http://en.wikipedia.org/wiki/Sa%C3%AFss_Airport",""
3105,"GMFK","medium_airport","Moulay Ali Cherif Airport",31.9475,-4.39833,3428,"AF","MA","MA-ERR","Errachidia","yes","GMFK","ERH","","","http://en.wikipedia.org/wiki/Moulay_Ali_Cherif_Airport",""
3106,"GMFM","medium_airport","Bassatine Airport",33.8791,-5.51512,1890,"AF","MA","MA-MEK","Meknes","no","GMFM","MEK","","","",""
3107,"GMFO","medium_airport","Angads Airport",34.7872,-1.92399,1535,"AF","MA","MA-OUJ","Oujda","yes","GMFO","OUD","","","http://en.wikipedia.org/wiki/Angads_Airport",""
3108,"GMMA","medium_airport","Smara Airport",26.7318,-11.6847,350,"AF","EH","EH-U-A","Smara","yes","GMMA","SMW","","","http://en.wikipedia.org/wiki/Smara_Airport","GSMA, Semara"
3109,"GMME","medium_airport","Rabat-Salé Airport",34.0515,-6.75152,276,"AF","MA","MA-RBA","Rabat","yes","GMME","RBA","","","http://en.wikipedia.org/wiki/Sale_Airport",""
3110,"GMMH","medium_airport","Dakhla Airport",23.7183,-15.932,36,"AF","EH","EH-U-A","Dakhla","yes","GMMH","VIL","","","http://en.wikipedia.org/wiki/Dakhla_Airport","GSVO, Villa Cisneros, Dajla, Oued Ed-Dahab"
3112,"GMML","medium_airport","Hassan I Airport",27.1517,-13.2192,207,"AF","EH","EH-U-A","El Aaiún","yes","GMML","EUN","","","http://en.wikipedia.org/wiki/Hassan_Airport","GSAI, Laâyoune"
3113,"GMMN","large_airport","Mohammed V International Airport",33.3675,-7.58997,656,"AF","MA","MA-CAS","Casablanca","yes","GMMN","CMN","","http://www.onda.ma/ONDA/Fr/Espaces/EspacePassagers/LeReseauAeroportuaireONDA/Lesaeroports/Fiches+d%E2%80%99identit%C3%A9+par+a%C","http://en.wikipedia.org/wiki/Mohammed_V_International_Airport","CAS, Casabianca, Nouasseur"
3114,"GMMW","medium_airport","Nador International Airport",34.9888,-3.02821,574,"AF","MA","MA-NAD","Nador","yes","GMMW","NDR","","","http://en.wikipedia.org/wiki/Nador_International_Airport","Al Aroui International Airport"
3115,"GMMX","medium_airport","Menara Airport",31.6069,-8.0363,1545,"AF","MA","MA-MAR","Marrakech","yes","GMMX","RAK","","","http://en.wikipedia.org/wiki/Menara_International_Airport","Marakesh, Marrakesh"
3116,"GMMY","medium_airport","Kenitra Airport",34.2989,-6.59588,16,"AF","MA","MA-KEN","","no","GMMY","NNA","","","",""
3117,"GMMZ","medium_airport","Ouarzazate Airport",30.9391,-6.90943,3782,"AF","MA","MA-OUA","Ouarzazate","yes","GMMZ","OZZ","","","http://en.wikipedia.org/wiki/Ouarzazate_Airport",""
3119,"GMTA","medium_airport","Cherif Al Idrissi Airport",35.1771,-3.83952,95,"AF","MA","MA-HOC","Al Hoceima","yes","GMTA","AHU","","","http://en.wikipedia.org/wiki/Cherif_Al_Idrissi_Airport",""
3120,"GMTN","medium_airport","Saniat R'mel Airport",35.5943,-5.32002,10,"AF","MA","MA-TET","Tétouan","no","GMTN","TTU","","","https://en.wikipedia.org/wiki/Sania_Ramel_Airport","Sania Ramel, Saniet R'mel"
3121,"GMTT","medium_airport","Ibn Batouta Airport",35.7269,-5.91689,62,"AF","MA","MA-TNG","Tangier","yes","GMTT","TNG","","","http://en.wikipedia.org/wiki/Tangier_Ibn_Battouta_Airport","Tanger-Boukhalef Airport"
3122,"GOGG","medium_airport","Ziguinchor Airport",12.5556,-16.2818,75,"AF","SN","SN-ZG","Ziguinchor","yes","GOGG","ZIG","","","http://en.wikipedia.org/wiki/Ziguinchor_Airport","Basse Casamance"
3123,"GOGS","medium_airport","Cap Skirring Airport",12.3953,-16.748,52,"AF","SN","SN-ZG","Cap Skirring","yes","GOGS","CSK","","","http://en.wikipedia.org/wiki/Cap_Skirring_Airport",""
3124,"GOOK","medium_airport","Kaolack Airport",14.1469,-16.0513,26,"AF","SN","SN-FK","Kaolack","no","GOOK","KLC","","","http://en.wikipedia.org/wiki/Kaolack_Airport",""
3125,"GOOY","large_airport","Léopold Sédar Senghor International Airport",14.7397,-17.4902,85,"AF","SN","SN-DK","Dakar","yes","GOOY","DKR","","http://www.aeroportdakar.com/","http://en.wikipedia.org/wiki/Dakar-Yoff-L%C3%A9opold_S%C3%A9dar_Senghor_International_Airport",""
3126,"GOSS","medium_airport","Saint Louis Airport",16.0508,-16.4632,9,"AF","SN","SN-SL","Saint Louis","yes","GOSS","XLS","","","http://en.wikipedia.org/wiki/Saint_Louis_Airport",""
3127,"GOTB","medium_airport","Bakel Airport",14.8473,-12.4683,98,"AF","SN","SN-TC","Bakel","no","GOTB","BXE","","","http://en.wikipedia.org/wiki/Bakel_Airport",""
3128,"GOTK","medium_airport","Kédougou Airport",12.5723,-12.2203,584,"AF","SN","SN-TC","Kédougou","no","GOTK","KGG","","","http://en.wikipedia.org/wiki/K%C3%A9dougou_Airport",""
3129,"GOTT","medium_airport","Tambacounda Airport",13.7368,-13.6531,161,"AF","SN","SN-TC","Tambacounda","yes","GOTT","TUD","","","http://en.wikipedia.org/wiki/Tambacounda_Airport",""
3137,"GQPA","medium_airport","Atar International Airport",20.5068,-13.0432,734,"AF","MR","MR-07","Atar","no","GQPA","ATR","","","http://en.wikipedia.org/wiki/Atar_International_Airport",""
3138,"GQPP","medium_airport","Nouadhibou International Airport",20.9331,-17.03,24,"AF","MR","MR-08","Nouadhibou","yes","GQPP","NDB","","","http://en.wikipedia.org/wiki/Nouadhibou_International_Airport",""
3146,"GUCY","medium_airport","Conakry International Airport",9.57689,-13.612,72,"AF","GN","GN-C","Conakry","yes","GUCY","CKY","","http://www.aeroport-conakry.com/aeroport_international_de_conakry.php","http://en.wikipedia.org/wiki/Conakry_International_Airport","Gbessia International Airport"
3150,"GVAC","medium_airport","Amílcar Cabral International Airport",16.7414,-22.9494,177,"AF","CV","CV-B","Espargos","yes","GVAC","SID","","","http://en.wikipedia.org/wiki/Am%C3%ADlcar_Cabral_International_Airport","Sal Island"
3151,"GVBA","medium_airport","Rabil Airport",16.1365,-22.8889,69,"AF","CV","CV-B","Rabil","yes","GVBA","BVC","","","http://en.wikipedia.org/wiki/Rabil_Airport","Boa Vista Island"
3152,"GVMA","medium_airport","Maio Airport",15.1559,-23.2137,36,"AF","CV","CV-S","Vila do Maio","yes","GVMA","MMO","","","http://en.wikipedia.org/wiki/Maio_Airport","Maio Island"
3153,"GVNP","medium_airport","Praia International Airport",14.9245,-23.4935,230,"AF","CV","CV-S","Praia","yes","GVNP","RAI","","","http://en.wikipedia.org/wiki/Francisco_Mendes_International_Airport","Santiago Island"
3154,"GVSN","medium_airport","Preguiça Airport",16.5884,-24.2847,669,"AF","CV","CV-B","Preguiça","yes","GVSN","SNE","","","http://en.wikipedia.org/wiki/Pregui%C3%A7a_Airport","Sao Nicolau Island"
3155,"GVSV","medium_airport","São Pedro Airport",16.8332,-25.0553,66,"AF","CV","CV-B","São Pedro","no","GVSV","VXE","","","http://en.wikipedia.org/wiki/S%C3%A3o_Pedro_Airport","São Vicente Island"
3157,"HAAB","large_airport","Addis Ababa Bole International Airport",8.97789,38.7993,7630,"AF","ET","ET-AA","Addis Ababa","yes","HAAB","ADD","","http://www.ethiopianairports.com","http://en.wikipedia.org/wiki/Bole_International_Airport","Haile Selassie I, Bole International Airport"
3159,"HAAM","medium_airport","Arba Minch Airport",6.03939,37.5905,3901,"AF","ET","ET-SN","","yes","HAAM","AMH","","","http://en.wikipedia.org/wiki/Arba_Minch_Airport","Gantar,Minghi"
3160,"HAAX","medium_airport","Axum Airport",14.1468,38.7728,6959,"AF","ET","ET-TI","","yes","HAAX","AXU","","","http://en.wikipedia.org/wiki/Axum_Airport",""
3161,"HABD","medium_airport","Bahir Dar Airport",11.6081,37.3216,5978,"AF","ET","ET-AM","Bahir Dar","yes","HABD","BJR","","","http://en.wikipedia.org/wiki/Bahir_Dar_Airport",""
